{"type":"FeatureCollection","features":[{"type":"Feature","id":"way/122660750","properties":{"type":"way","id":122660750,"tags":{"amenity":"townhall","building":"yes","name":"Alcaldía Municipal de Sucre"},"relations":[],"meta":{}},"geometry":{"type":"Polygon","coordinates":[[[-65.2598999,-19.0472938],[-65.2597118,-19.0470774],[-65.2600997,-19.0467472],[-65.2603163,-19.0470226],[-65.2601825,-19.0471239],[-65.2601597,-19.047097],[-65.2598999,-19.0472938]]]}},{"type":"Feature","id":"way/122660752","properties":{"type":"way","id":122660752,"tags":{"addr:city":"Sucre","addr:country":"BO","addr:housenumber":"90","addr:street":"España","amenity":"bank","building":"yes","name":"Banco Nacional de Bolivia"},"relations":[],"meta":{}},"geometry":{"type":"Polygon","coordinates":[[[-65.2582797,-19.0471412],[-65.258204,-19.0472052],[-65.2579975,-19.0469866],[-65.2580132,-19.0469734],[-65.2582485,-19.0467747],[-65.2582929,-19.0468217],[-65.2582367,-19.0468691],[-65.2583411,-19.0469795],[-65.2582434,-19.0470619],[-65.258273,-19.0470932],[-65.2582515,-19.0471114],[-65.2582797,-19.0471412]]]}},{"type":"Feature","id":"way/122660753","properties":{"type":"way","id":122660753,"tags":{"addr:city":"Sucre","addr:country":"BO","addr:housenumber":"11","addr:street":"Plaza 25 de Mayo","building":"yes","name":"Casa de La Libertad","opening_hours":"Sa 09:00-12:30,14:30-18:30; Th 09:00-12:00","tourism":"museum","wikipedia":"es:Casa de la Libertad"},"relations":[],"meta":{}},"geometry":{"type":"Polygon","coordinates":[[[-65.2600368,-19.0474673],[-65.2602797,-19.0472802],[-65.2603298,-19.0473383],[-65.260412,-19.047275],[-65.2604729,-19.0473456],[-65.2605299,-19.0473016],[-65.2604847,-19.0472492],[-65.2605617,-19.0471899],[-65.2606145,-19.0472506],[-65.2606318,-19.0472697],[-65.2606095,-19.0472868],[-65.260651,-19.047335],[-65.2605129,-19.0474413],[-65.2605667,-19.0475037],[-65.2605269,-19.0475343],[-65.2605569,-19.0475691],[-65.2605124,-19.0476033],[-65.260528,-19.0476214],[-65.2603127,-19.0477873],[-65.2600368,-19.0474673]]]}},{"type":"Feature","id":"way/122660754","properties":{"type":"way","id":122660754,"tags":{"amenity":"place_of_worship","building":"yes","denomination":"catholic","name":"Catedral Metropolitana","religion":"christian"},"relations":[],"meta":{}},"geometry":{"type":"Polygon","coordinates":[[[-65.2598437,-19.0490352],[-65.2597871,-19.04897],[-65.259851,-19.0489204],[-65.2597118,-19.0487603],[-65.2600201,-19.0485209],[-65.2599453,-19.0484349],[-65.2601299,-19.0482907],[-65.2601992,-19.0483696],[-65.2604575,-19.0486681],[-65.2603844,-19.0487248],[-65.2603228,-19.0486539],[-65.2602927,-19.0486772],[-65.2603852,-19.0487837],[-65.2603,-19.0488499],[-65.260264,-19.0488085],[-65.2601674,-19.0488834],[-65.2601145,-19.0488225],[-65.2600791,-19.0488499],[-65.2601644,-19.048948],[-65.2600001,-19.0490756],[-65.2599547,-19.0490234],[-65.2599853,-19.0489996],[-65.2599467,-19.0489552],[-65.2598437,-19.0490352]]]}},{"type":"Feature","id":"way/122660757","properties":{"type":"way","id":122660757,"tags":{"amenity":"place_of_worship","building":"yes","denomination":"catholic","name":"Convento de San Felipe de Neri","religion":"christian","wikipedia":"es:Convento de San Felipe de Neri (Sucre)"},"relations":[],"meta":{}},"geometry":{"type":"Polygon","coordinates":[[[-65.2611019,-19.0504903],[-65.2607549,-19.0501186],[-65.2608493,-19.0500399],[-65.2608278,-19.0500168],[-65.2611599,-19.0497399],[-65.2613631,-19.0499577],[-65.2613435,-19.0499741],[-65.2615086,-19.0501511],[-65.2611019,-19.0504903]]]}},{"type":"Feature","id":"way/122660759","properties":{"type":"way","id":122660759,"tags":{"amenity":"courthouse","building":"yes","name":"Corte Suprema de Justicia"},"relations":[],"meta":{}},"geometry":{"type":"Polygon","coordinates":[[[-65.2628589,-19.0437507],[-65.2625404,-19.0434134],[-65.2628154,-19.0431814],[-65.263134,-19.0435186],[-65.2628589,-19.0437507]]]}},{"type":"Feature","id":"way/122660760","properties":{"type":"way","id":122660760,"tags":{"amenity":"hospital","building":"yes","name":"Hospital de Santa Bárbara"},"relations":[],"meta":{}},"geometry":{"type":"Polygon","coordinates":[[[-65.2633824,-19.0440395],[-65.2641351,-19.0448501],[-65.2639663,-19.0449901],[-65.2639031,-19.044922],[-65.2638441,-19.044971],[-65.2638831,-19.0450153],[-65.2637573,-19.0451186],[-65.2637497,-19.0451372],[-65.2636732,-19.0452006],[-65.263684,-19.0452123],[-65.2632429,-19.0455784],[-65.2631413,-19.045469],[-65.2632341,-19.045392],[-65.2631584,-19.0453104],[-65.2630688,-19.0453848],[-65.2627693,-19.0450622],[-65.2628449,-19.0449995],[-65.2628121,-19.0449642],[-65.2629855,-19.0448203],[-65.2628245,-19.0446469],[-65.2626536,-19.0447888],[-65.2625777,-19.0447071],[-65.2633824,-19.0440395]]]}},{"type":"Feature","id":"way/122660761","properties":{"type":"way","id":122660761,"tags":{"amenity":"place_of_worship","building":"yes","denomination":"catholic","name":"Iglesia Santa Bárbara","religion":"christian"},"relations":[],"meta":{}},"geometry":{"type":"Polygon","coordinates":[[[-65.2625003,-19.0447673],[-65.2625777,-19.0447071],[-65.2626536,-19.0447888],[-65.2628121,-19.0449642],[-65.2628449,-19.0449995],[-65.2627693,-19.0450622],[-65.2625003,-19.0447673]]]}},{"type":"Feature","id":"way/122660762","properties":{"type":"way","id":122660762,"tags":{"addr:city":"Sucre","addr:country":"BO","addr:housenumber":"17","addr:street":"Plaza 25 de Mayo","amenity":"public_building","building":"yes","name":"Palacio de la Prefectura de Chuquisaca"},"relations":[],"meta":{}},"geometry":{"type":"Polygon","coordinates":[[[-65.2602216,-19.048354],[-65.2601992,-19.0483696],[-65.2601299,-19.0482907],[-65.2604458,-19.0480428],[-65.2605237,-19.0481299],[-65.2604285,-19.0482012],[-65.260304,-19.0482923],[-65.2602216,-19.048354]]]}},{"type":"Feature","id":"way/122660766","properties":{"type":"way","id":122660766,"tags":{"amenity":"theatre","building":"yes","name":"Teatro Gran Mariscal de Ayacucho"},"relations":[],"meta":{}},"geometry":{"type":"Polygon","coordinates":[[[-65.2631065,-19.0441666],[-65.2630462,-19.0441132],[-65.263018,-19.0441185],[-65.2629916,-19.0441167],[-65.2628994,-19.0440206],[-65.2628994,-19.0439904],[-65.2629126,-19.0439637],[-65.2628617,-19.0439121],[-65.2632213,-19.043622],[-65.2632514,-19.0436167],[-65.2632853,-19.0436273],[-65.2634472,-19.0437786],[-65.2634679,-19.0438106],[-65.2634717,-19.0438498],[-65.2634585,-19.0438765],[-65.2631065,-19.0441666]]]}},{"type":"Feature","id":"way/122660771","properties":{"type":"way","id":122660771,"tags":{"addr:city":"Sucre","addr:country":"BO","addr:housenumber":"100","addr:street":"José Álvarez de Arenales","amenity":"place_of_worship","building":"yes","denomination":"catholic","name":"Templo de San Miguel","religion":"christian"},"relations":[],"meta":{}},"geometry":{"type":"Polygon","coordinates":[[[-65.2610422,-19.0469179],[-65.2609254,-19.0470087],[-65.2608556,-19.047063],[-65.2607746,-19.047126],[-65.2606145,-19.0472506],[-65.2605617,-19.0471899],[-65.2602746,-19.0468603],[-65.2603243,-19.0468216],[-65.2602411,-19.0467261],[-65.2602756,-19.0466992],[-65.260233,-19.0466503],[-65.2605765,-19.0463831],[-65.2610422,-19.0469179]]]}},{"type":"Feature","id":"way/122660772","properties":{"type":"way","id":122660772,"tags":{"amenity":"place_of_worship","building":"yes","denomination":"catholic","name":"Templo de Santa Mónica","religion":"christian"},"relations":[],"meta":{}},"geometry":{"type":"Polygon","coordinates":[[[-65.260708,-19.0462515],[-65.2609561,-19.0460562],[-65.2610403,-19.0461518],[-65.2607922,-19.0463471],[-65.260708,-19.0462515]]]}},{"type":"Feature","id":"way/122660773","properties":{"type":"way","id":122660773,"tags":{"amenity":"university","building":"yes","name":"Universidad de San Francisco Xavier","wikipedia":"es:Universidad Mayor, Real y Pontificia de San Francisco Xavier de Chuquisaca"},"relations":[],"meta":{}},"geometry":{"type":"Polygon","coordinates":[[[-65.2612159,-19.0472971],[-65.2609629,-19.0474904],[-65.2608034,-19.0473001],[-65.2608754,-19.0472462],[-65.2607746,-19.047126],[-65.2608556,-19.047063],[-65.2609144,-19.047133],[-65.2609851,-19.0470801],[-65.2609254,-19.0470087],[-65.2610422,-19.0469179],[-65.2612237,-19.0471386],[-65.2612159,-19.0472971]]]}},{"type":"Feature","id":"way/122676883","properties":{"type":"way","id":122676883,"tags":{"amenity":"place_of_worship","building":"yes","name":"Beaterio de Santa Rita","religion":"christian"},"relations":[],"meta":{}},"geometry":{"type":"Polygon","coordinates":[[[-65.2612227,-19.0442664],[-65.2610074,-19.0444358],[-65.2609652,-19.044386],[-65.2610435,-19.044319],[-65.2609562,-19.0442194],[-65.2609456,-19.0442863],[-65.260905,-19.0442806],[-65.260911,-19.0443034],[-65.2608854,-19.0443176],[-65.2608342,-19.0442635],[-65.2608793,-19.0442265],[-65.2608809,-19.0442023],[-65.2608387,-19.0442023],[-65.260801,-19.0442251],[-65.2607543,-19.0441838],[-65.260801,-19.0441425],[-65.2608055,-19.044124],[-65.2607784,-19.0441197],[-65.2607302,-19.0441624],[-65.2607001,-19.0441311],[-65.2606956,-19.0440913],[-65.2607317,-19.0440571],[-65.2607423,-19.0440229],[-65.2607634,-19.0440016],[-65.2607558,-19.0439574],[-65.2608387,-19.0438976],[-65.2608809,-19.0439332],[-65.2608206,-19.0439816],[-65.2608221,-19.0440286],[-65.2608613,-19.0439973],[-65.26092,-19.0439589],[-65.2609712,-19.0440087],[-65.2608989,-19.0440628],[-65.2608974,-19.0441112],[-65.2609577,-19.0440628],[-65.2610044,-19.04404],[-65.2611248,-19.0441624],[-65.2612227,-19.0442664]]]}},{"type":"Feature","id":"way/122676885","properties":{"type":"way","id":122676885,"tags":{"amenity":"place_of_worship","building":"yes","denomination":"catholic","name":"Convento de la Recoleta","religion":"christian"},"relations":[],"meta":{}},"geometry":{"type":"Polygon","coordinates":[[[-65.2536437,-19.054731],[-65.2537725,-19.0550055],[-65.2537112,-19.0550312],[-65.2534538,-19.0551392],[-65.2535018,-19.0552415],[-65.2533842,-19.0552909],[-65.2532987,-19.0551088],[-65.2531115,-19.0551873],[-65.2531866,-19.0553472],[-65.253151,-19.0553621],[-65.2530721,-19.0551942],[-65.252885,-19.0552727],[-65.252856,-19.0552109],[-65.2528377,-19.0551718],[-65.2529075,-19.0551425],[-65.2528732,-19.0550695],[-65.2528129,-19.0550948],[-65.2527875,-19.0550408],[-65.2527002,-19.0550774],[-65.2526301,-19.0549281],[-65.2529955,-19.0547749],[-65.2530581,-19.0549231],[-65.2531266,-19.0548972],[-65.253195,-19.0550428],[-65.2533272,-19.0549873],[-65.2532611,-19.0548465],[-65.2533639,-19.0548077],[-65.2533799,-19.0548416],[-65.2536437,-19.054731]]]}},{"type":"Feature","id":"way/122676886","properties":{"type":"way","id":122676886,"tags":{"amenity":"place_of_worship","building":"yes","denomination":"catholic","name":"Convento y Templo de Santa Clara","religion":"christian"},"relations":[],"meta":{}},"geometry":{"type":"Polygon","coordinates":[[[-65.2568219,-19.0493637],[-65.256362,-19.0497326],[-65.2562802,-19.0496414],[-65.2563869,-19.0495558],[-65.2563709,-19.0495379],[-65.2563098,-19.0495869],[-65.2560693,-19.049319],[-65.2561696,-19.0492386],[-65.2561474,-19.0492138],[-65.2562089,-19.0491644],[-65.2562302,-19.0491881],[-65.2563427,-19.0490978],[-65.2563207,-19.0490732],[-65.2563557,-19.0490451],[-65.2562748,-19.048955],[-65.2563796,-19.048871],[-65.2568219,-19.0493637]]]}},{"type":"Feature","id":"way/122676889","properties":{"type":"way","id":122676889,"tags":{"addr:city":"Sucre","addr:country":"BO","addr:housename":"Monasterio de Santa Teresa","addr:housenumber":"402","addr:street":"Fray José Antonio de San Alberto","amenity":"place_of_worship","building":"yes","denomination":"catholic","name":"Monasterio y Templo de Santa Teresa","religion":"christian"},"relations":[],"meta":{}},"geometry":{"type":"Polygon","coordinates":[[[-65.2550218,-19.0491928],[-65.2549701,-19.0492343],[-65.2548968,-19.0491527],[-65.2547067,-19.0493054],[-65.2545949,-19.049181],[-65.2545387,-19.0492261],[-65.2545123,-19.0491968],[-65.2544747,-19.049227],[-65.2543768,-19.0491181],[-65.2544491,-19.04906],[-65.2543081,-19.0489031],[-65.2542745,-19.04893],[-65.2541419,-19.0487825],[-65.2543203,-19.0486393],[-65.2544334,-19.0487651],[-65.254533,-19.0486851],[-65.2546243,-19.0487868],[-65.2547134,-19.0487153],[-65.2550177,-19.0490538],[-65.2549475,-19.0491101],[-65.2550218,-19.0491928]]]}},{"type":"Feature","id":"way/122676892","properties":{"type":"way","id":122676892,"tags":{"addr:city":"Sucre","addr:country":"BO","addr:housename":"Casa de la Capellanía","addr:housenumber":"413","addr:street":"Fray José Antonio de San Alberto","building":"yes","name":"Museo ASUR","opening_hours":"Mo-Fr 08:30-12:00,14:30-18:00;Sa 09:30-12:00,14:30-18:00","phone":"4 6453841","tourism":"museum"},"relations":[],"meta":{}},"geometry":{"type":"Polygon","coordinates":[[[-65.2551163,-19.0492558],[-65.2553851,-19.0495311],[-65.2551859,-19.0497049],[-65.2549171,-19.0494296],[-65.2551163,-19.0492558]]]}},{"type":"Feature","id":"way/122676895","properties":{"type":"way","id":122676895,"tags":{"addr:city":"Sucre","addr:country":"BO","addr:housenumber":"1","addr:street":"Juana Azurduy de Padilla","amenity":"place_of_worship","building":"yes","denomination":"catholic","name":"Templo de La Merced","religion":"christian"},"relations":[],"meta":{}},"geometry":{"type":"Polygon","coordinates":[[[-65.2613297,-19.0508904],[-65.2612398,-19.0509613],[-65.261117,-19.0508222],[-65.2608275,-19.0510506],[-65.260706,-19.050913],[-65.2610855,-19.0506137],[-65.2613297,-19.0508904]]]}},{"type":"Feature","id":"way/122676897","properties":{"type":"way","id":122676897,"tags":{"amenity":"place_of_worship","building":"yes","denomination":"catholic","name":"Templo de San Francisco","religion":"christian"},"relations":[],"meta":{}},"geometry":{"type":"Polygon","coordinates":[[[-65.25854,-19.0457285],[-65.2585918,-19.0456862],[-65.258573,-19.045664],[-65.258573,-19.0456351],[-65.2585941,-19.0456039],[-65.2586365,-19.0455928],[-65.2586718,-19.0456084],[-65.2590107,-19.0453459],[-65.2593731,-19.0457797],[-65.2590883,-19.0460132],[-65.2590624,-19.045991],[-65.2590201,-19.0460221],[-65.2589965,-19.0460043],[-65.2589024,-19.0460755],[-65.2589165,-19.0461],[-65.2588742,-19.0461289],[-65.25854,-19.0457285]]]}},{"type":"Feature","id":"way/122676898","properties":{"type":"way","id":122676898,"tags":{"amenity":"place_of_worship","building":"yes","denomination":"catholic","name":"Templo de San Lázaro","religion":"christian"},"relations":[],"meta":{}},"geometry":{"type":"Polygon","coordinates":[[[-65.254715,-19.0509242],[-65.2546247,-19.0510001],[-65.2544985,-19.0508662],[-65.2544637,-19.0508955],[-65.2544235,-19.0508529],[-65.2544518,-19.0508291],[-65.2544371,-19.0508135],[-65.2545524,-19.0507164],[-65.2546091,-19.0507765],[-65.2545805,-19.0508006],[-65.254609,-19.0508307],[-65.2546392,-19.0508053],[-65.2547025,-19.0508725],[-65.2546823,-19.0508895],[-65.254715,-19.0509242]]]}},{"type":"Feature","id":"way/122676899","properties":{"type":"way","id":122676899,"tags":{"amenity":"place_of_worship","building":"yes","denomination":"catholic","name":"Templo de Santo Domingo","religion":"christian"},"relations":[],"meta":{}},"geometry":{"type":"Polygon","coordinates":[[[-65.2574784,-19.049245],[-65.2573921,-19.0491464],[-65.257476,-19.0490808],[-65.2574243,-19.0490218],[-65.257755,-19.0487634],[-65.2578878,-19.0489026],[-65.2576473,-19.0490961],[-65.2576981,-19.0491525],[-65.2576063,-19.0492263],[-65.2575632,-19.0491784],[-65.2575103,-19.049221],[-65.2574784,-19.049245]]]}},{"type":"Feature","id":"way/122676900","properties":{"type":"way","id":122676900,"tags":{"amenity":"place_of_worship","building":"yes","denomination":"catholic","name":"Templo de la Recoleta","religion":"christian"},"relations":[],"meta":{}},"geometry":{"type":"Polygon","coordinates":[[[-65.2533788,-19.0545977],[-65.2534532,-19.054774],[-65.2533639,-19.0548077],[-65.2532611,-19.0548465],[-65.2531266,-19.0548972],[-65.2530581,-19.0549231],[-65.2529955,-19.0547749],[-65.2529837,-19.0547468],[-65.2533788,-19.0545977]]]}},{"type":"Feature","id":"way/122712277","properties":{"type":"way","id":122712277,"tags":{"addr:city":"Sucre","addr:country":"BO","addr:housenumber":"245","addr:street":"Batalla de Junín","amenity":"place_of_worship","building":"yes","denomination":"catholic","name":"Templo de San Sebastián","religion":"christian"},"relations":[],"meta":{}},"geometry":{"type":"Polygon","coordinates":[[[-65.2578524,-19.0430566],[-65.2577551,-19.0429489],[-65.2579168,-19.0428184],[-65.2578632,-19.042759],[-65.2579364,-19.0427],[-65.2579766,-19.0427444],[-65.2580406,-19.0426927],[-65.2581019,-19.0427606],[-65.2580775,-19.0427803],[-65.2581439,-19.0428537],[-65.2580909,-19.0428965],[-65.258074,-19.0428777],[-65.2580091,-19.0429301],[-65.2578524,-19.0430566]]]}},{"type":"Feature","id":"way/122716494","properties":{"type":"way","id":122716494,"tags":{"amenity":"place_of_worship","building":"yes","denomination":"catholic","name":"Templo de San Roque","religion":"christian"},"relations":[],"meta":{}},"geometry":{"type":"Polygon","coordinates":[[[-65.2639558,-19.0533509],[-65.2637687,-19.0534582],[-65.2637303,-19.0534802],[-65.2637539,-19.0535169],[-65.2636873,-19.0535551],[-65.2636385,-19.053479],[-65.2636249,-19.0534868],[-65.2635774,-19.0534129],[-65.2635897,-19.0534058],[-65.2635516,-19.0533465],[-65.2635947,-19.0533218],[-65.2636049,-19.0533377],[-65.2636743,-19.0532978],[-65.263698,-19.0533348],[-65.2638239,-19.0532626],[-65.2638086,-19.0532387],[-65.2638635,-19.0532072],[-65.2639558,-19.0533509]]]}},{"type":"Feature","id":"way/122718692","properties":{"type":"way","id":122718692,"tags":{"addr:city":"Sucre","addr:country":"BO","addr:housenumber":"65","addr:street":"Calle Bustillos","building":"yes","name":"Casa Municipal de Cultura"},"relations":[],"meta":{}},"geometry":{"type":"Polygon","coordinates":[[[-65.2605237,-19.0481299],[-65.2607368,-19.0483844],[-65.2606039,-19.0484839],[-65.2605778,-19.0484527],[-65.2604096,-19.0485785],[-65.2602216,-19.048354],[-65.260304,-19.0482923],[-65.2604225,-19.0484338],[-65.260546,-19.0483414],[-65.2604285,-19.0482012],[-65.2605237,-19.0481299]]]}},{"type":"Feature","id":"way/122720967","properties":{"type":"way","id":122720967,"tags":{"addr:city":"Sucre","addr:country":"BO","addr:housenumber":"110","addr:street":"Casimiro Olañeta","amenity":"place_of_worship","building":"yes","denomination":"catholic","name":"Templo de San Agustín","religion":"christian"},"relations":[],"meta":{}},"geometry":{"type":"Polygon","coordinates":[[[-65.2627567,-19.0484569],[-65.2626646,-19.0485305],[-65.2626211,-19.0484819],[-65.2625424,-19.0485448],[-65.2624757,-19.0484704],[-65.2625344,-19.0484235],[-65.2623251,-19.0481897],[-65.2624384,-19.0480991],[-65.262637,-19.0483209],[-65.2626777,-19.0482884],[-65.2627473,-19.0483662],[-65.2627055,-19.0483997],[-65.2627567,-19.0484569]]]}},{"type":"Feature","id":"way/122869855","properties":{"type":"way","id":122869855,"tags":{"amenity":"place_of_worship","building":"yes","denomination":"catholic","name":"Capilla de la Rotonda","religion":"christian"},"relations":[],"meta":{}},"geometry":{"type":"Polygon","coordinates":[[[-65.2643228,-19.0394501],[-65.2643086,-19.0394302],[-65.2643031,-19.039405],[-65.2643103,-19.0393763],[-65.2643227,-19.0393599],[-65.2643356,-19.0393503],[-65.2643705,-19.0393409],[-65.2643953,-19.0393453],[-65.2644186,-19.0393596],[-65.2644306,-19.0393749],[-65.2644385,-19.039405],[-65.2644304,-19.0394353],[-65.2644185,-19.0394504],[-65.2643913,-19.039466],[-65.2643639,-19.0394686],[-65.2643385,-19.0394612],[-65.2643228,-19.0394501]]]}},{"type":"Feature","id":"way/138637601","properties":{"type":"way","id":138637601,"tags":{"building":"yes"},"relations":[],"meta":{}},"geometry":{"type":"Polygon","coordinates":[[[-65.2734393,-19.0587434],[-65.2732078,-19.0592367],[-65.2730741,-19.0591807],[-65.2733056,-19.0586873],[-65.2734393,-19.0587434]]]}},{"type":"Feature","id":"way/138637602","properties":{"type":"way","id":138637602,"tags":{"building":"yes"},"relations":[],"meta":{}},"geometry":{"type":"Polygon","coordinates":[[[-65.2737303,-19.0588664],[-65.2735022,-19.0593646],[-65.2733221,-19.059291],[-65.273397,-19.0591274],[-65.2733269,-19.0590987],[-65.2734802,-19.0587641],[-65.2737303,-19.0588664]]]}},{"type":"Feature","id":"way/146587887","properties":{"type":"way","id":146587887,"tags":{"building":"yes","source":"bing"},"relations":[],"meta":{}},"geometry":{"type":"Polygon","coordinates":[[[-65.2468277,-19.039371],[-65.2468317,-19.0394207],[-65.2468196,-19.0394984],[-65.2467913,-19.0396028],[-65.2468667,-19.0396283],[-65.2468748,-19.0396079],[-65.2469247,-19.0395888],[-65.2470217,-19.0396436],[-65.2470815,-19.0397231],[-65.2470503,-19.0397838],[-65.2470136,-19.0397505],[-65.2468344,-19.0398894],[-65.2467805,-19.0398371],[-65.2468128,-19.0397518],[-65.2467374,-19.0397263],[-65.2466727,-19.0398435],[-65.2466242,-19.039925],[-65.2466027,-19.0399574],[-65.2465651,-19.0400144],[-65.2464491,-19.0399403],[-65.2465259,-19.039827],[-65.2465851,-19.0397098],[-65.2466337,-19.0395888],[-65.2466633,-19.0394729],[-65.2466795,-19.0393634],[-65.2468277,-19.039371]]]}},{"type":"Feature","id":"way/146587888","properties":{"type":"way","id":146587888,"tags":{"building":"yes","source":"bing"},"relations":[],"meta":{}},"geometry":{"type":"Polygon","coordinates":[[[-65.2465651,-19.0400144],[-65.2466027,-19.0399574],[-65.2466408,-19.0399776],[-65.2465999,-19.0400363],[-65.2465651,-19.0400144]]]}},{"type":"Feature","id":"way/165352228","properties":{"type":"way","id":165352228,"tags":{"addr:street":"Aniceto Solares #26","building":"office","designation":"UI-DAF","name":"Dirección de Informática DAF"},"relations":[],"meta":{}},"geometry":{"type":"Polygon","coordinates":[[[-65.2576314,-19.037737],[-65.2576933,-19.0378727],[-65.2575634,-19.0379257],[-65.2575015,-19.03779],[-65.2576314,-19.037737]]]}},{"type":"Feature","id":"way/183784674","properties":{"type":"way","id":183784674,"tags":{"building":"yes","name":"Supermercado Pompeya","shop":"supermarket"},"relations":[],"meta":{}},"geometry":{"type":"Polygon","coordinates":[[[-65.2584524,-19.0475603],[-65.2582412,-19.0477362],[-65.2581035,-19.0475884],[-65.2583148,-19.0474126],[-65.2584524,-19.0475603]]]}},{"type":"Feature","id":"way/226986416","properties":{"type":"way","id":226986416,"tags":{"building":"yes","source":"Bing"},"relations":[],"meta":{}},"geometry":{"type":"Polygon","coordinates":[[[-65.2321613,-19.051762],[-65.2323536,-19.0519749],[-65.2321935,-19.0521041],[-65.2320012,-19.0518912],[-65.2321613,-19.051762]]]}},{"type":"Feature","id":"way/226987456","properties":{"type":"way","id":226987456,"tags":{"building":"yes","source":"Bing"},"relations":[],"meta":{}},"geometry":{"type":"Polygon","coordinates":[[[-65.2325146,-19.05179],[-65.2324284,-19.0518814],[-65.2323035,-19.0518814],[-65.2322014,-19.05178],[-65.2322789,-19.0517068],[-65.2323369,-19.05176],[-65.2323792,-19.0517617],[-65.2324302,-19.0517001],[-65.2325146,-19.05179]]]}},{"type":"Feature","id":"way/226987458","properties":{"type":"way","id":226987458,"tags":{"building":"yes"},"relations":[],"meta":{}},"geometry":{"type":"Polygon","coordinates":[[[-65.2326709,-19.0516603],[-65.2325794,-19.0517301],[-65.2323894,-19.0515372],[-65.2323296,-19.0515472],[-65.2321466,-19.0517102],[-65.2320657,-19.0516303],[-65.2323014,-19.0514274],[-65.2324492,-19.0514474],[-65.2326709,-19.0516603]]]}},{"type":"Feature","id":"way/239546401","properties":{"type":"way","id":239546401,"tags":{"building":"school"},"relations":[],"meta":{}},"geometry":{"type":"Polygon","coordinates":[[[-65.260489,-19.0487345],[-65.2607998,-19.0490923],[-65.260328,-19.0494584],[-65.2603712,-19.049508],[-65.2603194,-19.0495482],[-65.2599655,-19.0491407],[-65.260489,-19.0487345]]]}},{"type":"Feature","id":"way/240312331","properties":{"type":"way","id":240312331,"tags":{"building":"yes","source":"bing"},"relations":[],"meta":{}},"geometry":{"type":"Polygon","coordinates":[[[-65.251335,-19.0363028],[-65.2512283,-19.0362202],[-65.2512649,-19.036178],[-65.2513716,-19.0362606],[-65.251335,-19.0363028]]]}},{"type":"Feature","id":"way/240312332","properties":{"type":"way","id":240312332,"tags":{"building":"yes","source":"bing"},"relations":[],"meta":{}},"geometry":{"type":"Polygon","coordinates":[[[-65.2514671,-19.0361982],[-65.2514137,-19.036261],[-65.2513147,-19.0361857],[-65.2513681,-19.036123],[-65.2514671,-19.0361982]]]}},{"type":"Feature","id":"way/240312351","properties":{"type":"way","id":240312351,"tags":{"building":"yes","source":"bing"},"relations":[],"meta":{}},"geometry":{"type":"Polygon","coordinates":[[[-65.251469,-19.0353979],[-65.2513758,-19.0355136],[-65.2512915,-19.0354528],[-65.2513847,-19.0353372],[-65.251469,-19.0353979]]]}},{"type":"Feature","id":"way/240312352","properties":{"type":"way","id":240312352,"tags":{"building":"yes","source":"bing"},"relations":[],"meta":{}},"geometry":{"type":"Polygon","coordinates":[[[-65.2500186,-19.0363579],[-65.2498866,-19.0364937],[-65.249821,-19.0364368],[-65.2499531,-19.036301],[-65.2500186,-19.0363579]]]}},{"type":"Feature","id":"way/240312353","properties":{"type":"way","id":240312353,"tags":{"building":"yes","source":"bing"},"relations":[],"meta":{}},"geometry":{"type":"Polygon","coordinates":[[[-65.2491312,-19.0369141],[-65.2490968,-19.0369525],[-65.248957,-19.0368406],[-65.2489914,-19.0368021],[-65.2491312,-19.0369141]]]}},{"type":"Feature","id":"way/240312360","properties":{"type":"way","id":240312360,"tags":{"building":"yes","source":"bing"},"relations":[],"meta":{}},"geometry":{"type":"Polygon","coordinates":[[[-65.249005,-19.0380502],[-65.2488885,-19.0381805],[-65.2488026,-19.0381119],[-65.2489191,-19.0379816],[-65.249005,-19.0380502]]]}},{"type":"Feature","id":"way/240312361","properties":{"type":"way","id":240312361,"tags":{"building":"yes","source":"bing"},"relations":[],"meta":{}},"geometry":{"type":"Polygon","coordinates":[[[-65.2484672,-19.0384559],[-65.2484148,-19.0385128],[-65.2483453,-19.0384556],[-65.2483977,-19.0383987],[-65.2484672,-19.0384559]]]}},{"type":"Feature","id":"way/242583230","properties":{"type":"way","id":242583230,"tags":{"addr:housename":"Avenida Japon #46","amenity":"hospital","building":"yes","name":"Hogar de niños \"Tata Juan de Dios\" \"Kayqa Wasiyki\" Hnas. de San Antonio de Padua"},"relations":[],"meta":{}},"geometry":{"type":"Polygon","coordinates":[[[-65.2712186,-19.047775],[-65.2714778,-19.0479097],[-65.2715922,-19.0479957],[-65.2714101,-19.048126],[-65.2711626,-19.0480686],[-65.271214,-19.0479781],[-65.2711229,-19.0479075],[-65.2712186,-19.047775]]]}},{"type":"Feature","id":"way/242583397","properties":{"type":"way","id":242583397,"tags":{"amenity":"school","building":"yes"},"relations":[],"meta":{}},"geometry":{"type":"Polygon","coordinates":[[[-65.2517659,-19.0477032],[-65.2520931,-19.0479821],[-65.2520019,-19.0480683],[-65.2517766,-19.0478858],[-65.2516049,-19.0480835],[-65.2514923,-19.0479821],[-65.2517659,-19.0477032]]]}},{"type":"Feature","id":"way/376367245","properties":{"type":"way","id":376367245,"tags":{"building":"train_station"},"relations":[],"meta":{}},"geometry":{"type":"Polygon","coordinates":[[[-65.27259,-19.059702],[-65.2725302,-19.0598422],[-65.272502,-19.0598315],[-65.2724731,-19.0598991],[-65.2723857,-19.0598657],[-65.2724742,-19.0596579],[-65.2725619,-19.0596912],[-65.27259,-19.059702]]]}},{"type":"Feature","id":"way/393874092","properties":{"type":"way","id":393874092,"tags":{"addr:city":"Sucre","addr:housenumber":"sn","addr:street":"Bajo Aranjuez","building":"apartments","building:levels":"7","name":"El Solar"},"relations":[],"meta":{}},"geometry":{"type":"Polygon","coordinates":[[[-65.2748854,-19.0488596],[-65.2752066,-19.0490325],[-65.2750074,-19.049363],[-65.2746984,-19.0491632],[-65.2748854,-19.0488596]]]}},{"type":"Feature","id":"way/406504828","properties":{"type":"way","id":406504828,"tags":{"addr:city":"Sucre","addr:street":"Santa Lucia","building":"house","building:levels":"1","name":"Maria Aliaga"},"relations":[],"meta":{}},"geometry":{"type":"Polygon","coordinates":[[[-65.2411609,-19.0430876],[-65.2411791,-19.043176],[-65.2409939,-19.0432102],[-65.2409756,-19.0431217],[-65.2411609,-19.0430876]]]}},{"type":"Feature","id":"way/406504834","properties":{"type":"way","id":406504834,"tags":{"building":"yes","leisure":"sports_centre"},"relations":[],"meta":{}},"geometry":{"type":"Polygon","coordinates":[[[-65.2494188,-19.0522139],[-65.2494145,-19.0522607],[-65.2493868,-19.0523351],[-65.2492294,-19.0525817],[-65.2488242,-19.0522332],[-65.248884,-19.0520637],[-65.2494188,-19.0522139]]]}}]}