{"type":"FeatureCollection","features":[{"type":"Feature","id":"way/10873198","properties":{"type":"way","id":10873198,"tags":{"amenity":"public_building","building":"yes","designation":"Egyptiam Museum of Antiquities","name":"egyptian museam ","name:ar":"المتحف المصري","name:de":"Ägyptisches Museum","name:en":"Egyptian Museum","name:es":"Museo Egipcio","name:fr":"Musée égyptien","name:hu":"Egyiptomi Múzeum","name:it":"Museo di antichità egiziane","name:pl":"Muzeum Egipskie","name:pt":"Museo Egipcio","name:ro":"Muzeul Egiptean","name:ru":"Египетский музей","note":"tag name --> arabic","tourism":"museum"},"relations":[],"meta":{}},"geometry":{"type":"Polygon","coordinates":[[[31.2330268,30.04753],[31.2330287,30.0472302],[31.2332027,30.047231],[31.2332024,30.04727],[31.233542,30.0472715],[31.2335422,30.0472518],[31.2338073,30.047253],[31.2338072,30.0472728],[31.2341396,30.0472743],[31.2341398,30.0472354],[31.2343154,30.0472362],[31.2343135,30.0475374],[31.2340798,30.0475364],[31.2340748,30.0483526],[31.2332598,30.0483488],[31.2332649,30.0475312],[31.2330268,30.04753]]]}},{"type":"Feature","id":"way/24748791","properties":{"type":"way","id":24748791,"tags":{"alt_name":"حسين","amenity":"place_of_worship","building":"yes","name":"حسين","name:ar":"حسين","name:en":"Hussein Mosque","religion":"muslim"},"relations":[],"meta":{}},"geometry":{"type":"Polygon","coordinates":[[[31.2631591,30.0483639],[31.2627728,30.0475243],[31.263305,30.0473238],[31.2636483,30.048193],[31.2631591,30.0483639]]]}},{"type":"Feature","id":"way/24908314","properties":{"type":"way","id":24908314,"tags":{"amenity":"parking","building":"yes","parking":"multi-storey"},"relations":[],"meta":{}},"geometry":{"type":"Polygon","coordinates":[[[31.2486485,30.0509479],[31.2474901,30.0509775],[31.2474883,30.0504889],[31.2486363,30.0504771],[31.2486485,30.0509479]]]}},{"type":"Feature","id":"way/28800674","properties":{"type":"way","id":28800674,"tags":{"building":"yes","name":"ميناء القاهرة البري","name:en":"Cairo Gateway Plaza"},"relations":[],"meta":{}},"geometry":{"type":"Polygon","coordinates":[[[31.2374769,30.0601187],[31.2367559,30.0597992],[31.2369637,30.0594297],[31.2376538,30.0582415],[31.2377152,30.058168],[31.2379415,30.0578097],[31.238296,30.0579541],[31.2385981,30.0580771],[31.2382782,30.0587357],[31.2379877,30.0591874],[31.237521,30.0600378],[31.2374769,30.0601187]]]}},{"type":"Feature","id":"way/28827068","properties":{"type":"way","id":28827068,"tags":{"alt_name":"مكتبة الهيئة العامة لقصور الثقافة","amenity":"library","building":"yes","name":"مكتبة الهيئة العامة لقصور الثقافة","name:ar":"مكتبة الهيئة العامة لقصور الثقافة","name:en":"Culture Palace Library","wheelchair":"no"},"relations":[],"meta":{}},"geometry":{"type":"Polygon","coordinates":[[[31.233847,30.0344229],[31.2337075,30.0339266],[31.2348809,30.0336795],[31.2350203,30.0341758],[31.233847,30.0344229]]]}},{"type":"Feature","id":"way/28827190","properties":{"type":"way","id":28827190,"tags":{"amenity":"public_building","building":"office","name":"وزارة الداخلية","name:ar":"وزارة الداخلية","name:de":"Innenministerium","name:en":"Ministry of Interior","name:fr":"Ministère de l'Intérieur","office":"government"},"relations":[],"meta":{}},"geometry":{"type":"Polygon","coordinates":[[[31.239588,30.0414364],[31.2392109,30.0401559],[31.2401466,30.0399258],[31.2405539,30.0398522],[31.240945,30.0411434],[31.239588,30.0414364]]]}},{"type":"Feature","id":"way/28828010","properties":{"type":"way","id":28828010,"tags":{"alt_name":"الكنيس اليهودي;كنيس عدلي","amenity":"place_of_worship","building":"yes","name":"شعار هشامايم","name:ar":"شعار هشامايم","name:en":"Chaar Hachamaim Synagogue","name:he":"בית כנסת שער השמיים‎","religion":"jewish"},"relations":[],"meta":{}},"geometry":{"type":"Polygon","coordinates":[[[31.2436165,30.0515021],[31.2436113,30.0512579],[31.2439508,30.0512525],[31.2439559,30.0514968],[31.2436165,30.0515021]]]}},{"type":"Feature","id":"way/28832556","properties":{"type":"way","id":28832556,"tags":{"amenity":"post_office","building":"yes","name":"البريد المصرى","name:en":"Egypt Post"},"relations":[],"meta":{}},"geometry":{"type":"Polygon","coordinates":[[[31.2487475,30.0502186],[31.2486855,30.0491829],[31.2488736,30.0492379],[31.2495578,30.0500284],[31.2492942,30.0502038],[31.2489642,30.0502181],[31.2487475,30.0502186]]]}},{"type":"Feature","id":"way/28845672","properties":{"type":"way","id":28845672,"tags":{"building":"public","name":"جامعة الدول العربية","name:en":"Arab League","name:fr":"Ligue Arabe","name:hu":"Arab Liga"},"relations":[],"meta":{}},"geometry":{"type":"Polygon","coordinates":[[[31.2326076,30.0446725],[31.2326506,30.0442989],[31.2335639,30.0443775],[31.2335339,30.0449414],[31.2329492,30.0448694],[31.2329707,30.0446349],[31.232746,30.0446247],[31.2327392,30.0446838],[31.2326076,30.0446725]]]}},{"type":"Feature","id":"way/28848324","properties":{"type":"way","id":28848324,"tags":{"amenity":"place_of_worship","building":"yes","name":"جامع السلطان بيبر","name:ar":"جامع السلطان بيبر","name:en":"Sultan Bebar Mosque","religion":"muslim"},"relations":[],"meta":{}},"geometry":{"type":"Polygon","coordinates":[[[31.263283,30.0630483],[31.2625449,30.0621718],[31.2636178,30.0615478],[31.2643473,30.0623946],[31.263283,30.0630483]]]}},{"type":"Feature","id":"way/28850219","properties":{"type":"way","id":28850219,"tags":{"alt_name":"مجلس الشورة","amenity":"public_building","building":"yes","name":"مجلس الشورى","name:ar":"مجلس الشورى","name:en":"Shura Council","name:fr":"Conseil Consultatif"},"relations":[],"meta":{}},"geometry":{"type":"Polygon","coordinates":[[[31.2365419,30.0413167],[31.2363657,30.0407242],[31.2375222,30.0404666],[31.2376984,30.041059],[31.2365419,30.0413167]]]}},{"type":"Feature","id":"way/28850237","properties":{"type":"way","id":28850237,"tags":{"alt_name":"مجلس الشعب","amenity":"public_building","building":"yes","name":"مجلس الشعب","name:ar":"مجلس الشعب","name:en":"People's Assembly","name:fr":"Assemblée du Peuple","name:pl":"Zgromadzenie Ludowe","wikipedia":"en:People's Assembly of Egypt"},"relations":[],"meta":{}},"geometry":{"type":"Polygon","coordinates":[[[31.2361715,30.0401857],[31.2365296,30.0401046],[31.2365017,30.0400121],[31.2368286,30.039938],[31.2368617,30.0400476],[31.2372628,30.0399568],[31.2373312,30.0401827],[31.236245,30.0404288],[31.2361715,30.0401857]]]}},{"type":"Feature","id":"way/28850427","properties":{"type":"way","id":28850427,"tags":{"alt_name":"شراتون","building":"yes","name":"شراتون","name:ar":"شراتون","name:en":"Semiramis Intercontinental","note":"tag name --> arabic","tourism":"hotel"},"relations":[],"meta":{}},"geometry":{"type":"Polygon","coordinates":[[[31.2323253,30.0432652],[31.2318639,30.0432745],[31.2317245,30.0425315],[31.2326901,30.04229],[31.2329046,30.04229],[31.232969,30.0424572],[31.2323253,30.0432652]]]}},{"type":"Feature","id":"way/29411188","properties":{"type":"way","id":29411188,"tags":{"addr:city":"Cairo","addr:street":"شارع عمر مكرم","amenity":"place_of_worship","building":"yes","name":"مسجد عمر مكرم","name:ar":"مسجد عمر مكرم","name:en":"Omar Makram Mosque","note":"tag name --> arabic","religion":"muslim"},"relations":[],"meta":{}},"geometry":{"type":"Polygon","coordinates":[[[31.2338308,30.0430261],[31.2338904,30.0429898],[31.2342672,30.0432509],[31.234151,30.0433839],[31.2340175,30.0434209],[31.2339587,30.0434226],[31.2339016,30.0434098],[31.2338837,30.0433618],[31.233895,30.0433101],[31.2338184,30.0432435],[31.2338499,30.0431742],[31.2337687,30.0430776],[31.2338308,30.0430261]]]}},{"type":"Feature","id":"way/29418247","properties":{"type":"way","id":29418247,"tags":{"alt_name":"مسجد السلطان الناصر فرج بن برقوق","amenity":"place_of_worship","building":"yes","name":"مسجد السلطان الناصر فرج بن برقوق","name:ar":"مسجد السلطان الناصر فرج بن برقوق","name:en":"Al-Sultan Farg Bin Barquq Mosque","religion":"muslim"},"relations":[],"meta":{}},"geometry":{"type":"Polygon","coordinates":[[[31.2786242,30.0495619],[31.2782727,30.0490734],[31.2781775,30.0489031],[31.2784533,30.048754],[31.2789442,30.0486373],[31.2794305,30.0491172],[31.2786242,30.0495619]]]}},{"type":"Feature","id":"way/29836388","properties":{"type":"way","id":29836388,"tags":{"building":"yes","name":"مبنى مشيخة الأزهر القديم","name:ar":"مبنى مشيخة الأزهر القديم","name:en":"Mashiakhat Al-Azhar","note":"tag name --> arabic"},"relations":[],"meta":{}},"geometry":{"type":"Polygon","coordinates":[[[31.2623852,30.0465029],[31.2630718,30.04654],[31.2631405,30.0466812],[31.2626083,30.0468521],[31.2625053,30.0468149],[31.2623852,30.0465029]]]}},{"type":"Feature","id":"way/29853309","properties":{"type":"way","id":29853309,"tags":{"amenity":"library","building":"yes","int_name":"Dar Al-Kutub","name":"دار الكتب","name:ar":"دار الكتب","name:de":"Bibliothek"},"relations":[],"meta":{}},"geometry":{"type":"Polygon","coordinates":[[[31.2521162,30.0445333],[31.2522109,30.0442657],[31.2525932,30.0441358],[31.2526503,30.044223],[31.252576,30.0442515],[31.2526712,30.0444362],[31.2525671,30.0444769],[31.2524223,30.0445857],[31.2524059,30.0446141],[31.2521162,30.0445333]]]}},{"type":"Feature","id":"way/29973662","properties":{"type":"way","id":29973662,"tags":{"alt_name":"السلطان المأيد","amenity":"place_of_worship","building":"yes","name":"السلطان المأيد","name:ar":"السلطان المأيد","name:en":"Sultan Al-Moayed Mosque","note":"tag name --> arabic","religion":"muslim"},"relations":[],"meta":{}},"geometry":{"type":"Polygon","coordinates":[[[31.2573029,30.0438118],[31.2569287,30.0431824],[31.2578044,30.0428368],[31.2580873,30.0434891],[31.2573029,30.0438118]]]}},{"type":"Feature","id":"way/29973697","properties":{"type":"way","id":29973697,"tags":{"alt_name":"مريداني","amenity":"place_of_worship","building":"yes","name":"مريداني","name:ar":"مريداني","name:en":"Mosque of Amir Al-Tunbugha Al-Mardidini","religion":"muslim"},"relations":[],"meta":{}},"geometry":{"type":"Polygon","coordinates":[[[31.2591803,30.0400794],[31.2588749,30.0397093],[31.2593186,30.0394349],[31.259624,30.039805],[31.2591803,30.0400794]]]}},{"type":"Feature","id":"way/29973707","properties":{"type":"way","id":29973707,"tags":{"alt_name":"المسجد الأزرق","amenity":"place_of_worship","building":"yes","name":"المسجد الأزرق","name:ar":"المسجد الأزرق","name:en":"Blue Mosque","name:fr":"Mosquée Bleue","religion":"muslim"},"relations":[],"meta":{}},"geometry":{"type":"Polygon","coordinates":[[[31.2603363,30.0364163],[31.260145,30.0364359],[31.2600278,30.0363777],[31.2600367,30.036104],[31.2604393,30.035859],[31.2606594,30.0361227],[31.2606968,30.0361934],[31.2603363,30.0364163]]]}},{"type":"Feature","id":"way/29973719","properties":{"type":"way","id":29973719,"tags":{"alt_name":"مسجد الصالح طلائع","amenity":"place_of_worship","building":"yes","name":"مسجد الصالح طلائع","name:ar":"مسجد الصالح طلائع","name:en":"Al-Tala'ee Mosque","religion":"muslim"},"relations":[],"meta":{}},"geometry":{"type":"Polygon","coordinates":[[[31.2579222,30.0425622],[31.2577321,30.0423694],[31.2581531,30.0420584],[31.2583432,30.0422512],[31.2579222,30.0425622]]]}},{"type":"Feature","id":"way/29973724","properties":{"type":"way","id":29973724,"tags":{"building":"yes","historic":"monument","name":"وكالة السلطان الغورى","name:ar":"وكالة السلطان الغورى","name:en":"Wekalat El Sultan Al-Ghoury","name:es":"Wikala de El Ghouri","note":"tag name --> arabic"},"relations":[],"meta":{}},"geometry":{"type":"Polygon","coordinates":[[[31.2608192,30.0459257],[31.2605961,30.0455543],[31.2608192,30.0454205],[31.2609463,30.0454811],[31.2611454,30.0457549],[31.2609896,30.0458365],[31.2608192,30.0459257]]]}},{"type":"Feature","id":"way/30065416","properties":{"type":"way","id":30065416,"tags":{"alt_name":"وزارة الأوقاف","amenity":"public_building","building":"yes","name":"وزارة الأوقاف","name:ar":"وزارة الأوقاف","name:en":"Awqaf Ministery","note":"tag name --> arabic"},"relations":[],"meta":{}},"geometry":{"type":"Polygon","coordinates":[[[31.2412843,30.0460573],[31.2410611,30.0456115],[31.2420396,30.0452325],[31.2420482,30.0457749],[31.2412843,30.0460573]]]}},{"type":"Feature","id":"way/30065637","properties":{"type":"way","id":30065637,"tags":{"building":"yes"},"relations":[],"meta":{}},"geometry":{"type":"Polygon","coordinates":[[[31.219945,30.0355664],[31.2185187,30.0359709],[31.2183348,30.0354851],[31.2197611,30.0350806],[31.219945,30.0355664]]]}},{"type":"Feature","id":"way/30918279","properties":{"type":"way","id":30918279,"tags":{"building":"yes","created_by":"Potlatch 0.10f"},"relations":[],"meta":{}},"geometry":{"type":"Polygon","coordinates":[[[31.2228737,30.041235],[31.2230968,30.0413316],[31.2233972,30.0415173],[31.2233629,30.0416734],[31.2232771,30.0417551],[31.2231054,30.0418071],[31.2229337,30.0417774],[31.2227363,30.0414133],[31.2228737,30.041235]]]}},{"type":"Feature","id":"way/30925785","properties":{"type":"way","id":30925785,"tags":{"alt_name":"النيل","building":"yes","name":"النيل","name:ar":"النيل","name:en":"The Nile Ritz-Carlton","old_name":"Nile Hilton","rooms":"431","tourism":"hotel","wheelchair":"no"},"relations":[],"meta":{}},"geometry":{"type":"Polygon","coordinates":[[[31.2326503,30.0455092],[31.2326355,30.0458837],[31.2326612,30.0462906],[31.232646,30.0464631],[31.2321173,30.0464723],[31.2321338,30.0460834],[31.2320225,30.0460798],[31.2320395,30.0456778],[31.2321937,30.0456827],[31.2322045,30.0454259],[31.2322078,30.0453492],[31.2326565,30.0453634],[31.2326503,30.0455092]]]}},{"type":"Feature","id":"way/32125005","properties":{"type":"way","id":32125005,"tags":{"building":"yes"},"relations":[],"meta":{}},"geometry":{"type":"Polygon","coordinates":[[[31.2142798,30.0601043],[31.2146356,30.0601779],[31.2143142,30.0614935],[31.214091,30.0616346],[31.213576,30.0615604],[31.213782,30.0608695],[31.2141425,30.0607952],[31.2142798,30.0601043]]]}},{"type":"Feature","id":"way/32132398","properties":{"type":"way","id":32132398,"tags":{"building":"yes"},"relations":[],"meta":{}},"geometry":{"type":"Polygon","coordinates":[[[31.2109267,30.0390222],[31.2103908,30.0389151],[31.2105568,30.0382924],[31.2110928,30.0383995],[31.2109267,30.0390222]]]}},{"type":"Feature","id":"way/34001375","properties":{"type":"way","id":34001375,"tags":{"building":"yes"},"relations":[],"meta":{}},"geometry":{"type":"Polygon","coordinates":[[[31.2804382,30.064464],[31.2808634,30.0635222],[31.2810712,30.0635925],[31.280646,30.0645343],[31.2804382,30.064464]]]}},{"type":"Feature","id":"way/34001408","properties":{"type":"way","id":34001408,"tags":{"building":"yes"},"relations":[],"meta":{}},"geometry":{"type":"Polygon","coordinates":[[[31.2778305,30.0638081],[31.277904,30.0636434],[31.2801598,30.064397],[31.2800864,30.0645617],[31.2778305,30.0638081]]]}},{"type":"Feature","id":"way/34204424","properties":{"type":"way","id":34204424,"tags":{"alt_name":"تنت ماركت","building":"yes","name":"تنت ماركت","name:ar":"تنت ماركت","name:en":"Tent Market","shop":"market"},"relations":[],"meta":{}},"geometry":{"type":"Polygon","coordinates":[[[31.2573164,30.0424092],[31.257278,30.0422827],[31.2575369,30.0422238],[31.2573578,30.0416339],[31.2575575,30.0415885],[31.257775,30.0423049],[31.2573164,30.0424092]]]}},{"type":"Feature","id":"way/34204554","properties":{"type":"way","id":34204554,"tags":{"alt_name":"باب الفتوح","building":"yes","historic":"monument","name":"باب الفتوح","name:ar":"باب الفتوح","name:en":"Bab Al-Fotuh"},"relations":[],"meta":{}},"geometry":{"type":"Polygon","coordinates":[[[31.2632336,30.0554354],[31.2634143,30.0552866],[31.2635772,30.0554349],[31.2633965,30.0555836],[31.2632336,30.0554354]]]}},{"type":"Feature","id":"way/34204826","properties":{"type":"way","id":34204826,"tags":{"building":"yes","historic":"monument","name":"بيت السهيمي","name:ar":"بيت السهيمي","name:en":"House of Suhaymi","name:es":"Bayt el-Suhaymi","tourism":"attraction"},"relations":[],"meta":{}},"geometry":{"type":"Polygon","coordinates":[[[31.2625084,30.0524072],[31.2624151,30.0520216],[31.2627216,30.0519556],[31.2628049,30.0520431],[31.2628938,30.0523436],[31.2625084,30.0524072]]]}},{"type":"Feature","id":"way/34204833","properties":{"type":"way","id":34204833,"tags":{"amenity":"place_of_worship","building":"yes","name":"الأكمر","name:ar":"الأكمر","name:en":"Al-Akmar Mosque","religion":"muslim"},"relations":[],"meta":{}},"geometry":{"type":"Polygon","coordinates":[[[31.2620884,30.0513714],[31.2622473,30.0515421],[31.2618966,30.0517153],[31.2618013,30.051558],[31.2620884,30.0513714]]]}},{"type":"Feature","id":"way/34204847","properties":{"type":"way","id":34204847,"tags":{"amenity":"place_of_worship","building":"yes","name":"السلحدار","name:ar":"السلحدار","name:en":"El-Selehdar Mosque","religion":"muslim"},"relations":[],"meta":{}},"geometry":{"type":"Polygon","coordinates":[[[31.2619124,30.0522224],[31.26205,30.0525667],[31.2618776,30.0526047],[31.261893,30.0526354],[31.2617564,30.0527067],[31.2616779,30.0525966],[31.2617284,30.0524978],[31.2616779,30.0523473],[31.2617564,30.0523214],[31.2617494,30.0522685],[31.2619124,30.0522224]]]}},{"type":"Feature","id":"way/34205430","properties":{"type":"way","id":34205430,"tags":{"alt_name":"مسجد الفاكهاني","amenity":"place_of_worship","building":"yes","name":"مسجد الفاكهاني","name:ar":"مسجد الفاكهاني","name:en":"Al-Fakahani Mosque","note":"correct arabic tag","religion":"muslim"},"relations":[],"meta":{}},"geometry":{"type":"Polygon","coordinates":[[[31.2588808,30.0442917],[31.2591468,30.0441654],[31.2593185,30.0443586],[31.2590267,30.0445071],[31.2589843,30.0444603],[31.2589338,30.0444843],[31.2588285,30.044324],[31.2588808,30.0442917]]]}},{"type":"Feature","id":"way/34319428","properties":{"type":"way","id":34319428,"tags":{"amenity":"place_of_worship","building":"yes","name":"مسجد الملكة صفية","name:en":"Mosque of Malika Safiya","religion":"muslim"},"relations":[],"meta":{}},"geometry":{"type":"Polygon","coordinates":[[[31.2545531,30.0402904],[31.2546086,30.0403531],[31.2545779,30.0403952],[31.2546191,30.0404371],[31.2544363,30.0405371],[31.2544543,30.0405652],[31.2542238,30.0406923],[31.254035,30.0405065],[31.2542595,30.0403458],[31.254297,30.0403475],[31.2544503,30.0402593],[31.2545003,30.0403003],[31.2545531,30.0402904]]]}},{"type":"Feature","id":"way/34405226","properties":{"type":"way","id":34405226,"tags":{"building":"yes"},"relations":[],"meta":{}},"geometry":{"type":"Polygon","coordinates":[[[31.2705693,30.0455013],[31.2699342,30.0456425],[31.269754,30.0451224],[31.2700026,30.0452409],[31.2700509,30.0451875],[31.2700858,30.0451666],[31.270134,30.0451504],[31.2701769,30.0451434],[31.2702333,30.045148],[31.2702681,30.0451689],[31.2702923,30.0451968],[31.2703084,30.0452386],[31.2703164,30.0452827],[31.2702976,30.0453547],[31.2705693,30.0455013]]]}},{"type":"Feature","id":"way/34903872","properties":{"type":"way","id":34903872,"tags":{"building":"yes"},"relations":[],"meta":{}},"geometry":{"type":"Polygon","coordinates":[[[31.2474978,30.0421179],[31.2476872,30.042547],[31.247949,30.0424604],[31.2483417,30.0433502],[31.2474116,30.0436579],[31.2469183,30.0425404],[31.2463838,30.0427172],[31.2457613,30.0413072],[31.2468592,30.040944],[31.2470037,30.0412713],[31.2468469,30.0413231],[31.247236,30.0422045],[31.2474978,30.0421179]]]}},{"type":"Feature","id":"way/34904015","properties":{"type":"way","id":34904015,"tags":{"building":"yes"},"relations":[],"meta":{}},"geometry":{"type":"Polygon","coordinates":[[[31.2474532,30.0437431],[31.2477728,30.0444252],[31.2471747,30.0446351],[31.2468551,30.043953],[31.2474532,30.0437431]]]}},{"type":"Feature","id":"way/36051948","properties":{"type":"way","id":36051948,"tags":{"addr:city":"Cairo","addr:housenumber":"1115","addr:postcode":"12344","addr:street":"Nile Corniche","alt_name":"رمسيس هلتون","building":"yes","contact:facebook":"https://www.facebook.com/RamsesHiltonEG","contact:google_plus":"https://plus.google.com/112038490445970962437/about?gl=US&hl=en","contact:twitter":"https://twitter.com/ramses_hilton","email":"ramses@hilton.com","name":"Ramses Hilton","operator":"Hilton Worldwide","phone":"+20-2-2577-7444","rooms":"771","smoking":"yes","stars":"5","tourism":"hotel","website":"http://www3.hilton.com/en/hotels/egypt/ramses-hilton-CAIRHTW/index.html?WT.mc_id=zELWAKN0EMEA1HI2DMH3LocalSearch4DGGenericx6CAIRHTW","wheelchair":"yes"},"relations":[],"meta":{}},"geometry":{"type":"Polygon","coordinates":[[[31.2322586,30.0506302],[31.2320704,30.050917],[31.2313541,30.0506727],[31.2315657,30.0502782],[31.2318573,30.0501656],[31.2320812,30.0500668],[31.2325655,30.0501096],[31.2322586,30.0506302]]]}},{"type":"Feature","id":"way/36052852","properties":{"type":"way","id":36052852,"tags":{"alt_name":"تلفزيون و راديو ماسبيرو","building":"yes","name":"تلفزيون و راديو ماسبيرو","name:ar":"تلفزيون و راديو ماسبيرو","name:en":"Maspiro, Radio & TV building"},"relations":[],"meta":{}},"geometry":{"type":"Polygon","coordinates":[[[31.23142,30.054155],[31.2304759,30.0535013],[31.2303729,30.0533675],[31.2302957,30.0532264],[31.2302871,30.0530704],[31.2303472,30.0528921],[31.230433,30.0528029],[31.2305789,30.0527435],[31.2307591,30.0527063],[31.2308965,30.0527138],[31.2310252,30.0527583],[31.2313771,30.0529664],[31.2321067,30.053531],[31.23142,30.054155]]]}},{"type":"Feature","id":"way/36053383","properties":{"type":"way","id":36053383,"tags":{"amenity":"public_building","building":"yes","name":"وزارة الخارجية","name:ar":"وزارة الخارجية","name:en":"Foreign ministry"},"relations":[],"meta":{}},"geometry":{"type":"Polygon","coordinates":[[[31.2300356,30.0559151],[31.2293713,30.0557118],[31.2295772,30.0551456],[31.2303039,30.0553431],[31.2300356,30.0559151]]]}},{"type":"Feature","id":"way/38286764","properties":{"type":"way","id":38286764,"tags":{"building":"yes"},"relations":[],"meta":{}},"geometry":{"type":"Polygon","coordinates":[[[31.2065623,30.0338542],[31.2064848,30.0340958],[31.2064008,30.0340756],[31.2064772,30.0338373],[31.2062344,30.0337789],[31.206257,30.0337085],[31.2065037,30.0337678],[31.2065185,30.0337218],[31.2066025,30.033742],[31.2065888,30.0337848],[31.2068484,30.0338471],[31.2068259,30.0339175],[31.2065623,30.0338542]]]}},{"type":"Feature","id":"way/38286765","properties":{"type":"way","id":38286765,"tags":{"building":"yes"},"relations":[],"meta":{}},"geometry":{"type":"Polygon","coordinates":[[[31.2058382,30.0336689],[31.2057607,30.0339105],[31.2056767,30.0338903],[31.2057531,30.0336519],[31.2055103,30.0335936],[31.2055328,30.0335233],[31.2057795,30.0335826],[31.2057943,30.0335366],[31.2058784,30.0335568],[31.2058647,30.0335995],[31.2061243,30.0336619],[31.2061017,30.0337322],[31.2058382,30.0336689]]]}},{"type":"Feature","id":"way/39411085","properties":{"type":"way","id":39411085,"tags":{"building":"yes","name":"فندق الزمالك لضباط القوات المسلحة","name:ar":"فندق الزمالك لضباط القوات المسلحة","name:en":"Zamalek Hotel For Armed Forces Officers","note":"tag name --> arabic","tourism":"hotel"},"relations":[],"meta":{}},"geometry":{"type":"Polygon","coordinates":[[[31.2192278,30.0614012],[31.2194735,30.0612905],[31.2195787,30.0614651],[31.219133,30.0616659],[31.2190734,30.0615665],[31.2192731,30.0614765],[31.2192278,30.0614012]]]}},{"type":"Feature","id":"way/39649653","properties":{"type":"way","id":39649653,"tags":{"building":"yes"},"relations":[],"meta":{}},"geometry":{"type":"Polygon","coordinates":[[[31.2375099,30.0471629],[31.2375139,30.0471009],[31.2379471,30.0468459],[31.2381831,30.0472648],[31.2381464,30.0472888],[31.2381432,30.047309],[31.2381267,30.0473276],[31.2381047,30.0473375],[31.2380843,30.0473614],[31.2375099,30.0471629]]]}},{"type":"Feature","id":"way/39684605","properties":{"type":"way","id":39684605,"tags":{"building":"yes"},"relations":[],"meta":{}},"geometry":{"type":"Polygon","coordinates":[[[31.2456456,30.0565379],[31.246144,30.0564766],[31.2461882,30.0567455],[31.2460788,30.0567589],[31.2460672,30.0566886],[31.2456782,30.0567365],[31.2456456,30.0565379]]]}},{"type":"Feature","id":"way/39684607","properties":{"type":"way","id":39684607,"tags":{"building":"yes"},"relations":[],"meta":{}},"geometry":{"type":"Polygon","coordinates":[[[31.2457508,30.0572073],[31.245746,30.056908],[31.2460847,30.056904],[31.2460895,30.0572033],[31.2457508,30.0572073]]]}},{"type":"Feature","id":"way/39684608","properties":{"type":"way","id":39684608,"tags":{"alt_name":"الفتح","amenity":"place_of_worship","building":"yes","denomination":"sunni","name":"الفتح","name:ar":"الفتح","name:en":"El-Fatah","note":"tag name --> arabic","religion":"muslim","wheelchair":"no"},"relations":[],"meta":{}},"geometry":{"type":"Polygon","coordinates":[[[31.2457606,30.0597566],[31.2460987,30.0594962],[31.2465163,30.0599023],[31.2461783,30.0601627],[31.2457606,30.0597566]]]}},{"type":"Feature","id":"way/39700858","properties":{"type":"way","id":39700858,"tags":{"building":"yes"},"relations":[],"meta":{}},"geometry":{"type":"Polygon","coordinates":[[[31.2403198,30.0504863],[31.2400631,30.0506451],[31.2398777,30.0504298],[31.240165,30.0502547],[31.2403198,30.0504863]]]}},{"type":"Feature","id":"way/39700875","properties":{"type":"way","id":39700875,"tags":{"building":"yes"},"relations":[],"meta":{}},"geometry":{"type":"Polygon","coordinates":[[[31.2400145,30.0506791],[31.2397999,30.0508147],[31.2396091,30.0505857],[31.2398222,30.0504581],[31.2400145,30.0506791]]]}},{"type":"Feature","id":"way/39700890","properties":{"type":"way","id":39700890,"tags":{"building":"yes"},"relations":[],"meta":{}},"geometry":{"type":"Polygon","coordinates":[[[31.2397459,30.0508488],[31.2395468,30.0509746],[31.2393601,30.0507339],[31.2395547,30.050618],[31.2397459,30.0508488]]]}},{"type":"Feature","id":"way/39700908","properties":{"type":"way","id":39700908,"tags":{"building":"yes"},"relations":[],"meta":{}},"geometry":{"type":"Polygon","coordinates":[[[31.2393197,30.0506899],[31.2391302,30.0504527],[31.2395784,30.0501775],[31.2397775,30.0504067],[31.2393197,30.0506899]]]}},{"type":"Feature","id":"way/39700935","properties":{"type":"way","id":39700935,"tags":{"building":"yes","name":"طلعت حرب مول","name:ar":"طلعت حرب مول","name:en":"Talaat Harb Mall","shop":"mall"},"relations":[],"meta":{}},"geometry":{"type":"Polygon","coordinates":[[[31.2398328,30.0503776],[31.2396288,30.0501407],[31.2399591,30.0499452],[31.2401586,30.0501812],[31.2398328,30.0503776]]]}},{"type":"Feature","id":"way/39701055","properties":{"type":"way","id":39701055,"tags":{"building":"yes"},"relations":[],"meta":{}},"geometry":{"type":"Polygon","coordinates":[[[31.2385258,30.0525513],[31.2390665,30.053049],[31.2388948,30.0531753],[31.2383541,30.0526627],[31.2385258,30.0525513]]]}},{"type":"Feature","id":"way/39701079","properties":{"type":"way","id":39701079,"tags":{"building":"yes"},"relations":[],"meta":{}},"geometry":{"type":"Polygon","coordinates":[[[31.239053,30.0507979],[31.2393151,30.0511209],[31.2390521,30.051287],[31.2387667,30.0509454],[31.239053,30.0507979]]]}},{"type":"Feature","id":"way/39701084","properties":{"type":"way","id":39701084,"tags":{"building":"yes"},"relations":[],"meta":{}},"geometry":{"type":"Polygon","coordinates":[[[31.2387305,30.0509025],[31.2386199,30.0507712],[31.2388897,30.050603],[31.2390123,30.0507493],[31.2387305,30.0509025]]]}},{"type":"Feature","id":"way/39701103","properties":{"type":"way","id":39701103,"tags":{"building":"yes"},"relations":[],"meta":{}},"geometry":{"type":"Polygon","coordinates":[[[31.2390653,30.0507208],[31.238943,30.0505698],[31.2390724,30.0504891],[31.2392008,30.0506485],[31.2390653,30.0507208]]]}},{"type":"Feature","id":"way/39701137","properties":{"type":"way","id":39701137,"tags":{"building":"yes"},"relations":[],"meta":{}},"geometry":{"type":"Polygon","coordinates":[[[31.2393593,30.051093],[31.23911,30.0507759],[31.2392405,30.0507011],[31.2394905,30.0510101],[31.2393593,30.051093]]]}},{"type":"Feature","id":"way/39701606","properties":{"type":"way","id":39701606,"tags":{"building":"yes"},"relations":[],"meta":{}},"geometry":{"type":"Polygon","coordinates":[[[31.2372062,30.0444112],[31.2372435,30.0441827],[31.237642,30.0442316],[31.2376046,30.04446],[31.2372062,30.0444112]]]}},{"type":"Feature","id":"way/39701638","properties":{"type":"way","id":39701638,"tags":{"building":"yes","building:levels":"4"},"relations":[],"meta":{}},"geometry":{"type":"Polygon","coordinates":[[[31.2370577,30.0444085],[31.2365663,30.0443586],[31.2365577,30.0442326],[31.2370993,30.0441757],[31.2370577,30.0444085]]]}},{"type":"Feature","id":"way/39701738","properties":{"type":"way","id":39701738,"tags":{"building":"yes"},"relations":[],"meta":{}},"geometry":{"type":"Polygon","coordinates":[[[31.2377047,30.0444698],[31.2377406,30.0442514],[31.2381983,30.0443079],[31.2381623,30.0445263],[31.2377047,30.0444698]]]}},{"type":"Feature","id":"way/39701749","properties":{"type":"way","id":39701749,"tags":{"building":"yes"},"relations":[],"meta":{}},"geometry":{"type":"Polygon","coordinates":[[[31.238205,30.0445395],[31.2382208,30.0443263],[31.2383674,30.0443442],[31.2384477,30.0445641],[31.238205,30.0445395]]]}},{"type":"Feature","id":"way/39701767","properties":{"type":"way","id":39701767,"tags":{"building":"yes"},"relations":[],"meta":{}},"geometry":{"type":"Polygon","coordinates":[[[31.2376503,30.0441231],[31.237178,30.0440669],[31.2371189,30.0438141],[31.2376854,30.0438884],[31.2376503,30.0441231]]]}},{"type":"Feature","id":"way/39701769","properties":{"type":"way","id":39701769,"tags":{"building":"yes","building:levels":"10"},"relations":[],"meta":{}},"geometry":{"type":"Polygon","coordinates":[[[31.2366674,30.044047],[31.2364383,30.0440912],[31.2363675,30.0437248],[31.2365966,30.0436805],[31.2366674,30.044047]]]}},{"type":"Feature","id":"way/39701777","properties":{"type":"way","id":39701777,"tags":{"building":"yes"},"relations":[],"meta":{}},"geometry":{"type":"Polygon","coordinates":[[[31.2367059,30.0436459],[31.2369565,30.0435776],[31.2370043,30.043753],[31.2367537,30.0438213],[31.2367059,30.0436459]]]}},{"type":"Feature","id":"way/39701792","properties":{"type":"way","id":39701792,"tags":{"building":"yes"},"relations":[],"meta":{}},"geometry":{"type":"Polygon","coordinates":[[[31.2370359,30.0440305],[31.2367802,30.0440753],[31.2367471,30.0439444],[31.2369984,30.0438779],[31.2370359,30.0440305]]]}},{"type":"Feature","id":"way/39701813","properties":{"type":"way","id":39701813,"tags":{"building":"yes"},"relations":[],"meta":{}},"geometry":{"type":"Polygon","coordinates":[[[31.2370809,30.0437383],[31.2370294,30.0435723],[31.2374071,30.0435797],[31.2374394,30.0437819],[31.2370809,30.0437383]]]}},{"type":"Feature","id":"way/39701822","properties":{"type":"way","id":39701822,"tags":{"building":"yes"},"relations":[],"meta":{}},"geometry":{"type":"Polygon","coordinates":[[[31.2381496,30.0437707],[31.2378802,30.043815],[31.2375348,30.043773],[31.2375025,30.0435773],[31.238075,30.0435579],[31.2381496,30.0437707]]]}},{"type":"Feature","id":"way/39701830","properties":{"type":"way","id":39701830,"tags":{"building":"yes"},"relations":[],"meta":{}},"geometry":{"type":"Polygon","coordinates":[[[31.2377303,30.0441341],[31.2377886,30.0438885],[31.2379258,30.0439066],[31.2382906,30.0438606],[31.2383968,30.0441698],[31.2381491,30.0441857],[31.2377303,30.0441341]]]}},{"type":"Feature","id":"way/39917736","properties":{"type":"way","id":39917736,"tags":{"alt_name":"مستشفى الشرطة","amenity":"hospital","building":"yes","name":"مستشفى الشرطة","name:ar":"مستشفى الشرطة","name:en":"Mustashfa Al-Shorta"},"relations":[],"meta":{}},"geometry":{"type":"Polygon","coordinates":[[[31.215585,30.0516496],[31.2166691,30.051827],[31.2164472,30.0528433],[31.215363,30.052666],[31.215585,30.0516496]]]}},{"type":"Feature","id":"way/39951427","properties":{"type":"way","id":39951427,"tags":{"alt_name":"سيراميكا كليوباترا","building":"yes","name":"سيراميكا كليوباترا","name:ar":"سيراميكا كليوباترا","name:en":"Ceramica Cleopatra","shop":"electronics"},"relations":[],"meta":{}},"geometry":{"type":"Polygon","coordinates":[[[31.205558,30.0532664],[31.2057303,30.0531535],[31.2058609,30.0533029],[31.2056886,30.0534158],[31.205558,30.0532664]]]}},{"type":"Feature","id":"way/39951428","properties":{"type":"way","id":39951428,"tags":{"addr:housenumber":"3","addr:street":"Dr. El-Mahrouky","amenity":"bank","building":"yes","name":"ناصر","name:ar":"ناصر","name:en":"Naser","note":"tag name --> arabic"},"relations":[],"meta":{}},"geometry":{"type":"Polygon","coordinates":[[[31.2062138,30.0539709],[31.2063302,30.0538943],[31.2064244,30.0540016],[31.206308,30.0540782],[31.2062138,30.0539709]]]}},{"type":"Feature","id":"way/39951429","properties":{"type":"way","id":39951429,"tags":{"addr:housenumber":"1","addr:street":"Dr. El-Mahrouky","building":"yes"},"relations":[],"meta":{}},"geometry":{"type":"Polygon","coordinates":[[[31.2061304,30.0538483],[31.2062478,30.0537722],[31.2063427,30.0538817],[31.2062253,30.0539578],[31.2061304,30.0538483]]]}},{"type":"Feature","id":"way/43482248","properties":{"type":"way","id":43482248,"tags":{"building":"yes","building:levels":"14","name":"مجمع التحرير","name:ar":"مجمع التحرير","name:en":"El - mogamma'a","name:fr":"Le Mogamma","note":"tag name --> arabic","source":"Bing","source:levels":"http://upload.wikimedia.org/wikipedia/commons/8/81/Modan_Tahrir_%282005-05-343%29.jpg"},"relations":[],"meta":{}},"geometry":{"type":"Polygon","coordinates":[[[31.234693,30.0432317],[31.234598,30.0431721],[31.2342297,30.0428597],[31.2342614,30.0427586],[31.2354933,30.0424898],[31.2357792,30.0425118],[31.235763,30.0427205],[31.2354096,30.0427293],[31.2351936,30.0427791],[31.2350353,30.0428299],[31.2349214,30.0428943],[31.2347029,30.0430372],[31.2348107,30.0431289],[31.234693,30.0432317]]]}},{"type":"Feature","id":"way/45905278","properties":{"type":"way","id":45905278,"tags":{"amenity":"place_of_worship","building":"yes","name":"الحاكم بأمر الله","name:ar":"الحاكم بأمر الله","name:en":"Al-Hakem Bi amrillah Mosque","religion":"muslim"},"relations":[],"meta":{}},"geometry":{"type":"Polygon","coordinates":[[[31.26463,30.054458],[31.2636333,30.0552329],[31.263556,30.0551565],[31.2636656,30.0550729],[31.2634334,30.0548222],[31.2633812,30.0548854],[31.2632376,30.0547544],[31.2632976,30.0546979],[31.2630445,30.0544833],[31.2630862,30.0544427],[31.2629939,30.0543507],[31.2637949,30.0536774],[31.26463,30.054458]]]}},{"type":"Feature","id":"way/46579853","properties":{"type":"way","id":46579853,"tags":{"building":"yes","name":"متحف الفنون الأسلامية","name:ar":"متحف الفنون الأسلامية","name:de":"Museum für Islamische Kunst","name:en":"Islamic Art Museum","name:es":"Museo de Arte Islámico","tourism":"museum"},"relations":[],"meta":{}},"geometry":{"type":"Polygon","coordinates":[[[31.2526485,30.0442237],[31.2527594,30.0444132],[31.253021,30.044968],[31.2526701,30.0450857],[31.2524251,30.0445842],[31.2525669,30.0444793],[31.2526711,30.0444374],[31.2525759,30.0442523],[31.2526485,30.0442237]]]}},{"type":"Feature","id":"way/48532574","properties":{"type":"way","id":48532574,"tags":{"building":"yes"},"relations":[],"meta":{}},"geometry":{"type":"Polygon","coordinates":[[[31.2400159,30.0529408],[31.2393411,30.0531308],[31.2388176,30.0526776],[31.2388223,30.052574],[31.2389055,30.052574],[31.2392327,30.0524092],[31.2391415,30.0522908],[31.2388358,30.0524672],[31.2388438,30.052386],[31.2393829,30.0520563],[31.2396845,30.0524027],[31.2400508,30.052444],[31.2400159,30.0529408]]]}},{"type":"Feature","id":"way/48980479","properties":{"type":"way","id":48980479,"tags":{"alt_name":"مستشفى العجوزة","amenity":"hospital","building":"yes","name":"مستشفى العجوزة","name:ar":"مستشفى العجوزة","name:en":"Mustashfa Al-Aguza"},"relations":[],"meta":{}},"geometry":{"type":"Polygon","coordinates":[[[31.2150415,30.0534057],[31.2156823,30.053526],[31.2161593,30.0536156],[31.2161224,30.0537628],[31.215638,30.0536718],[31.2155356,30.0540805],[31.2159423,30.0541569],[31.2159201,30.0542454],[31.2155064,30.0541677],[31.2154036,30.0545777],[31.215814,30.0546548],[31.2157947,30.0547318],[31.2153788,30.0546537],[31.2153226,30.0548781],[31.2157364,30.0549558],[31.2157138,30.0550459],[31.2152957,30.0549674],[31.2152444,30.0551723],[31.2156604,30.0552504],[31.2156362,30.0553467],[31.2147112,30.055173],[31.2147346,30.0550799],[31.215127,30.0551536],[31.2151782,30.054949],[31.2147916,30.0548764],[31.2148146,30.0547847],[31.2152029,30.0548576],[31.2152584,30.0546361],[31.214876,30.0545643],[31.2148962,30.0544837],[31.2152808,30.0545559],[31.2153833,30.0541467],[31.2150082,30.0540763],[31.2150283,30.0539962],[31.2154061,30.0540671],[31.2155098,30.0536534],[31.2150032,30.0535583],[31.2150415,30.0534057]]]}},{"type":"Feature","id":"way/51878787","properties":{"type":"way","id":51878787,"tags":{"alt_name":"دار الإفتاء","building":"yes","name":"دار الإفتاء","name:ar":"دار الإفتاء","name:en":"Dar El Iftaa"},"relations":[],"meta":{}},"geometry":{"type":"Polygon","coordinates":[[[31.2708498,30.0462191],[31.2706976,30.0459756],[31.2710708,30.0458008],[31.271223,30.0460443],[31.2708498,30.0462191]]]}},{"type":"Feature","id":"way/51883060","properties":{"type":"way","id":51883060,"tags":{"amenity":"public_building","building":"yes"},"relations":[],"meta":{}},"geometry":{"type":"Polygon","coordinates":[[[31.2758433,30.0541617],[31.275205,30.0542259],[31.2751742,30.053996],[31.2750284,30.0540106],[31.2749979,30.0537835],[31.2751524,30.0537679],[31.2751099,30.0534508],[31.2757394,30.0533875],[31.2758433,30.0541617]]]}},{"type":"Feature","id":"way/51970259","properties":{"type":"way","id":51970259,"tags":{"building":"yes"},"relations":[],"meta":{}},"geometry":{"type":"Polygon","coordinates":[[[31.2633748,30.0473122],[31.2635572,30.0472472],[31.2637181,30.0476279],[31.2635572,30.0476929],[31.2633748,30.0473122]]]}},{"type":"Feature","id":"way/51970294","properties":{"type":"way","id":51970294,"tags":{"building":"yes"},"relations":[],"meta":{}},"geometry":{"type":"Polygon","coordinates":[[[31.2666985,30.0459727],[31.2665483,30.0456569],[31.2666448,30.0456105],[31.2667414,30.0456383],[31.2668594,30.0457033],[31.2669453,30.0457776],[31.2669882,30.0458705],[31.2666985,30.0459727]]]}},{"type":"Feature","id":"way/51970474","properties":{"type":"way","id":51970474,"tags":{"building":"yes"},"relations":[],"meta":{}},"geometry":{"type":"Polygon","coordinates":[[[31.2635656,30.0450303],[31.2637051,30.0449653],[31.2639197,30.0453182],[31.264145,30.0452254],[31.2642094,30.0453647],[31.26363,30.045634],[31.2635335,30.0454947],[31.2637909,30.045374],[31.2635656,30.0450303]]]}},{"type":"Feature","id":"way/52414432","properties":{"type":"way","id":52414432,"tags":{"amenity":"post_office","building":"yes"},"relations":[],"meta":{}},"geometry":{"type":"Polygon","coordinates":[[[31.2486389,30.0637971],[31.24893,30.0632157],[31.2494354,30.0634052],[31.2491442,30.0639866],[31.2486389,30.0637971]]]}},{"type":"Feature","id":"way/70523441","properties":{"type":"way","id":70523441,"tags":{"building":"yes"},"relations":[],"meta":{}},"geometry":{"type":"Polygon","coordinates":[[[31.2143864,30.0595139],[31.2144813,30.0595148],[31.2145616,30.0595483],[31.2146219,30.0596125],[31.2146424,30.0596738],[31.2146429,30.0597083],[31.2146149,30.0597855],[31.2145623,30.0598378],[31.214486,30.0598707],[31.2144126,30.0598762],[31.214353,30.0598639],[31.2142851,30.0598263],[31.2142413,30.0597749],[31.2142252,30.0597367],[31.2142223,30.059662],[31.214244,30.0596073],[31.2142893,30.059557],[31.2143864,30.0595139]]]}},{"type":"Feature","id":"way/84835836","properties":{"type":"way","id":84835836,"tags":{"amenity":"place_of_worship","building":"yes","denomination":"sunni","religion":"muslim"},"relations":[],"meta":{}},"geometry":{"type":"Polygon","coordinates":[[[31.2749668,30.044171],[31.2749309,30.0441236],[31.2748492,30.044164],[31.2746571,30.043941],[31.2749372,30.0437871],[31.2751661,30.0440692],[31.2749668,30.044171]]]}},{"type":"Feature","id":"way/97144244","properties":{"type":"way","id":97144244,"tags":{"amenity":"public_building","building":"yes","name":"قصر الأمير محمد","name:en":"Amir Muhamad Palace","note":"ministry of foreign affairs old building"},"relations":[],"meta":{}},"geometry":{"type":"Polygon","coordinates":[[[31.2332444,30.0438089],[31.23383,30.0438742],[31.2337965,30.0440992],[31.2332108,30.0440338],[31.2332444,30.0438089]]]}},{"type":"Feature","id":"way/97145191","properties":{"type":"way","id":97145191,"tags":{"building":"yes","name":"Ramses Hilton Mall","shop":"mall"},"relations":[],"meta":{}},"geometry":{"type":"Polygon","coordinates":[[[31.2322,30.0512167],[31.2325583,30.0507784],[31.2335121,30.0514118],[31.2331544,30.0517755],[31.2322,30.0512167]]]}},{"type":"Feature","id":"way/97145195","properties":{"type":"way","id":97145195,"tags":{"amenity":"embassy","building":"yes","country":"IT","diplomatic":"consulate","name":"القنصلية الإيطالية","name:en":"Italian Consulate","target":"EG"},"relations":[],"meta":{}},"geometry":{"type":"Polygon","coordinates":[[[31.2362496,30.0538306],[31.2369193,30.053246],[31.2373878,30.0537137],[31.2374769,30.0537933],[31.2367928,30.0540744],[31.2366893,30.0541105],[31.2362496,30.0538306]]]}},{"type":"Feature","id":"way/97199912","properties":{"type":"way","id":97199912,"tags":{"amenity":"public_building","building":"yes","name":"نقابة المهندسين المصرية","name:ar":"نقابة المهندسين","name:en":"Engineers Syndicate"},"relations":[],"meta":{}},"geometry":{"type":"Polygon","coordinates":[[[31.2408487,30.0564605],[31.2413079,30.0560958],[31.2418549,30.0566117],[31.2413958,30.0569764],[31.2408487,30.0564605]]]}},{"type":"Feature","id":"way/97211120","properties":{"type":"way","id":97211120,"tags":{"amenity":"public_building","building":"yes","name":"وزارة الزراعة","name:en":"Ministry of Agriculture"},"relations":[],"meta":{}},"geometry":{"type":"Polygon","coordinates":[[[31.2093552,30.0434268],[31.2093747,30.043276],[31.209645,30.0433021],[31.2096617,30.0431726],[31.2096363,30.0431702],[31.2096654,30.0429442],[31.209698,30.0429474],[31.2097139,30.0428236],[31.2094506,30.0427982],[31.2094696,30.0426509],[31.2096454,30.0426679],[31.2096424,30.0426918],[31.2100212,30.0427283],[31.2100244,30.042703],[31.2102217,30.0427221],[31.2102097,30.0428153],[31.210154,30.0428099],[31.2101333,30.0429709],[31.2102219,30.0429794],[31.2102143,30.0430385],[31.2102464,30.0430416],[31.2102291,30.0431757],[31.2102021,30.0431731],[31.2101946,30.0432315],[31.2101002,30.0432223],[31.2100799,30.043379],[31.2101318,30.0433841],[31.2101179,30.0434915],[31.2099278,30.0434731],[31.2099313,30.0434461],[31.2095508,30.0434093],[31.2095462,30.0434453],[31.2093552,30.0434268]]]}},{"type":"Feature","id":"way/97229402","properties":{"type":"way","id":97229402,"tags":{"building":"yes","name":"متحف الفن الحديث","name:en":"Museum of Egyptian Modern Arts","tourism":"museum"},"relations":[],"meta":{}},"geometry":{"type":"Polygon","coordinates":[[[31.223007,30.042374],[31.2231847,30.0423715],[31.2232004,30.043187],[31.2230227,30.0431895],[31.223007,30.042374]]]}},{"type":"Feature","id":"way/97229404","properties":{"type":"way","id":97229404,"tags":{"amenity":"restaurant","building":"ship","name":"السرايا","name:ar":"السرايا","name:en":"Al-Saraya"},"relations":[],"meta":{}},"geometry":{"type":"Polygon","coordinates":[[[31.2279406,30.0506027],[31.2280155,30.0500276],[31.2280444,30.0499755],[31.2281251,30.049923],[31.228186,30.0499969],[31.2282007,30.0500546],[31.2281357,30.0506289],[31.2279406,30.0506027]]]}},{"type":"Feature","id":"way/97232302","properties":{"type":"way","id":97232302,"tags":{"amenity":"bank","building":"yes","int_name":"Bank of Egypt","name":"البنك الاهلى المصرى","name:ar":"البنك الاهلى المصرى","name:en":"National Bank of Egypt"},"relations":[],"meta":{}},"geometry":{"type":"Polygon","coordinates":[[[31.2416714,30.04798],[31.2416615,30.0475448],[31.2422117,30.0475354],[31.2422216,30.0479706],[31.2416714,30.04798]]]}},{"type":"Feature","id":"way/97232303","properties":{"type":"way","id":97232303,"tags":{"amenity":"bank","building":"yes","name":"البنك المركزي","name:ar":"البنك المركزي","name:en":"Central Bank"},"relations":[],"meta":{}},"geometry":{"type":"Polygon","coordinates":[[[31.2416987,30.0485541],[31.2416825,30.0480764],[31.2421978,30.0480623],[31.2422198,30.0486391],[31.242141,30.0486946],[31.2416987,30.0485541]]]}},{"type":"Feature","id":"way/97232304","properties":{"type":"way","id":97232304,"tags":{"amenity":"public_building","building":"yes","name":"البورصة المصرية","name:ar":"البورصة المصرية","name:en":"Egyptian Stock Exchange","name:fr":"Bourse"},"relations":[],"meta":{}},"geometry":{"type":"Polygon","coordinates":[[[31.2407913,30.0478382],[31.2407913,30.0475702],[31.2410484,30.0475656],[31.2410589,30.0479245],[31.2407913,30.0478382]]]}},{"type":"Feature","id":"way/97391890","properties":{"type":"way","id":97391890,"tags":{"amenity":"public_building","building":"yes","name:ar":"وزارة التربية والتعليم","name:en":"Ministry of Education","name:fr":"Ministère de l'Éducation"},"relations":[],"meta":{}},"geometry":{"type":"Polygon","coordinates":[[[31.2361616,30.0373381],[31.2358608,30.0363196],[31.2366924,30.0361588],[31.2367499,30.0363617],[31.2370551,30.0363119],[31.2371966,30.0362889],[31.2374178,30.0370816],[31.2361616,30.0373381]]]}},{"type":"Feature","id":"way/97391891","properties":{"type":"way","id":97391891,"tags":{"amenity":"public_building","building":"office","name":"وزارة العدل","name:ar":"وزارة العدل","name:de":"Justizministerium","name:en":"Ministry of Justice","name:fr":"Ministère de la Justice","office":"government"},"relations":[],"meta":{}},"geometry":{"type":"Polygon","coordinates":[[[31.2392109,30.0401559],[31.2389604,30.0393597],[31.2394761,30.0393677],[31.2401591,30.0391937],[31.2402466,30.0392483],[31.2404005,30.0392446],[31.2405539,30.0398522],[31.2401466,30.0399258],[31.2392109,30.0401559]]]}},{"type":"Feature","id":"way/97391897","properties":{"type":"way","id":97391897,"tags":{"amenity":"public_building","building":"yes","name":"الجمعية الجغرافية المصرية","name:en":"Egyptian Geographic Society"},"relations":[],"meta":{}},"geometry":{"type":"Polygon","coordinates":[[[31.235911,30.0413229],[31.2358249,30.0409682],[31.2362312,30.0408942],[31.2363174,30.041249],[31.235911,30.0413229]]]}},{"type":"Feature","id":"way/97833850","properties":{"type":"way","id":97833850,"tags":{"building":"yes","name":"شراتون","name:ar":"شراتون","name:en":"Sheraton","tourism":"hotel","wheelchair":"no"},"relations":[],"meta":{}},"geometry":{"type":"Polygon","coordinates":[[[31.2193988,30.0382775],[31.2198249,30.0381546],[31.2200766,30.0387975],[31.2203521,30.0388309],[31.2201427,30.0395512],[31.2198176,30.0394892],[31.2198341,30.0393795],[31.2196963,30.0393222],[31.2197294,30.0391934],[31.2196523,30.0391744],[31.2193988,30.0382775]]]}},{"type":"Feature","id":"way/97846603","properties":{"type":"way","id":97846603,"tags":{"amenity":"public_building","building":"yes","name":"وزارة الشئون الاجتماعيه","name:en":"Ministry of Social Affairs"},"relations":[],"meta":{}},"geometry":{"type":"Polygon","coordinates":[[[31.2368379,30.042025],[31.2368043,30.0418986],[31.2377412,30.0417121],[31.2377748,30.0418385],[31.2368379,30.042025]]]}},{"type":"Feature","id":"way/97934884","properties":{"type":"way","id":97934884,"tags":{"amenity":"telephone","building":"yes"},"relations":[],"meta":{}},"geometry":{"type":"Polygon","coordinates":[[[31.2498578,30.053256],[31.2498419,30.0525716],[31.2504317,30.052566],[31.2505178,30.052635],[31.2505273,30.053129],[31.250454,30.0532118],[31.2501734,30.0532256],[31.2501256,30.0532504],[31.2498578,30.053256]]]}},{"type":"Feature","id":"way/97934885","properties":{"type":"way","id":97934885,"tags":{"amenity":"parking","building":"yes","parking":"multi-storey"},"relations":[],"meta":{}},"geometry":{"type":"Polygon","coordinates":[[[31.2498165,30.0521524],[31.2501162,30.0515508],[31.2502406,30.0515342],[31.2505084,30.0516501],[31.2505626,30.0517909],[31.250298,30.0522655],[31.2501226,30.0522683],[31.2498165,30.0521524]]]}},{"type":"Feature","id":"way/97935980","properties":{"type":"way","id":97935980,"tags":{"building":"yes","name":"مؤسسة الأهرام","name:en":"Al Ahram Journal"},"relations":[],"meta":{}},"geometry":{"type":"Polygon","coordinates":[[[31.2382107,30.0557072],[31.2382027,30.055617],[31.2389323,30.0551821],[31.2394989,30.0557141],[31.2386623,30.0561722],[31.2385795,30.0561745],[31.2382107,30.0557072]]]}},{"type":"Feature","id":"way/97937691","properties":{"type":"way","id":97937691,"tags":{"building":"yes","building:type":"skyscraper"},"relations":[],"meta":{}},"geometry":{"type":"Polygon","coordinates":[[[31.227733,30.0638666],[31.2277031,30.0636248],[31.2280582,30.0635918],[31.2280882,30.0638337],[31.227733,30.0638666]]]}},{"type":"Feature","id":"way/97937696","properties":{"type":"way","id":97937696,"tags":{"building":"yes","building:type":"skyscraper","building:use":"office","name":"البنك الأهلى المصرى","name:ar":"البنك الأهلى المصرى","name:en":"National Bank of Egypt"},"relations":[],"meta":{}},"geometry":{"type":"Polygon","coordinates":[[[31.2276101,30.0620367],[31.2275932,30.0617817],[31.2278843,30.0617673],[31.2279012,30.0620222],[31.2276101,30.0620367]]]}},{"type":"Feature","id":"way/97937697","properties":{"type":"way","id":97937697,"tags":{"building":"yes","building:type":"skyscraper","building:use":"office","name":"البنك الأهلى المصرى","name:ar":"البنك الأهلى المصرى","name:en":"National Bank of Egypt"},"relations":[],"meta":{}},"geometry":{"type":"Polygon","coordinates":[[[31.2276728,30.0615155],[31.2276559,30.0612605],[31.227947,30.0612461],[31.2279639,30.061501],[31.2276728,30.0615155]]]}},{"type":"Feature","id":"way/97941691","properties":{"type":"way","id":97941691,"tags":{"building":"yes","name":"نقابة المعلمين","name:en":"Teachers' syndicate"},"relations":[],"meta":{}},"geometry":{"type":"Polygon","coordinates":[[[31.226481,30.0455158],[31.2264963,30.0448382],[31.2270702,30.0448479],[31.2270435,30.0455446],[31.226481,30.0455158]]]}},{"type":"Feature","id":"way/97941694","properties":{"type":"way","id":97941694,"tags":{"amenity":"hospital","building":"yes","name":"مستشفى المعلمين","name:ar":"مستشفى المعلمين","name:en":"Al-Moallemeen Hospital"},"relations":[],"meta":{}},"geometry":{"type":"Polygon","coordinates":[[[31.2247574,30.0449923],[31.2245014,30.044239],[31.2247715,30.0441703],[31.2249457,30.044683],[31.2250537,30.0446555],[31.2251354,30.0448961],[31.2247574,30.0449923]]]}},{"type":"Feature","id":"way/97941695","properties":{"type":"way","id":97941695,"tags":{"brand":"Novotel","building":"yes","name":"نوفوتيل","name:ar":"نوفوتيل","name:en":"Novotel Hotel Cairo El Borg","tourism":"hotel","wheelchair":"no"},"relations":[],"meta":{}},"geometry":{"type":"Polygon","coordinates":[[[31.2261377,30.04407],[31.2262965,30.0439503],[31.2265681,30.0442873],[31.2269605,30.0441995],[31.2270476,30.0447002],[31.2270702,30.0448479],[31.2264963,30.0448382],[31.2263631,30.0443272],[31.2262504,30.0442075],[31.2261377,30.04407]]]}},{"type":"Feature","id":"way/97950744","properties":{"type":"way","id":97950744,"tags":{"building":"yes","name":"فندق شيبرد","name:en":"The Shepherd Hotel","tourism":"hotel","wheelchair":"unknown"},"relations":[],"meta":{}},"geometry":{"type":"Polygon","coordinates":[[[31.2317201,30.0423111],[31.2316378,30.0417929],[31.2319794,30.0417201],[31.2320013,30.0420358],[31.2322995,30.0419818],[31.2323648,30.0421907],[31.2317201,30.0423111]]]}},{"type":"Feature","id":"way/97950751","properties":{"type":"way","id":97950751,"tags":{"amenity":"public_building","building":"yes","name":"وزارة الصناعة والتجارة الخارجية","name:en":"Ministry of Industry And Foriegn Trade"},"relations":[],"meta":{}},"geometry":{"type":"Polygon","coordinates":[[[31.2323648,30.0421907],[31.2322995,30.0419818],[31.232263,30.0418826],[31.232459,30.041839],[31.2325149,30.042014],[31.2326829,30.0419747],[31.2326278,30.0418015],[31.2328235,30.041758],[31.2329231,30.04206],[31.2323648,30.0421907]]]}},{"type":"Feature","id":"way/97950753","properties":{"type":"way","id":97950753,"tags":{"building":"yes","historic":"memorial","name":"ضريح الزعيم سعد زغلول","name:en":"Saad Zaghloul Memorial"},"relations":[],"meta":{}},"geometry":{"type":"Polygon","coordinates":[[[31.2378027,30.0374922],[31.2380469,30.0374416],[31.2380867,30.0375855],[31.2378425,30.0376362],[31.2378027,30.0374922]]]}},{"type":"Feature","id":"way/98066724","properties":{"type":"way","id":98066724,"tags":{"building":"yes","building:levels":"2"},"relations":[],"meta":{}},"geometry":{"type":"Polygon","coordinates":[[[31.2347691,30.0480144],[31.2349626,30.0480144],[31.2349625,30.0483604],[31.234769,30.0483604],[31.2347691,30.0480144]]]}},{"type":"Feature","id":"way/98066725","properties":{"type":"way","id":98066725,"tags":{"building":"yes","building:levels":"10"},"relations":[],"meta":{}},"geometry":{"type":"Polygon","coordinates":[[[31.2352608,30.0470666],[31.2351033,30.0472157],[31.2349092,30.0472466],[31.2347967,30.0472354],[31.2347995,30.0471425],[31.2349261,30.046805],[31.2350217,30.0467909],[31.2352608,30.0470666]]]}},{"type":"Feature","id":"way/98066726","properties":{"type":"way","id":98066726,"tags":{"building":"yes","building:levels":"5"},"relations":[],"meta":{}},"geometry":{"type":"Polygon","coordinates":[[[31.2347695,30.0485289],[31.2347695,30.048375],[31.2348595,30.0483751],[31.2348593,30.048405],[31.2349877,30.0484036],[31.2350813,30.0485688],[31.2349594,30.0486064],[31.2348685,30.0486351],[31.2347695,30.0485289]]]}},{"type":"Feature","id":"way/98066727","properties":{"type":"way","id":98066727,"tags":{"building":"yes"},"relations":[],"meta":{}},"geometry":{"type":"Polygon","coordinates":[[[31.234782,30.0475018],[31.2347846,30.0472685],[31.2350452,30.0472714],[31.2350426,30.0475047],[31.234782,30.0475018]]]}},{"type":"Feature","id":"way/98066728","properties":{"type":"way","id":98066728,"tags":{"building":"yes"},"relations":[],"meta":{}},"geometry":{"type":"Polygon","coordinates":[[[31.2347778,30.047971],[31.2347792,30.0477795],[31.2349665,30.0477637],[31.234965,30.0479149],[31.2348412,30.0479667],[31.2347778,30.047971]]]}},{"type":"Feature","id":"way/98066729","properties":{"type":"way","id":98066729,"tags":{"building":"yes"},"relations":[],"meta":{}},"geometry":{"type":"Polygon","coordinates":[[[31.2348378,30.0477],[31.2348321,30.0475316],[31.2351829,30.0475228],[31.2351885,30.0476912],[31.2348378,30.0477]]]}},{"type":"Feature","id":"way/98094177","properties":{"type":"way","id":98094177,"tags":{"building":"yes","building:levels":"7","source":"Bing"},"relations":[],"meta":{}},"geometry":{"type":"Polygon","coordinates":[[[31.2358788,30.0452352],[31.2360372,30.0453664],[31.2358455,30.0455397],[31.2356872,30.0454085],[31.2358788,30.0452352]]]}},{"type":"Feature","id":"way/98094178","properties":{"type":"way","id":98094178,"tags":{"building":"yes","building:levels":"7"},"relations":[],"meta":{}},"geometry":{"type":"Polygon","coordinates":[[[31.2356463,30.0454524],[31.2358295,30.0455999],[31.2356724,30.045746],[31.2354893,30.0455986],[31.2356463,30.0454524]]]}},{"type":"Feature","id":"way/98117620","properties":{"type":"way","id":98117620,"tags":{"building":"yes"},"relations":[],"meta":{}},"geometry":{"type":"Polygon","coordinates":[[[31.2353017,30.0459769],[31.2354314,30.0457022],[31.2355919,30.0457882],[31.235633,30.0459513],[31.2353466,30.0460219],[31.2353017,30.0459769]]]}},{"type":"Feature","id":"way/98117621","properties":{"type":"way","id":98117621,"tags":{"building":"yes"},"relations":[],"meta":{}},"geometry":{"type":"Polygon","coordinates":[[[31.2361849,30.0455063],[31.2363815,30.045408],[31.23654,30.045731],[31.2363233,30.0457912],[31.2361849,30.0455063]]]}},{"type":"Feature","id":"way/98117622","properties":{"type":"way","id":98117622,"tags":{"building":"yes"},"relations":[],"meta":{}},"geometry":{"type":"Polygon","coordinates":[[[31.2363173,30.0452495],[31.2366163,30.0449726],[31.2367065,30.0450488],[31.2368089,30.0452053],[31.2364257,30.0453398],[31.2363173,30.0452495]]]}},{"type":"Feature","id":"way/98117623","properties":{"type":"way","id":98117623,"tags":{"building":"yes","building:levels":"7"},"relations":[],"meta":{}},"geometry":{"type":"Polygon","coordinates":[[[31.23592,30.0451921],[31.2360543,30.0450616],[31.2362101,30.0452218],[31.2363282,30.0453434],[31.236194,30.0454739],[31.23592,30.0451921]]]}},{"type":"Feature","id":"way/98117624","properties":{"type":"way","id":98117624,"tags":{"building":"yes","building:levels":"7"},"relations":[],"meta":{}},"geometry":{"type":"Polygon","coordinates":[[[31.2363173,30.0452495],[31.2363153,30.0449204],[31.2363936,30.0449184],[31.2364798,30.0449325],[31.2365521,30.0449485],[31.2366163,30.0449726],[31.2363173,30.0452495]]]}},{"type":"Feature","id":"way/98117625","properties":{"type":"way","id":98117625,"tags":{"building":"yes"},"relations":[],"meta":{}},"geometry":{"type":"Polygon","coordinates":[[[31.2352555,30.0463892],[31.2352553,30.0462307],[31.2356302,30.0462307],[31.2356318,30.0462666],[31.2356829,30.0462679],[31.2356855,30.0463514],[31.2356309,30.0463514],[31.2356309,30.0463875],[31.2352555,30.0463892]]]}},{"type":"Feature","id":"way/98117626","properties":{"type":"way","id":98117626,"tags":{"building":"yes","name":"Goethe Institute"},"relations":[],"meta":{}},"geometry":{"type":"Polygon","coordinates":[[[31.2359859,30.0458624],[31.2359441,30.0457008],[31.2361587,30.0456453],[31.2362005,30.0458069],[31.2359859,30.0458624]]]}},{"type":"Feature","id":"way/98117627","properties":{"type":"way","id":98117627,"tags":{"building":"yes","building:levels":"7"},"relations":[],"meta":{}},"geometry":{"type":"Polygon","coordinates":[[[31.2360543,30.0450616],[31.2361575,30.0449686],[31.2362461,30.044939],[31.2362769,30.0451625],[31.2362101,30.0452218],[31.2360543,30.0450616]]]}},{"type":"Feature","id":"way/98117628","properties":{"type":"way","id":98117628,"tags":{"building":"yes"},"relations":[],"meta":{}},"geometry":{"type":"Polygon","coordinates":[[[31.2365942,30.0457129],[31.2363895,30.0453759],[31.2367567,30.0452716],[31.2368028,30.0452836],[31.2370015,30.0455745],[31.2369975,30.0456026],[31.2369794,30.0456267],[31.2365942,30.0457129]]]}},{"type":"Feature","id":"way/98118356","properties":{"type":"way","id":98118356,"tags":{"building":"yes"},"relations":[],"meta":{}},"geometry":{"type":"Polygon","coordinates":[[[31.2367841,30.0448987],[31.2369538,30.0447525],[31.2371092,30.0449572],[31.2368921,30.0450627],[31.2367841,30.0448987]]]}},{"type":"Feature","id":"way/98118357","properties":{"type":"way","id":98118357,"tags":{"building":"yes","building:levels":"10"},"relations":[],"meta":{}},"geometry":{"type":"Polygon","coordinates":[[[31.2369538,30.0447525],[31.2367841,30.0448987],[31.2366463,30.0446895],[31.2367426,30.0445851],[31.2369747,30.0446146],[31.2369538,30.0447525]]]}},{"type":"Feature","id":"way/98118358","properties":{"type":"way","id":98118358,"tags":{"building":"yes","building:levels":"6"},"relations":[],"meta":{}},"geometry":{"type":"Polygon","coordinates":[[[31.236352,30.0434925],[31.2363142,30.0433559],[31.2367647,30.0432625],[31.2368025,30.0433991],[31.236352,30.0434925]]]}},{"type":"Feature","id":"way/98136993","properties":{"type":"way","id":98136993,"tags":{"building":"yes","source":"Bing"},"relations":[],"meta":{}},"geometry":{"type":"Polygon","coordinates":[[[31.2370916,30.0453656],[31.2369207,30.0451061],[31.2371937,30.0449759],[31.23736,30.0452379],[31.2370916,30.0453656]]]}},{"type":"Feature","id":"way/98136995","properties":{"type":"way","id":98136995,"tags":{"building":"yes","source":"Bing"},"relations":[],"meta":{}},"geometry":{"type":"Polygon","coordinates":[[[31.2372358,30.0455845],[31.2371004,30.0453846],[31.2373265,30.0452856],[31.2373726,30.0453654],[31.2375404,30.0453248],[31.2375961,30.0454974],[31.2372358,30.0455845]]]}},{"type":"Feature","id":"way/98136997","properties":{"type":"way","id":98136997,"tags":{"building":"yes","source":"Bing"},"relations":[],"meta":{}},"geometry":{"type":"Polygon","coordinates":[[[31.2378365,30.0451167],[31.2379904,30.0453917],[31.2377761,30.0454815],[31.2376223,30.0452065],[31.2378365,30.0451167]]]}},{"type":"Feature","id":"way/98170810","properties":{"type":"way","id":98170810,"tags":{"building":"yes","source":"Bing"},"relations":[],"meta":{}},"geometry":{"type":"Polygon","coordinates":[[[31.2367992,30.0458749],[31.2369242,30.046159],[31.2367951,30.0462016],[31.2367498,30.0460986],[31.2365127,30.0461767],[31.236433,30.0459955],[31.2367992,30.0458749]]]}},{"type":"Feature","id":"way/98170811","properties":{"type":"way","id":98170811,"tags":{"building":"yes","source":"Bing"},"relations":[],"meta":{}},"geometry":{"type":"Polygon","coordinates":[[[31.2370178,30.0460897],[31.2369243,30.0458538],[31.2370806,30.0458112],[31.237128,30.0458052],[31.2371559,30.0458124],[31.2371699,30.0458269],[31.2372549,30.0459609],[31.2370178,30.0460897]]]}},{"type":"Feature","id":"way/98170812","properties":{"type":"way","id":98170812,"tags":{"building":"yes","source":"Bing"},"relations":[],"meta":{}},"geometry":{"type":"Polygon","coordinates":[[[31.2373133,30.0460388],[31.2375091,30.0463001],[31.2371803,30.0464477],[31.2370795,30.0461817],[31.2373133,30.0460388]]]}},{"type":"Feature","id":"way/98244292","properties":{"type":"way","id":98244292,"tags":{"amenity":"marketplace","building":"yes","name":"سوق خضار باب اللوق","name:ar":"سوق خضار باب اللوق","name:en":"Bab Al-Louq Vegetable Market","source":"Bing"},"relations":[],"meta":{}},"geometry":{"type":"Polygon","coordinates":[[[31.2396459,30.0446881],[31.2393812,30.0437613],[31.2399946,30.0436281],[31.2402674,30.0446469],[31.2396459,30.0446881]]]}},{"type":"Feature","id":"way/98244295","properties":{"type":"way","id":98244295,"tags":{"building":"yes","source":"Bing"},"relations":[],"meta":{}},"geometry":{"type":"Polygon","coordinates":[[[31.2395753,30.0424536],[31.2397341,30.0430628],[31.239564,30.043096],[31.2394755,30.0427564],[31.2394457,30.0427622],[31.2393755,30.0424927],[31.2395753,30.0424536]]]}},{"type":"Feature","id":"way/98244296","properties":{"type":"way","id":98244296,"tags":{"building":"yes","source":"Bing"},"relations":[],"meta":{}},"geometry":{"type":"Polygon","coordinates":[[[31.2395216,30.0421631],[31.2393759,30.0421915],[31.2392948,30.0418804],[31.2393782,30.0418641],[31.2394405,30.0418519],[31.2395216,30.0421631]]]}},{"type":"Feature","id":"way/98244300","properties":{"type":"way","id":98244300,"tags":{"building":"yes","source":"Bing"},"relations":[],"meta":{}},"geometry":{"type":"Polygon","coordinates":[[[31.2399197,30.0433746],[31.2399833,30.0435973],[31.2397676,30.0436434],[31.239704,30.0434208],[31.2399197,30.0433746]]]}},{"type":"Feature","id":"way/98244303","properties":{"type":"way","id":98244303,"tags":{"building":"yes","source":"Bing"},"relations":[],"meta":{}},"geometry":{"type":"Polygon","coordinates":[[[31.23605,30.0423831],[31.2369029,30.0421971],[31.2369456,30.0423439],[31.2365662,30.0424267],[31.2366448,30.0426969],[31.236895,30.0426424],[31.2369589,30.042862],[31.236322,30.0430009],[31.2362588,30.0427838],[31.2363575,30.0427622],[31.236279,30.0424927],[31.2360937,30.0425331],[31.23605,30.0423831]]]}},{"type":"Feature","id":"way/98244304","properties":{"type":"way","id":98244304,"tags":{"building":"yes","source":"Bing"},"relations":[],"meta":{}},"geometry":{"type":"Polygon","coordinates":[[[31.23628,30.0472],[31.2363693,30.0470056],[31.2368346,30.0471658],[31.2367453,30.0473602],[31.23628,30.0472]]]}},{"type":"Feature","id":"way/98244309","properties":{"type":"way","id":98244309,"tags":{"building":"yes","source":"Bing"},"relations":[],"meta":{}},"geometry":{"type":"Polygon","coordinates":[[[31.2394098,30.0437063],[31.2393595,30.0435299],[31.2395422,30.0434908],[31.2395775,30.0436141],[31.2396525,30.0435981],[31.2396676,30.0436512],[31.2394098,30.0437063]]]}},{"type":"Feature","id":"way/98244310","properties":{"type":"way","id":98244310,"tags":{"building":"yes","source":"Bing"},"relations":[],"meta":{}},"geometry":{"type":"Polygon","coordinates":[[[31.2388909,30.0419593],[31.2388506,30.041805],[31.2393379,30.0417098],[31.2393782,30.0418641],[31.2392948,30.0418804],[31.2388909,30.0419593]]]}},{"type":"Feature","id":"way/98244314","properties":{"type":"way","id":98244314,"tags":{"building":"yes","source":"Bing"},"relations":[],"meta":{}},"geometry":{"type":"Polygon","coordinates":[[[31.2367766,30.0433055],[31.2371484,30.0432283],[31.2371743,30.0433219],[31.2368025,30.0433991],[31.2367766,30.0433055]]]}},{"type":"Feature","id":"way/98244315","properties":{"type":"way","id":98244315,"tags":{"building":"yes","source":"Bing"},"relations":[],"meta":{}},"geometry":{"type":"Polygon","coordinates":[[[31.2395252,30.0431145],[31.2392493,30.0431848],[31.2391695,30.0428786],[31.2394426,30.042821],[31.2395252,30.0431145]]]}},{"type":"Feature","id":"way/98244318","properties":{"type":"way","id":98244318,"tags":{"building":"yes","source":"Bing"},"relations":[],"meta":{}},"geometry":{"type":"Polygon","coordinates":[[[31.2392735,30.0432704],[31.2398193,30.0431536],[31.2398665,30.0433188],[31.2396881,30.043357],[31.2396594,30.0432566],[31.2395461,30.0432808],[31.2395837,30.0434125],[31.2393296,30.0434669],[31.2392735,30.0432704]]]}},{"type":"Feature","id":"way/98246959","properties":{"type":"way","id":98246959,"tags":{"building":"yes","source":"Bing"},"relations":[],"meta":{}},"geometry":{"type":"Polygon","coordinates":[[[31.239346,30.0458589],[31.2392691,30.0457169],[31.2395565,30.0456002],[31.2396335,30.0457422],[31.239346,30.0458589]]]}},{"type":"Feature","id":"way/98246960","properties":{"type":"way","id":98246960,"tags":{"building":"yes","source":"Bing"},"relations":[],"meta":{}},"geometry":{"type":"Polygon","coordinates":[[[31.2389873,30.0462549],[31.2388739,30.0460455],[31.2392005,30.0459129],[31.2393139,30.0461223],[31.2389873,30.0462549]]]}},{"type":"Feature","id":"way/98246961","properties":{"type":"way","id":98246961,"tags":{"building":"yes","source":"Bing"},"relations":[],"meta":{}},"geometry":{"type":"Polygon","coordinates":[[[31.2394526,30.0460749],[31.2393549,30.0458947],[31.2396813,30.0457622],[31.2397789,30.0459424],[31.2394526,30.0460749]]]}},{"type":"Feature","id":"way/98246962","properties":{"type":"way","id":98246962,"tags":{"building":"yes","source":"Bing"},"relations":[],"meta":{}},"geometry":{"type":"Polygon","coordinates":[[[31.2382381,30.0470276],[31.2380895,30.0467966],[31.2387269,30.0465312],[31.2388589,30.0467701],[31.2382381,30.0470276]]]}},{"type":"Feature","id":"way/98246963","properties":{"type":"way","id":98246963,"tags":{"building":"yes","source":"Bing"},"relations":[],"meta":{}},"geometry":{"type":"Polygon","coordinates":[[[31.2391879,30.046737],[31.2393702,30.0466645],[31.2394259,30.0467695],[31.2393388,30.0468041],[31.2393533,30.0468315],[31.2392582,30.0468694],[31.2391879,30.046737]]]}},{"type":"Feature","id":"way/98246964","properties":{"type":"way","id":98246964,"tags":{"building":"yes","source":"Bing"},"relations":[],"meta":{}},"geometry":{"type":"Polygon","coordinates":[[[31.2388715,30.0468251],[31.2390846,30.0472388],[31.2387912,30.0473699],[31.2387397,30.0473173],[31.2386493,30.0472785],[31.2385544,30.0472596],[31.2384071,30.0472902],[31.2382687,30.0470752],[31.2388715,30.0468251]]]}},{"type":"Feature","id":"way/98246965","properties":{"type":"way","id":98246965,"tags":{"building":"yes","source":"Bing"},"relations":[],"meta":{}},"geometry":{"type":"Polygon","coordinates":[[[31.2380971,30.0463718],[31.2382011,30.0465627],[31.2379923,30.0466455],[31.2378738,30.0464614],[31.2380971,30.0463718]]]}},{"type":"Feature","id":"way/98246966","properties":{"type":"way","id":98246966,"tags":{"building":"yes","source":"Bing"},"relations":[],"meta":{}},"geometry":{"type":"Polygon","coordinates":[[[31.2389985,30.0467731],[31.2388628,30.0465123],[31.2394057,30.0463007],[31.2395413,30.0465615],[31.2389985,30.0467731]]]}},{"type":"Feature","id":"way/98246967","properties":{"type":"way","id":98246967,"tags":{"building":"yes","source":"Bing"},"relations":[],"meta":{}},"geometry":{"type":"Polygon","coordinates":[[[31.2398606,30.0459062],[31.2397668,30.0457331],[31.2400555,30.0456159],[31.2401493,30.045789],[31.2398606,30.0459062]]]}},{"type":"Feature","id":"way/98246968","properties":{"type":"way","id":98246968,"tags":{"building":"yes","source":"Bing"},"relations":[],"meta":{}},"geometry":{"type":"Polygon","coordinates":[[[31.238327,30.0460832],[31.2385156,30.0464484],[31.2383167,30.0465313],[31.2381161,30.0461708],[31.238327,30.0460832]]]}},{"type":"Feature","id":"way/98246969","properties":{"type":"way","id":98246969,"tags":{"building":"yes","source":"Bing"},"relations":[],"meta":{}},"geometry":{"type":"Polygon","coordinates":[[[31.2378589,30.0464383],[31.2377569,30.0462797],[31.2379926,30.046184],[31.2380823,30.0463485],[31.2378589,30.0464383]]]}},{"type":"Feature","id":"way/98246970","properties":{"type":"way","id":98246970,"tags":{"building":"yes","source":"Bing"},"relations":[],"meta":{}},"geometry":{"type":"Polygon","coordinates":[[[31.2391964,30.0471869],[31.2390871,30.046969],[31.2392856,30.0468944],[31.2393949,30.0471122],[31.2391964,30.0471869]]]}},{"type":"Feature","id":"way/98246971","properties":{"type":"way","id":98246971,"tags":{"building":"yes","source":"Bing"},"relations":[],"meta":{}},"geometry":{"type":"Polygon","coordinates":[[[31.2386287,30.0464055],[31.2384526,30.0460804],[31.2387739,30.04595],[31.2389226,30.0462244],[31.2387719,30.0462856],[31.2387994,30.0463362],[31.2386287,30.0464055]]]}},{"type":"Feature","id":"way/98246972","properties":{"type":"way","id":98246972,"tags":{"alt_name":"كنيسة البشارة الأرمنية الكسليكية","amenity":"place_of_worship","building":"yes","name":"كنيسة البشارة الأرمنية الكسليكية","name:ar":"كنيسة البشارة الأرمنية الكسليكية","name:en":"Armenian Catholic Cathedral of Annunciation","name:fr":"Cathédrale Arménienne Catholique de l'Annonciation","religion":"christian","source":"Bing"},"relations":[],"meta":{}},"geometry":{"type":"Polygon","coordinates":[[[31.2395087,30.0469276],[31.2394283,30.0467632],[31.2396087,30.046697],[31.2396891,30.0468614],[31.2395087,30.0469276]]]}},{"type":"Feature","id":"way/98248192","properties":{"type":"way","id":98248192,"tags":{"building":"yes","name":"سوفيتل الجزيرة","name:ar":"سوفيتل الجزيرة","name:en":"Sofitel Al-Gezirah Cairo","tourism":"hotel","wheelchair":"no"},"relations":[],"meta":{}},"geometry":{"type":"Polygon","coordinates":[[[31.224494,30.0388747],[31.2244347,30.0388325],[31.2244029,30.038784],[31.2243916,30.0387382],[31.2243957,30.0386901],[31.2244444,30.0386107],[31.2245117,30.038571],[31.2246252,30.0385621],[31.2246951,30.0385881],[31.2247554,30.0386462],[31.2247768,30.0387014],[31.2247767,30.0387523],[31.2247619,30.0387953],[31.2247344,30.0388335],[31.2246537,30.0388834],[31.2246052,30.0388934],[31.2245453,30.0388907],[31.224494,30.0388747]]]}},{"type":"Feature","id":"way/98248194","properties":{"type":"way","id":98248194,"tags":{"building":"yes","source":"Bing"},"relations":[],"meta":{}},"geometry":{"type":"Polygon","coordinates":[[[31.2198548,30.0389776],[31.2202507,30.0390547],[31.2201801,30.0393259],[31.2198337,30.0392584],[31.2198723,30.0391099],[31.2198229,30.0391003],[31.2198548,30.0389776]]]}},{"type":"Feature","id":"way/98250749","properties":{"type":"way","id":98250749,"tags":{"building":"yes","source":"Bing"},"relations":[],"meta":{}},"geometry":{"type":"Polygon","coordinates":[[[31.2423124,30.0475622],[31.2422963,30.0471779],[31.2426098,30.0471681],[31.2426259,30.0475524],[31.2423124,30.0475622]]]}},{"type":"Feature","id":"way/98250750","properties":{"type":"way","id":98250750,"tags":{"building":"yes","source":"Bing"},"relations":[],"meta":{}},"geometry":{"type":"Polygon","coordinates":[[[31.2423418,30.0483377],[31.2423244,30.0479237],[31.2427052,30.0479118],[31.2427226,30.0483257],[31.2423418,30.0483377]]]}},{"type":"Feature","id":"way/98250751","properties":{"type":"way","id":98250751,"tags":{"alt_name":"كنيسة سان جوزيف للاباء الفرنسيسكان","amenity":"place_of_worship","building":"yes","name":"كنيسة سان جوزيف للاباء الفرنسيسكان","name:ar":"كنيسة سان جوزيف للاباء الفرنسيسكان","name:en":"St. Josef Church for Franciscan Padres","note":"tag name --> arabic","religion":"christian","source":"Bing"},"relations":[],"meta":{}},"geometry":{"type":"Polygon","coordinates":[[[31.244047,30.0480254],[31.2437573,30.0480363],[31.2437423,30.047529],[31.2440424,30.047522],[31.244047,30.0480254]]]}},{"type":"Feature","id":"way/98250752","properties":{"type":"way","id":98250752,"tags":{"building":"yes","source":"Bing"},"relations":[],"meta":{}},"geometry":{"type":"Polygon","coordinates":[[[31.2427126,30.0478514],[31.2427049,30.047667],[31.2431091,30.0476544],[31.2431168,30.0478387],[31.2427126,30.0478514]]]}},{"type":"Feature","id":"way/98250753","properties":{"type":"way","id":98250753,"tags":{"building":"yes","source":"Bing"},"relations":[],"meta":{}},"geometry":{"type":"Polygon","coordinates":[[[31.2423307,30.0478451],[31.2423213,30.04762],[31.2426428,30.0476099],[31.2426522,30.047835],[31.2423307,30.0478451]]]}},{"type":"Feature","id":"way/98251430","properties":{"type":"way","id":98251430,"tags":{"building":"yes","source":"Bing"},"relations":[],"meta":{}},"geometry":{"type":"Polygon","coordinates":[[[31.2352067,30.0482192],[31.2350762,30.0482524],[31.2350161,30.0480755],[31.2351466,30.0480422],[31.2352067,30.0482192]]]}},{"type":"Feature","id":"way/98251433","properties":{"type":"way","id":98251433,"tags":{"building":"yes","source":"Bing"},"relations":[],"meta":{}},"geometry":{"type":"Polygon","coordinates":[[[31.2353684,30.0479803],[31.2354244,30.0481453],[31.235312,30.0481739],[31.235256,30.0480089],[31.2353684,30.0479803]]]}},{"type":"Feature","id":"way/98251852","properties":{"type":"way","id":98251852,"tags":{"building":"yes","source":"Bing"},"relations":[],"meta":{}},"geometry":{"type":"Polygon","coordinates":[[[31.2349565,30.0408392],[31.234891,30.0405908],[31.2352099,30.0405277],[31.2352754,30.0407761],[31.2349565,30.0408392]]]}},{"type":"Feature","id":"way/98251854","properties":{"type":"way","id":98251854,"tags":{"building":"yes","source":"Bing"},"relations":[],"meta":{}},"geometry":{"type":"Polygon","coordinates":[[[31.2350487,30.0391571],[31.2349666,30.0388571],[31.2351865,30.038812],[31.2352686,30.0391121],[31.2350487,30.0391571]]]}},{"type":"Feature","id":"way/98251856","properties":{"type":"way","id":98251856,"tags":{"building":"yes","source":"Bing"},"relations":[],"meta":{}},"geometry":{"type":"Polygon","coordinates":[[[31.2354409,30.0394198],[31.2355551,30.0398373],[31.2353678,30.0398757],[31.2352536,30.0394582],[31.2354409,30.0394198]]]}},{"type":"Feature","id":"way/98252456","properties":{"type":"way","id":98252456,"tags":{"building":"yes","source":"Bing"},"relations":[],"meta":{}},"geometry":{"type":"Polygon","coordinates":[[[31.2403665,30.0463782],[31.2405269,30.0466804],[31.2402478,30.0467914],[31.2400875,30.0464892],[31.2403665,30.0463782]]]}},{"type":"Feature","id":"way/98252457","properties":{"type":"way","id":98252457,"tags":{"building":"yes","source":"Bing"},"relations":[],"meta":{}},"geometry":{"type":"Polygon","coordinates":[[[31.2402551,30.0459342],[31.2404422,30.0462828],[31.2399791,30.046469],[31.2399181,30.0463554],[31.2396304,30.0464712],[31.2395043,30.0462363],[31.2402551,30.0459342]]]}},{"type":"Feature","id":"way/98252458","properties":{"type":"way","id":98252458,"tags":{"building":"yes","source":"Bing"},"relations":[],"meta":{}},"geometry":{"type":"Polygon","coordinates":[[[31.2401827,30.0474352],[31.2399333,30.047431],[31.2399382,30.0472154],[31.2398986,30.0472147],[31.2398986,30.0471226],[31.2401493,30.0470394],[31.2401917,30.0470401],[31.2401827,30.0474352]]]}},{"type":"Feature","id":"way/98252461","properties":{"type":"way","id":98252461,"tags":{"building":"yes"},"relations":[],"meta":{}},"geometry":{"type":"Polygon","coordinates":[[[31.2389599,30.0476029],[31.2389437,30.0474857],[31.2394246,30.0472899],[31.2394832,30.0473144],[31.2394832,30.0476921],[31.2394024,30.0477533],[31.2389599,30.0476029]]]}},{"type":"Feature","id":"way/98252462","properties":{"type":"way","id":98252462,"tags":{"alt_name":"مسجد الرحمة","amenity":"place_of_worship","building":"yes","name":"مسجد الرحمة","name:ar":"مسجد الرحمة","name:en":"El-Rahma mosque","religion":"muslim","source":"Bing"},"relations":[],"meta":{}},"geometry":{"type":"Polygon","coordinates":[[[31.2400256,30.0465837],[31.2400856,30.0466968],[31.2399852,30.0467367],[31.2399252,30.0466236],[31.2400256,30.0465837]]]}},{"type":"Feature","id":"way/98252609","properties":{"type":"way","id":98252609,"tags":{"building":"yes","source":"Bing"},"relations":[],"meta":{}},"geometry":{"type":"Polygon","coordinates":[[[31.2387797,30.0477995],[31.2394521,30.0480126],[31.2394661,30.0480361],[31.2395066,30.0480501],[31.2392916,30.0485173],[31.2392092,30.0485117],[31.2387797,30.0477995]]]}},{"type":"Feature","id":"way/98253031","properties":{"type":"way","id":98253031,"tags":{"building":"yes","source":"Bing"},"relations":[],"meta":{}},"geometry":{"type":"Polygon","coordinates":[[[31.2356369,30.0422747],[31.2353586,30.0423317],[31.2353267,30.0422151],[31.2354808,30.0421835],[31.2354205,30.0419626],[31.2354373,30.0419592],[31.2354044,30.0418389],[31.2353039,30.0418595],[31.2353163,30.041905],[31.2352435,30.0419199],[31.2351923,30.0417328],[31.2353953,30.0416912],[31.2354095,30.041743],[31.2354872,30.041727],[31.2356369,30.0422747]]]}},{"type":"Feature","id":"way/98308859","properties":{"type":"way","id":98308859,"tags":{"building":"yes","source":"Bing"},"relations":[],"meta":{}},"geometry":{"type":"Polygon","coordinates":[[[31.2371803,30.0464477],[31.2375091,30.0463001],[31.2375704,30.0463818],[31.2375281,30.0464151],[31.237593,30.0465056],[31.2376555,30.0464954],[31.237701,30.0465561],[31.2373633,30.0467261],[31.2371803,30.0464477]]]}},{"type":"Feature","id":"way/98308860","properties":{"type":"way","id":98308860,"tags":{"building":"yes","source":"Bing"},"relations":[],"meta":{}},"geometry":{"type":"Polygon","coordinates":[[[31.2388869,30.0460149],[31.2388186,30.045882],[31.2391291,30.0457623],[31.2391974,30.0458953],[31.2388869,30.0460149]]]}},{"type":"Feature","id":"way/98308861","properties":{"type":"way","id":98308861,"tags":{"building":"yes","name":"مركز البستان التجاري","name:en":"Al-Bustan Commercial Center","shop":"mall","source":"Bing"},"relations":[],"meta":{}},"geometry":{"type":"Polygon","coordinates":[[[31.2384244,30.0460338],[31.2381852,30.0455685],[31.2388313,30.0453981],[31.2389216,30.0454053],[31.2389742,30.0454445],[31.2391291,30.0457623],[31.2388186,30.045882],[31.2384244,30.0460338]]]}},{"type":"Feature","id":"way/98309686","properties":{"type":"way","id":98309686,"tags":{"building":"yes","source":"Bing"},"relations":[],"meta":{}},"geometry":{"type":"Polygon","coordinates":[[[31.2380136,30.0461337],[31.2379131,30.0459551],[31.2381988,30.045835],[31.2382925,30.0460164],[31.2380136,30.0461337]]]}},{"type":"Feature","id":"way/98309687","properties":{"type":"way","id":98309687,"tags":{"building":"yes","source":"Bing"},"relations":[],"meta":{}},"geometry":{"type":"Polygon","coordinates":[[[31.2377322,30.0462413],[31.2376278,30.0460791],[31.2378568,30.0459825],[31.2379508,30.0461497],[31.2377322,30.0462413]]]}},{"type":"Feature","id":"way/98309690","properties":{"type":"way","id":98309690,"tags":{"building":"yes","source":"Bing"},"relations":[],"meta":{}},"geometry":{"type":"Polygon","coordinates":[[[31.237773,30.0456669],[31.2378075,30.0457421],[31.2377138,30.0457708],[31.2377608,30.0458799],[31.2378522,30.045849],[31.237883,30.0459383],[31.2376136,30.046057],[31.2374196,30.0457556],[31.237773,30.0456669]]]}},{"type":"Feature","id":"way/98309691","properties":{"type":"way","id":98309691,"tags":{"building":"yes","source":"Bing"},"relations":[],"meta":{}},"geometry":{"type":"Polygon","coordinates":[[[31.2374838,30.0446795],[31.2376108,30.0446956],[31.2376668,30.0448041],[31.2374867,30.0448804],[31.2374679,30.0448537],[31.2374838,30.0446795]]]}},{"type":"Feature","id":"way/98309692","properties":{"type":"way","id":98309692,"tags":{"building":"yes","source":"Bing"},"relations":[],"meta":{}},"geometry":{"type":"Polygon","coordinates":[[[31.2380691,30.0455839],[31.2381746,30.0457881],[31.2379322,30.045864],[31.2378456,30.0456525],[31.2380691,30.0455839]]]}},{"type":"Feature","id":"way/98309693","properties":{"type":"way","id":98309693,"tags":{"building":"yes","source":"Bing"},"relations":[],"meta":{}},"geometry":{"type":"Polygon","coordinates":[[[31.2376668,30.0448041],[31.2377998,30.0450392],[31.2376197,30.0451155],[31.2374867,30.0448804],[31.2376668,30.0448041]]]}},{"type":"Feature","id":"way/98309694","properties":{"type":"way","id":98309694,"tags":{"building":"yes","source":"Bing"},"relations":[],"meta":{}},"geometry":{"type":"Polygon","coordinates":[[[31.2369747,30.0446146],[31.2372294,30.0446471],[31.2372108,30.0447801],[31.2369538,30.0447525],[31.2369747,30.0446146]]]}},{"type":"Feature","id":"way/98309695","properties":{"type":"way","id":98309695,"tags":{"building":"yes","source":"Bing"},"relations":[],"meta":{}},"geometry":{"type":"Polygon","coordinates":[[[31.2372576,30.0446507],[31.2374658,30.0446772],[31.2374541,30.0448985],[31.2373549,30.0449329],[31.2372383,30.0447675],[31.2372576,30.0446507]]]}},{"type":"Feature","id":"way/98328364","properties":{"type":"way","id":98328364,"tags":{"building":"yes","source":"Bing"},"relations":[],"meta":{}},"geometry":{"type":"Polygon","coordinates":[[[31.2369788,30.0465649],[31.2371139,30.0464827],[31.23726,30.0466628],[31.2371249,30.0467449],[31.2369788,30.0465649]]]}},{"type":"Feature","id":"way/98328365","properties":{"type":"way","id":98328365,"tags":{"building":"yes","source":"Bing"},"relations":[],"meta":{}},"geometry":{"type":"Polygon","coordinates":[[[31.2375751,30.0469331],[31.2374453,30.0467599],[31.2377328,30.0465984],[31.2378626,30.0467717],[31.2375751,30.0469331]]]}},{"type":"Feature","id":"way/98328366","properties":{"type":"way","id":98328366,"tags":{"building":"yes","source":"Bing"},"relations":[],"meta":{}},"geometry":{"type":"Polygon","coordinates":[[[31.2368613,30.0471653],[31.2370423,30.0472286],[31.2368891,30.047557],[31.236708,30.0474937],[31.2368613,30.0471653]]]}},{"type":"Feature","id":"way/98328367","properties":{"type":"way","id":98328367,"tags":{"building":"yes","source":"Bing"},"relations":[],"meta":{}},"geometry":{"type":"Polygon","coordinates":[[[31.2373604,30.0470904],[31.2371604,30.0470242],[31.2372692,30.0468001],[31.2373654,30.0467786],[31.2375453,30.0469773],[31.2373604,30.0470904]]]}},{"type":"Feature","id":"way/98328368","properties":{"type":"way","id":98328368,"tags":{"building":"yes","source":"Bing"},"relations":[],"meta":{}},"geometry":{"type":"Polygon","coordinates":[[[31.2365249,30.0468242],[31.2366426,30.0465254],[31.236827,30.0465798],[31.2367093,30.0468787],[31.2365249,30.0468242]]]}},{"type":"Feature","id":"way/98328369","properties":{"type":"way","id":98328369,"tags":{"building":"yes","source":"Bing"},"relations":[],"meta":{}},"geometry":{"type":"Polygon","coordinates":[[[31.2365263,30.0462089],[31.2366966,30.0461527],[31.2367534,30.0462817],[31.236583,30.0463378],[31.2365263,30.0462089]]]}},{"type":"Feature","id":"way/98328370","properties":{"type":"way","id":98328370,"tags":{"building":"yes","source":"Bing"},"relations":[],"meta":{}},"geometry":{"type":"Polygon","coordinates":[[[31.2366019,30.0463761],[31.2368188,30.0462994],[31.2369448,30.0465196],[31.236894,30.0465477],[31.2366459,30.0464699],[31.2366019,30.0463761]]]}},{"type":"Feature","id":"way/98328371","properties":{"type":"way","id":98328371,"tags":{"building":"yes","source":"Bing"},"relations":[],"meta":{}},"geometry":{"type":"Polygon","coordinates":[[[31.2369664,30.0465074],[31.2368514,30.0462903],[31.236975,30.0462412],[31.2370901,30.0464584],[31.2369664,30.0465074]]]}},{"type":"Feature","id":"way/98329823","properties":{"type":"way","id":98329823,"tags":{"amenity":"place_of_worship","building":"yes","name":"الكنيسة الإنجيلية بقصر الدوبارة","name:en":"Kasr El Dobara Evangelical Church","religion":"christian","source":"Bing"},"relations":[],"meta":{}},"geometry":{"type":"Polygon","coordinates":[[[31.2350524,30.0423658],[31.2349413,30.0423876],[31.234909,30.0422642],[31.234744,30.0422967],[31.234776,30.0424184],[31.2346847,30.0424364],[31.2345492,30.0419198],[31.2349165,30.0418476],[31.2350524,30.0423658]]]}},{"type":"Feature","id":"way/98329824","properties":{"type":"way","id":98329824,"tags":{"building":"yes","source":"Bing"},"relations":[],"meta":{}},"geometry":{"type":"Polygon","coordinates":[[[31.2341126,30.0423823],[31.2342672,30.0423524],[31.234297,30.0424675],[31.2343296,30.0424612],[31.2343626,30.0425888],[31.2342652,30.0426076],[31.234232,30.0424789],[31.234142,30.0424963],[31.2341126,30.0423823]]]}},{"type":"Feature","id":"way/98329825","properties":{"type":"way","id":98329825,"tags":{"building":"yes","source":"Bing"},"relations":[],"meta":{}},"geometry":{"type":"Polygon","coordinates":[[[31.2342768,30.0419684],[31.2343375,30.0421997],[31.2339452,30.0422769],[31.2338845,30.0420456],[31.2342768,30.0419684]]]}},{"type":"Feature","id":"way/98329826","properties":{"type":"way","id":98329826,"tags":{"building":"yes","source":"Bing"},"relations":[],"meta":{}},"geometry":{"type":"Polygon","coordinates":[[[31.2338541,30.0421704],[31.2339112,30.042388],[31.2336995,30.0424296],[31.2336423,30.042212],[31.2338541,30.0421704]]]}},{"type":"Feature","id":"way/98329827","properties":{"type":"way","id":98329827,"tags":{"building":"yes","source":"Bing"},"relations":[],"meta":{}},"geometry":{"type":"Polygon","coordinates":[[[31.2345184,30.0419236],[31.234581,30.0421622],[31.23437,30.0422037],[31.2343074,30.041965],[31.2345184,30.0419236]]]}},{"type":"Feature","id":"way/98329828","properties":{"type":"way","id":98329828,"tags":{"building":"yes","source":"Bing"},"relations":[],"meta":{}},"geometry":{"type":"Polygon","coordinates":[[[31.2333486,30.0412804],[31.233137,30.0413237],[31.2330814,30.0411203],[31.233381,30.041059],[31.2336225,30.04119],[31.2334983,30.0413616],[31.2333486,30.0412804]]]}},{"type":"Feature","id":"way/98329829","properties":{"type":"way","id":98329829,"tags":{"building":"yes","source":"Bing"},"relations":[],"meta":{}},"geometry":{"type":"Polygon","coordinates":[[[31.234586,30.040521],[31.2339044,30.0413594],[31.2338425,30.0413232],[31.2339373,30.0411233],[31.2343392,30.0405845],[31.2335449,30.0407578],[31.2335058,30.0405923],[31.2345466,30.0403586],[31.234586,30.040521]]]}},{"type":"Feature","id":"way/98329830","properties":{"type":"way","id":98329830,"tags":{"building":"yes","source":"Bing"},"relations":[],"meta":{}},"geometry":{"type":"Polygon","coordinates":[[[31.2329341,30.0417703],[31.2333941,30.0416561],[31.2336019,30.0417617],[31.2334843,30.0419283],[31.233343,30.0419173],[31.2333282,30.0418331],[31.2332078,30.0418574],[31.2332309,30.0419987],[31.2331331,30.0420197],[31.233,30.0419587],[31.2329341,30.0417703]]]}},{"type":"Feature","id":"way/98329831","properties":{"type":"way","id":98329831,"tags":{"building":"yes","source":"Bing"},"relations":[],"meta":{}},"geometry":{"type":"Polygon","coordinates":[[[31.2338486,30.0410966],[31.2335983,30.0409709],[31.2337405,30.0407585],[31.2339909,30.0408842],[31.2338486,30.0410966]]]}},{"type":"Feature","id":"way/98331931","properties":{"type":"way","id":98331931,"tags":{"building":"yes","source":"Bing"},"relations":[],"meta":{}},"geometry":{"type":"Polygon","coordinates":[[[31.2316418,30.0417117],[31.2315612,30.04144],[31.2320153,30.0413308],[31.2321014,30.0416013],[31.2316418,30.0417117]]]}},{"type":"Feature","id":"way/98331935","properties":{"type":"way","id":98331935,"tags":{"building":"yes","source":"Bing"},"relations":[],"meta":{}},"geometry":{"type":"Polygon","coordinates":[[[31.2226122,30.0440034],[31.2230707,30.0438877],[31.2232354,30.044377],[31.2227769,30.0444926],[31.2226122,30.0440034]]]}},{"type":"Feature","id":"way/98331936","properties":{"type":"way","id":98331936,"tags":{"building":"yes","source":"Bing"},"relations":[],"meta":{}},"geometry":{"type":"Polygon","coordinates":[[[31.2327525,30.0415426],[31.2328034,30.0416968],[31.2321924,30.0418436],[31.2321429,30.041689],[31.2327525,30.0415426]]]}},{"type":"Feature","id":"way/98331937","properties":{"type":"way","id":98331937,"tags":{"building":"yes","name":"Osiris","source":"Bing"},"relations":[],"meta":{}},"geometry":{"type":"Polygon","coordinates":[[[31.2321586,30.0413073],[31.232637,30.0411922],[31.2327225,30.0414516],[31.2322379,30.0415681],[31.2321586,30.0413073]]]}},{"type":"Feature","id":"way/98331941","properties":{"type":"way","id":98331941,"tags":{"building":"yes","source":"Bing"},"relations":[],"meta":{}},"geometry":{"type":"Polygon","coordinates":[[[31.2218386,30.0411575],[31.221988,30.0411898],[31.221783,30.0418998],[31.2216336,30.0418675],[31.2218386,30.0411575]]]}},{"type":"Feature","id":"way/98331946","properties":{"type":"way","id":98331946,"tags":{"building":"yes","source":"Bing"},"relations":[],"meta":{}},"geometry":{"type":"Polygon","coordinates":[[[31.2235067,30.04378],[31.22365,30.044206],[31.2232619,30.0443038],[31.2231185,30.0438778],[31.2235067,30.04378]]]}},{"type":"Feature","id":"way/98331947","properties":{"type":"way","id":98331947,"tags":{"building":"yes","source":"Bing"},"relations":[],"meta":{}},"geometry":{"type":"Polygon","coordinates":[[[31.2314466,30.0410535],[31.231893,30.0409463],[31.2319849,30.0412352],[31.2315327,30.0413438],[31.2314466,30.0410535]]]}},{"type":"Feature","id":"way/98331949","properties":{"type":"way","id":98331949,"tags":{"building":"yes","name":"Isis","source":"Bing"},"relations":[],"meta":{}},"geometry":{"type":"Polygon","coordinates":[[[31.2320438,30.0409299],[31.2325134,30.0408171],[31.2326085,30.0411058],[31.2321321,30.0412203],[31.2320438,30.0409299]]]}},{"type":"Feature","id":"way/98352480","properties":{"type":"way","id":98352480,"tags":{"building":"yes","source":"Bing"},"relations":[],"meta":{}},"geometry":{"type":"Polygon","coordinates":[[[31.2339776,30.0402831],[31.2339173,30.0400721],[31.234185,30.0400148],[31.2342452,30.0402258],[31.2339776,30.0402831]]]}},{"type":"Feature","id":"way/98352481","properties":{"type":"way","id":98352481,"tags":{"building":"yes","source":"Bing"},"relations":[],"meta":{}},"geometry":{"type":"Polygon","coordinates":[[[31.2327294,30.0405853],[31.2326894,30.0404453],[31.2329606,30.0403872],[31.2330006,30.0405273],[31.2327294,30.0405853]]]}},{"type":"Feature","id":"way/98352482","properties":{"type":"way","id":98352482,"tags":{"building":"yes","source":"Bing"},"relations":[],"meta":{}},"geometry":{"type":"Polygon","coordinates":[[[31.2313728,30.039481],[31.2313652,30.039344],[31.2314643,30.0393374],[31.2315845,30.0393374],[31.2316951,30.0393655],[31.2317828,30.03941],[31.231861,30.0394579],[31.2319183,30.0395107],[31.2319583,30.0395619],[31.2319926,30.0396164],[31.2320232,30.0396858],[31.2318687,30.0397369],[31.2318362,30.0396693],[31.2317943,30.0396181],[31.2317466,30.0395768],[31.2317008,30.0395388],[31.2316455,30.0395074],[31.2315807,30.0394876],[31.2315006,30.0394761],[31.23143,30.0394761],[31.2313728,30.039481]]]}},{"type":"Feature","id":"way/98352483","properties":{"type":"way","id":98352483,"tags":{"building":"yes","source":"Bing"},"relations":[],"meta":{}},"geometry":{"type":"Polygon","coordinates":[[[31.232942,30.0401335],[31.2325981,30.0402071],[31.2324932,30.0398397],[31.2328371,30.0397661],[31.232942,30.0401335]]]}},{"type":"Feature","id":"way/98383698","properties":{"type":"way","id":98383698,"tags":{"building":"yes","source":"Bing"},"relations":[],"meta":{}},"geometry":{"type":"Polygon","coordinates":[[[31.2389804,30.0451811],[31.2387809,30.0448523],[31.2388959,30.0448526],[31.2390674,30.0448927],[31.2391604,30.0451354],[31.2390783,30.0451651],[31.2389804,30.0451811]]]}},{"type":"Feature","id":"way/98383699","properties":{"type":"way","id":98383699,"tags":{"building":"yes","source":"Bing"},"relations":[],"meta":{}},"geometry":{"type":"Polygon","coordinates":[[[31.2391875,30.0451268],[31.2391059,30.0448988],[31.2392345,30.0449075],[31.239357,30.0449185],[31.2394386,30.0449472],[31.2394591,30.0449958],[31.2394514,30.0450378],[31.2393876,30.0450798],[31.2392932,30.0451041],[31.2391875,30.0451268]]]}},{"type":"Feature","id":"way/98383700","properties":{"type":"way","id":98383700,"tags":{"building":"yes","source":"Bing"},"relations":[],"meta":{}},"geometry":{"type":"Polygon","coordinates":[[[31.2312507,30.0507146],[31.2317845,30.0509046],[31.2316869,30.0511101],[31.231153,30.0509201],[31.2312507,30.0507146]]]}},{"type":"Feature","id":"way/98383701","properties":{"type":"way","id":98383701,"tags":{"building":"yes","source":"Bing"},"relations":[],"meta":{}},"geometry":{"type":"Polygon","coordinates":[[[31.2381241,30.0448446],[31.2378269,30.0449167],[31.2377452,30.0447499],[31.2377583,30.0447244],[31.2380882,30.0447584],[31.2381241,30.0448446]]]}},{"type":"Feature","id":"way/98383702","properties":{"type":"way","id":98383702,"tags":{"building":"yes","source":"Bing"},"relations":[],"meta":{}},"geometry":{"type":"Polygon","coordinates":[[[31.2382847,30.0449973],[31.2382005,30.0447742],[31.2384888,30.0447941],[31.2386139,30.0448096],[31.2386589,30.04482],[31.2386725,30.0448463],[31.2386485,30.0448707],[31.2382847,30.0449973]]]}},{"type":"Feature","id":"way/98776446","properties":{"type":"way","id":98776446,"tags":{"building":"yes","building:levels":"6"},"relations":[],"meta":{}},"geometry":{"type":"Polygon","coordinates":[[[31.2355183,30.0408114],[31.235409,30.0404274],[31.2361033,30.0402793],[31.2362127,30.0406633],[31.2355183,30.0408114]]]}},{"type":"Feature","id":"way/98776450","properties":{"type":"way","id":98776450,"tags":{"building":"yes"},"relations":[],"meta":{}},"geometry":{"type":"Polygon","coordinates":[[[31.2361092,30.0418168],[31.2360679,30.0416801],[31.2364072,30.0416033],[31.2364485,30.04174],[31.2361092,30.0418168]]]}},{"type":"Feature","id":"way/98776451","properties":{"type":"way","id":98776451,"tags":{"building":"yes","source":"bing"},"relations":[],"meta":{}},"geometry":{"type":"Polygon","coordinates":[[[31.2413284,30.0384768],[31.241257,30.0382294],[31.2413716,30.0382046],[31.241443,30.038452],[31.2413284,30.0384768]]]}},{"type":"Feature","id":"way/98776452","properties":{"type":"way","id":98776452,"tags":{"amenity":"public_building","building":"yes","building:levels":"10","note":"administrative building, part of People's Assembly of Egypt, see url","url":"http://www.parliament.gov.eg/"},"relations":[],"meta":{}},"geometry":{"type":"Polygon","coordinates":[[[31.2354409,30.0403309],[31.2353985,30.0401749],[31.2360024,30.0400519],[31.2360448,30.0402079],[31.2354409,30.0403309]]]}},{"type":"Feature","id":"way/107511573","properties":{"type":"way","id":107511573,"tags":{"amenity":"public_building","building":"yes","name":"نقابة المحامين","name:en":"Lawyers Syndicate"},"relations":[],"meta":{}},"geometry":{"type":"Polygon","coordinates":[[[31.2379937,30.0523253],[31.2381979,30.0521559],[31.2384346,30.0523696],[31.2383535,30.0524369],[31.2382948,30.0523839],[31.2381717,30.052486],[31.2379937,30.0523253]]]}},{"type":"Feature","id":"way/107511575","properties":{"type":"way","id":107511575,"tags":{"building":"yes","name":"عمارة يعقوبيان","name:en":"Yacoubian Building"},"relations":[],"meta":{}},"geometry":{"type":"Polygon","coordinates":[[[31.2400381,30.0507795],[31.2404413,30.0505779],[31.2408192,30.0511441],[31.240416,30.0513457],[31.2400381,30.0507795]]]}},{"type":"Feature","id":"way/107511576","properties":{"type":"way","id":107511576,"tags":{"amenity":"bank","building":"yes","name":"بنك الاستثمار العربى","name:ar":"بنك الاستثمار العربى","name:en":"Arabic Investment Bank"},"relations":[],"meta":{}},"geometry":{"type":"Polygon","coordinates":[[[31.2391536,30.0514234],[31.2393987,30.051262],[31.2395517,30.051436],[31.2393067,30.0515975],[31.2391536,30.0514234]]]}},{"type":"Feature","id":"way/107511578","properties":{"type":"way","id":107511578,"tags":{"amenity":"public_building","building":"yes","name":"نقابة الصحفيين","name:en":"Journalists Syndicate"},"relations":[],"meta":{}},"geometry":{"type":"Polygon","coordinates":[[[31.2383347,30.0519474],[31.238756,30.051669],[31.2391248,30.0520872],[31.2387035,30.0523656],[31.2383347,30.0519474]]]}},{"type":"Feature","id":"way/107538045","properties":{"type":"way","id":107538045,"tags":{"building":"yes","name":"Kempinski Nile Hotel Cairo","tourism":"hotel"},"relations":[],"meta":{}},"geometry":{"type":"Polygon","coordinates":[[[31.230863,30.0389748],[31.2306996,30.0388704],[31.2304933,30.0387243],[31.2303111,30.0385666],[31.2307853,30.0385689],[31.2310318,30.0385179],[31.2312086,30.0384437],[31.230863,30.0389748]]]}},{"type":"Feature","id":"way/107538048","properties":{"type":"way","id":107538048,"tags":{"building":"yes","name":"فورسيزون النيل","name:ar":"فورسيزون النيل","name:en":"Four Seasons Nile","tourism":"hotel","wheelchair":"no"},"relations":[],"meta":{}},"geometry":{"type":"Polygon","coordinates":[[[31.229704,30.0365883],[31.229408,30.0361316],[31.2292665,30.0357826],[31.2292794,30.0354596],[31.2295925,30.035467],[31.2301543,30.0356527],[31.230536,30.0356935],[31.2301886,30.035946],[31.2299313,30.0362281],[31.229704,30.0365883]]]}},{"type":"Feature","id":"way/108130599","properties":{"type":"way","id":108130599,"tags":{"building":"yes","historic":"monument","name":"وكالة قايتباى","name:ar":"وكالة قايتباى","name:en":"Wekalat Qaitbay"},"relations":[],"meta":{}},"geometry":{"type":"Polygon","coordinates":[[[31.2621337,30.0454056],[31.2620357,30.0453268],[31.262638,30.0450085],[31.2626941,30.0450691],[31.2621337,30.0454056]]]}},{"type":"Feature","id":"way/108136648","properties":{"type":"way","id":108136648,"tags":{"amenity":"public_building","building":"yes","name":"مرور الدراسة","name:ar":"مرور الدراسة","name:en":"Al-Darrassa Traffic Office"},"relations":[],"meta":{}},"geometry":{"type":"Polygon","coordinates":[[[31.2743495,30.0532584],[31.2742599,30.052599],[31.2756416,30.0524365],[31.2757544,30.0530815],[31.2743495,30.0532584]]]}},{"type":"Feature","id":"way/108473323","properties":{"type":"way","id":108473323,"tags":{"building":"yes","historic":"monument","name":"وكالة بازرعة","name:en":"Wekalet Bazar'a"},"relations":[],"meta":{}},"geometry":{"type":"Polygon","coordinates":[[[31.2629221,30.0509746],[31.2626574,30.0506285],[31.2626433,30.0505505],[31.2629869,30.0504944],[31.2631643,30.0508624],[31.2629221,30.0509746]]]}},{"type":"Feature","id":"way/110244811","properties":{"type":"way","id":110244811,"tags":{"amenity":"bank","building":"yes","name":"البنك الوطنى","name:ar":"البنك الوطنى","name:en":"National Bank"},"relations":[],"meta":{}},"geometry":{"type":"Polygon","coordinates":[[[31.2399773,30.0492214],[31.2401265,30.048891],[31.240425,30.0489721],[31.2404388,30.0492183],[31.2400259,30.0492364],[31.2399773,30.0492214]]]}},{"type":"Feature","id":"way/112413828","properties":{"type":"way","id":112413828,"tags":{"alt_name":"Champollion Palace","building":"yes","name":"Prince Said Halim Pasha Palace"},"relations":[],"meta":{}},"geometry":{"type":"Polygon","coordinates":[[[31.2368507,30.0486795],[31.2369223,30.0486463],[31.2371047,30.0488785],[31.2374408,30.0486935],[31.2372579,30.0484608],[31.2373273,30.0484202],[31.2375355,30.0486988],[31.2374724,30.0487348],[31.237617,30.0489205],[31.2372925,30.0491107],[31.2371369,30.0489157],[31.2370666,30.0489579],[31.2368507,30.0486795]]]}},{"type":"Feature","id":"way/161009162","properties":{"type":"way","id":161009162,"tags":{"building":"yes"},"relations":[],"meta":{}},"geometry":{"type":"Polygon","coordinates":[[[31.2197639,30.0478189],[31.2198381,30.0474724],[31.2202478,30.0475382],[31.2201736,30.0478847],[31.2197639,30.0478189]]]}},{"type":"Feature","id":"way/165498721","properties":{"type":"way","id":165498721,"tags":{"amenity":"public_building","building":"yes","name":"Creativity Center"},"relations":[],"meta":{}},"geometry":{"type":"Polygon","coordinates":[[[31.2213731,30.0438553],[31.2213908,30.0436528],[31.2210878,30.043633],[31.2210766,30.0437616],[31.221002,30.0437567],[31.2210186,30.0435669],[31.2213954,30.0435916],[31.2214037,30.0434958],[31.2215856,30.0435077],[31.2215542,30.0438672],[31.2213731,30.0438553]]]}},{"type":"Feature","id":"way/165498733","properties":{"type":"way","id":165498733,"tags":{"building":"yes"},"relations":[],"meta":{}},"geometry":{"type":"Polygon","coordinates":[[[31.2222893,30.0436701],[31.222254,30.0435446],[31.2227754,30.0434347],[31.2228107,30.0435602],[31.2222893,30.0436701]]]}},{"type":"Feature","id":"way/165500633","properties":{"type":"way","id":165500633,"tags":{"building":"yes"},"relations":[],"meta":{}},"geometry":{"type":"Polygon","coordinates":[[[31.2403458,30.0517401],[31.2402151,30.0515481],[31.240927,30.051166],[31.2410674,30.0513722],[31.2403458,30.0517401]]]}},{"type":"Feature","id":"way/165727950","properties":{"type":"way","id":165727950,"tags":{"building":"yes"},"relations":[],"meta":{}},"geometry":{"type":"Polygon","coordinates":[[[31.2426946,30.047484],[31.2426939,30.047222],[31.2431739,30.047221],[31.2431747,30.047483],[31.2426946,30.047484]]]}},{"type":"Feature","id":"way/165727951","properties":{"type":"way","id":165727951,"tags":{"building":"yes"},"relations":[],"meta":{}},"geometry":{"type":"Polygon","coordinates":[[[31.2428061,30.0483158],[31.2427926,30.0479624],[31.2431562,30.047952],[31.2431697,30.0483054],[31.2428061,30.0483158]]]}},{"type":"Feature","id":"way/165729431","properties":{"type":"way","id":165729431,"tags":{"building":"yes"},"relations":[],"meta":{}},"geometry":{"type":"Polygon","coordinates":[[[31.2222566,30.0565539],[31.2222405,30.0563287],[31.2226992,30.0562916],[31.222726,30.0565098],[31.2222566,30.0565539]]]}},{"type":"Feature","id":"way/165729432","properties":{"type":"way","id":165729432,"tags":{"amenity":"embassy","building":"yes","country":"CO","diplomatic":"embassy","name":"Embassy of Colombia","target":"EG"},"relations":[],"meta":{}},"geometry":{"type":"Polygon","coordinates":[[[31.2219205,30.0563373],[31.2221949,30.0563251],[31.2222089,30.0565617],[31.2219345,30.0565738],[31.2219205,30.0563373]]]}},{"type":"Feature","id":"way/165849552","properties":{"type":"way","id":165849552,"tags":{"amenity":"library","building":"yes","name":"Music Library"},"relations":[],"meta":{}},"geometry":{"type":"Polygon","coordinates":[[[31.225679,30.0430424],[31.2257594,30.0428845],[31.2262476,30.0430749],[31.2261671,30.0431678],[31.2257119,30.0430509],[31.225679,30.0430424]]]}},{"type":"Feature","id":"way/166492694","properties":{"type":"way","id":166492694,"tags":{"building":"residential"},"relations":[],"meta":{}},"geometry":{"type":"Polygon","coordinates":[[[31.2145273,30.0637186],[31.2146084,30.0637394],[31.2145598,30.0638814],[31.2144842,30.063862],[31.2145273,30.0637186]]]}},{"type":"Feature","id":"way/166492703","properties":{"type":"way","id":166492703,"tags":{"building":"residential"},"relations":[],"meta":{}},"geometry":{"type":"Polygon","coordinates":[[[31.2146003,30.0634451],[31.2146886,30.0634625],[31.2146489,30.0636137],[31.2145606,30.0635963],[31.2146003,30.0634451]]]}},{"type":"Feature","id":"way/166492708","properties":{"type":"way","id":166492708,"tags":{"building":"residential"},"relations":[],"meta":{}},"geometry":{"type":"Polygon","coordinates":[[[31.2146771,30.0631718],[31.2147749,30.0631915],[31.2147232,30.0633829],[31.2146254,30.0633631],[31.2146771,30.0631718]]]}},{"type":"Feature","id":"way/166492713","properties":{"type":"way","id":166492713,"tags":{"building":"residential"},"relations":[],"meta":{}},"geometry":{"type":"Polygon","coordinates":[[[31.2147169,30.0629774],[31.2148042,30.062989],[31.2147787,30.063133],[31.2146914,30.0631214],[31.2147169,30.0629774]]]}},{"type":"Feature","id":"way/166492715","properties":{"type":"way","id":166492715,"tags":{"building":"houseboat"},"relations":[],"meta":{}},"geometry":{"type":"Polygon","coordinates":[[[31.2147142,30.0628839],[31.2147544,30.0627476],[31.2148372,30.0627659],[31.2148262,30.0628032],[31.214846,30.0628075],[31.2148289,30.0628655],[31.2148073,30.0628607],[31.2147953,30.0629017],[31.2147142,30.0628839]]]}},{"type":"Feature","id":"way/182452798","properties":{"type":"way","id":182452798,"tags":{"building":"yes"},"relations":[],"meta":{}},"geometry":{"type":"Polygon","coordinates":[[[31.2311486,30.0380107],[31.2311972,30.0377811],[31.231503,30.0378296],[31.2314545,30.0380592],[31.2311486,30.0380107]]]}},{"type":"Feature","id":"way/182452909","properties":{"type":"way","id":182452909,"tags":{"building":"yes"},"relations":[],"meta":{}},"geometry":{"type":"Polygon","coordinates":[[[31.2309425,30.0379713],[31.2305371,30.0380644],[31.2304956,30.0379291],[31.2309011,30.0378361],[31.2309425,30.0379713]]]}},{"type":"Feature","id":"way/182452964","properties":{"type":"way","id":182452964,"tags":{"building":"yes"},"relations":[],"meta":{}},"geometry":{"type":"Polygon","coordinates":[[[31.2304482,30.0378301],[31.230422,30.0376912],[31.2308187,30.0376351],[31.230845,30.0377739],[31.2304482,30.0378301]]]}},{"type":"Feature","id":"way/182452980","properties":{"type":"way","id":182452980,"tags":{"building":"yes"},"relations":[],"meta":{}},"geometry":{"type":"Polygon","coordinates":[[[31.2307787,30.0375669],[31.2304006,30.0375637],[31.2304023,30.0374082],[31.2307804,30.0374114],[31.2307787,30.0375669]]]}},{"type":"Feature","id":"way/182453107","properties":{"type":"way","id":182453107,"tags":{"building":"yes"},"relations":[],"meta":{}},"geometry":{"type":"Polygon","coordinates":[[[31.2307711,30.0373276],[31.230428,30.0373074],[31.2304394,30.0371622],[31.2307824,30.0371824],[31.2307711,30.0373276]]]}},{"type":"Feature","id":"way/182453184","properties":{"type":"way","id":182453184,"tags":{"building":"yes"},"relations":[],"meta":{}},"geometry":{"type":"Polygon","coordinates":[[[31.2299056,30.0381032],[31.2297771,30.0378047],[31.2302507,30.0376519],[31.2303792,30.0379504],[31.2299056,30.0381032]]]}},{"type":"Feature","id":"way/182453248","properties":{"type":"way","id":182453248,"tags":{"building":"yes"},"relations":[],"meta":{}},"geometry":{"type":"Polygon","coordinates":[[[31.2298374,30.0375455],[31.2298229,30.0374075],[31.230048,30.0373898],[31.2300625,30.0375278],[31.2298374,30.0375455]]]}},{"type":"Feature","id":"way/182453335","properties":{"type":"way","id":182453335,"tags":{"building":"yes"},"relations":[],"meta":{}},"geometry":{"type":"Polygon","coordinates":[[[31.2303315,30.0372835],[31.2300658,30.0372544],[31.2300833,30.0371348],[31.2303489,30.0371639],[31.2303315,30.0372835]]]}},{"type":"Feature","id":"way/182453462","properties":{"type":"way","id":182453462,"tags":{"building":"yes"},"relations":[],"meta":{}},"geometry":{"type":"Polygon","coordinates":[[[31.2312418,30.0376204],[31.2310027,30.0376733],[31.2309459,30.0374812],[31.231185,30.0374283],[31.2312418,30.0376204]]]}},{"type":"Feature","id":"way/182454646","properties":{"type":"way","id":182454646,"tags":{"building":"yes"},"relations":[],"meta":{}},"geometry":{"type":"Polygon","coordinates":[[[31.2293309,30.0352645],[31.2294382,30.0349859],[31.2297868,30.0350787],[31.2293309,30.0352645]]]}},{"type":"Feature","id":"way/182454810","properties":{"type":"way","id":182454810,"tags":{"building":"yes"},"relations":[],"meta":{}},"geometry":{"type":"Polygon","coordinates":[[[31.227878,30.0351775],[31.2277292,30.0351652],[31.2276937,30.0352081],[31.2275859,30.0351889],[31.2274151,30.0351413],[31.2273398,30.0351051],[31.2273446,30.0350464],[31.2272274,30.0349829],[31.2271495,30.0349259],[31.2270807,30.0348696],[31.2269796,30.034745],[31.2270465,30.0347068],[31.2270457,30.0346777],[31.2270973,30.0346539],[31.2271453,30.0347096],[31.2272173,30.0347716],[31.2273213,30.0348447],[31.22742,30.0349084],[31.2275474,30.0349626],[31.227617,30.0349844],[31.2276252,30.0349651],[31.2276811,30.0349589],[31.2277377,30.0349599],[31.227803,30.0349818],[31.2278544,30.0350132],[31.2278464,30.0350325],[31.2278753,30.0350529],[31.2279975,30.0350455],[31.2281464,30.0350216],[31.2281474,30.0350592],[31.2281295,30.0350888],[31.2281473,30.0351482],[31.2280011,30.0351699],[31.227878,30.0351775]]]}},{"type":"Feature","id":"way/182521554","properties":{"type":"way","id":182521554,"tags":{"building":"yes"},"relations":[],"meta":{}},"geometry":{"type":"Polygon","coordinates":[[[31.2317345,30.0372471],[31.2318245,30.0370898],[31.2320316,30.0371786],[31.2319416,30.0373359],[31.2317345,30.0372471]]]}},{"type":"Feature","id":"way/182521599","properties":{"type":"way","id":182521599,"tags":{"building":"yes"},"relations":[],"meta":{}},"geometry":{"type":"Polygon","coordinates":[[[31.2315707,30.037183],[31.2314724,30.037001],[31.231564,30.0369638],[31.2316624,30.0371458],[31.2315707,30.037183]]]}},{"type":"Feature","id":"way/182521601","properties":{"type":"way","id":182521601,"tags":{"building":"yes"},"relations":[],"meta":{}},"geometry":{"type":"Polygon","coordinates":[[[31.2314409,30.0371854],[31.2312225,30.0372616],[31.2311537,30.037114],[31.2313721,30.0370377],[31.2314409,30.0371854]]]}},{"type":"Feature","id":"way/182521614","properties":{"type":"way","id":182521614,"tags":{"building":"yes"},"relations":[],"meta":{}},"geometry":{"type":"Polygon","coordinates":[[[31.2298605,30.0368403],[31.2299327,30.0366237],[31.2301708,30.0366832],[31.2301182,30.0368412],[31.2300483,30.0368237],[31.2300287,30.0368823],[31.2298605,30.0368403]]]}},{"type":"Feature","id":"way/182521757","properties":{"type":"way","id":182521757,"tags":{"building":"yes"},"relations":[],"meta":{}},"geometry":{"type":"Polygon","coordinates":[[[31.2306938,30.0352203],[31.2306478,30.0350358],[31.2308733,30.0349936],[31.2309193,30.0351782],[31.2306938,30.0352203]]]}},{"type":"Feature","id":"way/182521781","properties":{"type":"way","id":182521781,"tags":{"building":"yes"},"relations":[],"meta":{}},"geometry":{"type":"Polygon","coordinates":[[[31.2323927,30.0358065],[31.2322479,30.0351795],[31.2322935,30.0351633],[31.2324276,30.0352538],[31.2324356,30.0353537],[31.2323798,30.0353859],[31.2324549,30.0356669],[31.2326743,30.035616],[31.2327199,30.0357461],[31.2323927,30.0358065]]]}},{"type":"Feature","id":"way/190722821","properties":{"type":"way","id":190722821,"tags":{"building":"yes"},"relations":[],"meta":{}},"geometry":{"type":"Polygon","coordinates":[[[31.2386665,30.0479685],[31.238343,30.0481621],[31.2382749,30.0480845],[31.2383419,30.0480404],[31.2383634,30.047987],[31.2383419,30.0479754],[31.2383205,30.0480172],[31.238248,30.0480683],[31.2381542,30.0479592],[31.2382143,30.0478974],[31.238122,30.0479359],[31.2381005,30.0478849],[31.2380764,30.0478895],[31.2380469,30.0478431],[31.2381928,30.0477883],[31.2382143,30.0477836],[31.2382373,30.0477966],[31.2382695,30.0478315],[31.2383124,30.047857],[31.2384251,30.0479081],[31.2385163,30.0479151],[31.2385672,30.0479081],[31.2386085,30.0479137],[31.2386354,30.0479299],[31.2386665,30.0479685]]]}},{"type":"Feature","id":"way/198026133","properties":{"type":"way","id":198026133,"tags":{"building":"yes","name:es":"Museo de Agricultura"},"relations":[],"meta":{}},"geometry":{"type":"Polygon","coordinates":[[[31.2095485,30.04765],[31.2095831,30.0475629],[31.2095348,30.0475486],[31.2096098,30.0473598],[31.2096576,30.0473741],[31.2096903,30.0472917],[31.2098293,30.047333],[31.2098187,30.0473596],[31.2102047,30.0474744],[31.2102112,30.0474579],[31.2103429,30.047497],[31.2103094,30.0475813],[31.210345,30.0475919],[31.2102711,30.047778],[31.2102484,30.0477712],[31.210217,30.0478503],[31.2100938,30.0478136],[31.2101014,30.0477944],[31.2097024,30.0476756],[31.2096953,30.0476937],[31.2095485,30.04765]]]}},{"type":"Feature","id":"way/198026134","properties":{"type":"way","id":198026134,"tags":{"building":"yes"},"relations":[],"meta":{}},"geometry":{"type":"Polygon","coordinates":[[[31.2098898,30.0464196],[31.2099886,30.0461926],[31.2100334,30.0462073],[31.2100425,30.0461864],[31.2102612,30.0462577],[31.2102521,30.0462786],[31.2103493,30.0463103],[31.2103597,30.0462864],[31.2105565,30.0463505],[31.2105434,30.0463808],[31.210642,30.046413],[31.210656,30.0463809],[31.210888,30.0464565],[31.2108771,30.0464816],[31.2109658,30.0465105],[31.2108665,30.0467386],[31.2107947,30.0467152],[31.2107847,30.0467381],[31.2105478,30.0466608],[31.2105583,30.0466366],[31.2104503,30.0466014],[31.2104426,30.046619],[31.210263,30.0465605],[31.2102713,30.0465416],[31.2101531,30.0465031],[31.2101425,30.0465273],[31.2099316,30.0464585],[31.2099412,30.0464364],[31.2098898,30.0464196]]]}},{"type":"Feature","id":"way/198026135","properties":{"type":"way","id":198026135,"tags":{"building":"yes"},"relations":[],"meta":{}},"geometry":{"type":"Polygon","coordinates":[[[31.2074848,30.0472227],[31.2071654,30.0471303],[31.2074537,30.0463837],[31.2077732,30.0464761],[31.2074848,30.0472227]]]}},{"type":"Feature","id":"way/198026136","properties":{"type":"way","id":198026136,"tags":{"building":"yes"},"relations":[],"meta":{}},"geometry":{"type":"Polygon","coordinates":[[[31.211376,30.0463357],[31.2112666,30.0463012],[31.2112575,30.0463229],[31.211139,30.0462854],[31.2111499,30.0462596],[31.2110474,30.0462271],[31.2111586,30.0459633],[31.211489,30.0460676],[31.211376,30.0463357]]]}},{"type":"Feature","id":"way/198026137","properties":{"type":"way","id":198026137,"tags":{"building":"yes"},"relations":[],"meta":{}},"geometry":{"type":"Polygon","coordinates":[[[31.2106853,30.0461126],[31.210378,30.0460159],[31.210388,30.0459921],[31.2102564,30.0459506],[31.2102475,30.0459716],[31.2101531,30.0459419],[31.2102677,30.0456691],[31.2108011,30.045837],[31.2106853,30.0461126]]]}},{"type":"Feature","id":"way/198026138","properties":{"type":"way","id":198026138,"tags":{"building":"yes"},"relations":[],"meta":{}},"geometry":{"type":"Polygon","coordinates":[[[31.2089266,30.0469178],[31.208811,30.0468815],[31.2089103,30.046645],[31.2087591,30.0465975],[31.208812,30.0464715],[31.2089556,30.0465166],[31.2090549,30.0462798],[31.209178,30.0463184],[31.2089266,30.0469178]]]}},{"type":"Feature","id":"way/198026139","properties":{"type":"way","id":198026139,"tags":{"building":"yes"},"relations":[],"meta":{}},"geometry":{"type":"Polygon","coordinates":[[[31.2092608,30.0461787],[31.2091476,30.0461419],[31.2091243,30.0461957],[31.2089298,30.0461326],[31.2089546,30.0460754],[31.2088396,30.046038],[31.2090702,30.0455058],[31.2094928,30.045643],[31.2092608,30.0461787]]]}},{"type":"Feature","id":"way/198026140","properties":{"type":"way","id":198026140,"tags":{"building":"yes"},"relations":[],"meta":{}},"geometry":{"type":"Polygon","coordinates":[[[31.2082042,30.0478421],[31.2082781,30.0476379],[31.2088049,30.0477807],[31.2087168,30.048024],[31.2085545,30.04798],[31.2085418,30.0480152],[31.2082723,30.0479421],[31.2082992,30.0478678],[31.2082042,30.0478421]]]}},{"type":"Feature","id":"way/200958407","properties":{"type":"way","id":200958407,"tags":{"building":"yes"},"relations":[],"meta":{}},"geometry":{"type":"Polygon","coordinates":[[[31.2034554,30.0399941],[31.2033855,30.0399791],[31.2034266,30.0398028],[31.2036634,30.039854],[31.2037278,30.0399329],[31.2036735,30.0400978],[31.2034409,30.040058],[31.2034554,30.0399941]]]}},{"type":"Feature","id":"way/200958410","properties":{"type":"way","id":200958410,"tags":{"building":"yes"},"relations":[],"meta":{}},"geometry":{"type":"Polygon","coordinates":[[[31.2020554,30.0399729],[31.2016413,30.0398911],[31.201709,30.0396319],[31.2021157,30.039722],[31.2020554,30.0399729]]]}},{"type":"Feature","id":"way/200958411","properties":{"type":"way","id":200958411,"tags":{"addr:housenumber":"21","addr:postcode":"12311","addr:street":"شارع بابل","building":"yes"},"relations":[],"meta":{}},"geometry":{"type":"Polygon","coordinates":[[[31.2031147,30.0401503],[31.2031468,30.0400128],[31.2033325,30.0400535],[31.2033283,30.040075],[31.2033626,30.0400822],[31.2033476,30.0401426],[31.2033141,30.0401349],[31.2033018,30.0401904],[31.2031147,30.0401503]]]}},{"type":"Feature","id":"way/200958412","properties":{"type":"way","id":200958412,"tags":{"building":"yes"},"relations":[],"meta":{}},"geometry":{"type":"Polygon","coordinates":[[[31.2020086,30.039654],[31.2019523,30.039647],[31.2019469,30.0396725],[31.2017967,30.0396436],[31.2018397,30.0394961],[31.2019629,30.039522],[31.201955,30.0395425],[31.2020385,30.0395614],[31.2020086,30.039654]]]}},{"type":"Feature","id":"way/200958413","properties":{"type":"way","id":200958413,"tags":{"building":"yes"},"relations":[],"meta":{}},"geometry":{"type":"Polygon","coordinates":[[[31.2029356,30.0402736],[31.202824,30.040253],[31.2028159,30.0402696],[31.2027516,30.0402553],[31.2027865,30.0401276],[31.2029623,30.0401613],[31.2029631,30.040163],[31.2029377,30.0402722],[31.2029356,30.0402736]]]}},{"type":"Feature","id":"way/200958414","properties":{"type":"way","id":200958414,"tags":{"addr:housenumber":"19","addr:postcode":"12311","addr:street":"شارع بابل","building":"yes"},"relations":[],"meta":{}},"geometry":{"type":"Polygon","coordinates":[[[31.2031584,30.0399625],[31.2031865,30.0398407],[31.2032697,30.0398577],[31.2032597,30.0399007],[31.2033624,30.0399235],[31.2033444,30.0400023],[31.2032412,30.0399803],[31.2032368,30.0399994],[31.2031982,30.0399914],[31.2032026,30.039972],[31.2031584,30.0399625]]]}},{"type":"Feature","id":"way/200958415","properties":{"type":"way","id":200958415,"tags":{"building":"yes"},"relations":[],"meta":{}},"geometry":{"type":"Polygon","coordinates":[[[31.2019838,30.0402733],[31.2019218,30.0403036],[31.2015917,30.0402532],[31.2015597,30.0402014],[31.2015968,30.0400683],[31.201904,30.0401208],[31.2020175,30.0401401],[31.2019838,30.0402733]]]}},{"type":"Feature","id":"way/200958416","properties":{"type":"way","id":200958416,"tags":{"building":"yes"},"relations":[],"meta":{}},"geometry":{"type":"Polygon","coordinates":[[[31.202743,30.0398408],[31.2024578,30.0397803],[31.2024998,30.0396088],[31.2027874,30.0396685],[31.202743,30.0398408]]]}},{"type":"Feature","id":"way/200958417","properties":{"type":"way","id":200958417,"tags":{"building":"yes"},"relations":[],"meta":{}},"geometry":{"type":"Polygon","coordinates":[[[31.2028643,30.0405659],[31.2028965,30.0405752],[31.2028616,30.0406913],[31.2028577,30.0406906],[31.2026551,30.0406518],[31.2026899,30.0405288],[31.2028643,30.0405659]]]}},{"type":"Feature","id":"way/200958418","properties":{"type":"way","id":200958418,"tags":{"building":"yes"},"relations":[],"meta":{}},"geometry":{"type":"Polygon","coordinates":[[[31.202689,30.0400297],[31.2023976,30.0399779],[31.2024578,30.0397803],[31.202743,30.0398408],[31.202689,30.0400297]]]}},{"type":"Feature","id":"way/200958419","properties":{"type":"way","id":200958419,"tags":{"building":"yes"},"relations":[],"meta":{}},"geometry":{"type":"Polygon","coordinates":[[[31.2020175,30.0401401],[31.201904,30.0401208],[31.2015968,30.0400683],[31.2016413,30.0398911],[31.2020554,30.0399729],[31.2020175,30.0401401]]]}},{"type":"Feature","id":"way/200958420","properties":{"type":"way","id":200958420,"tags":{"building":"yes"},"relations":[],"meta":{}},"geometry":{"type":"Polygon","coordinates":[[[31.202986,30.0400648],[31.2029869,30.0400678],[31.2028802,30.0400444],[31.2028722,30.040063],[31.2027752,30.0400488],[31.2027964,30.0399469],[31.2028936,30.0399655],[31.2029014,30.0399352],[31.2030125,30.039951],[31.202986,30.0400648]]]}},{"type":"Feature","id":"way/200958421","properties":{"type":"way","id":200958421,"tags":{"building":"yes"},"relations":[],"meta":{}},"geometry":{"type":"Polygon","coordinates":[[[31.202689,30.0400297],[31.2026457,30.0402067],[31.2023546,30.0401509],[31.2023976,30.0399779],[31.202689,30.0400297]]]}},{"type":"Feature","id":"way/200958422","properties":{"type":"way","id":200958422,"tags":{"building":"yes"},"relations":[],"meta":{}},"geometry":{"type":"Polygon","coordinates":[[[31.2030239,30.0399018],[31.2029211,30.0398798],[31.2029175,30.0398952],[31.2028198,30.0398753],[31.2028525,30.0397365],[31.2028854,30.0397435],[31.2028781,30.0397748],[31.2029424,30.0397881],[31.2029495,30.0397576],[31.2030523,30.0397797],[31.2030239,30.0399018]]]}},{"type":"Feature","id":"way/200958424","properties":{"type":"way","id":200958424,"tags":{"building":"yes"},"relations":[],"meta":{}},"geometry":{"type":"Polygon","coordinates":[[[31.2028763,30.0405372],[31.2027732,30.040515],[31.2027811,30.0404814],[31.2026838,30.0404608],[31.2027091,30.0403555],[31.2028056,30.0403761],[31.2028155,30.0403334],[31.2029183,30.0403554],[31.2028763,30.0405372]]]}},{"type":"Feature","id":"way/200983553","properties":{"type":"way","id":200983553,"tags":{"building":"yes"},"relations":[],"meta":{}},"geometry":{"type":"Polygon","coordinates":[[[31.2054117,30.0434904],[31.2054257,30.0434944],[31.2054546,30.0434834],[31.2054841,30.0434927],[31.2054976,30.0435182],[31.2054847,30.0435455],[31.2054922,30.0435693],[31.205519,30.04356],[31.205541,30.0436035],[31.205519,30.0436204],[31.205533,30.0436361],[31.2052406,30.0437521],[31.205246,30.0437847],[31.2054439,30.0438085],[31.2054707,30.0438085],[31.2055008,30.0438264],[31.2055056,30.0438619],[31.2054793,30.0438822],[31.2054739,30.0439031],[31.2054922,30.0439083],[31.2054788,30.0439896],[31.2047283,30.0439124],[31.2046795,30.0439338],[31.2046366,30.0439315],[31.2046017,30.0439106],[31.2045861,30.0438729],[31.2045883,30.0438386],[31.2046151,30.0438108],[31.2046559,30.0437893],[31.2047015,30.0437986],[31.2054117,30.0434904]]]}},{"type":"Feature","id":"way/200985663","properties":{"type":"way","id":200985663,"tags":{"amenity":"public_building","building":"yes"},"relations":[],"meta":{}},"geometry":{"type":"Polygon","coordinates":[[[31.2072336,30.0433319],[31.206732,30.0432831],[31.2067213,30.0432971],[31.2065634,30.0432785],[31.2065309,30.0432645],[31.206555,30.0431276],[31.2065925,30.0431206],[31.2066355,30.0428071],[31.2068044,30.0428327],[31.2067512,30.0431461],[31.2072524,30.0432065],[31.2072336,30.0433319]]]}},{"type":"Feature","id":"way/200985664","properties":{"type":"way","id":200985664,"tags":{"amenity":"public_building","building":"yes"},"relations":[],"meta":{}},"geometry":{"type":"Polygon","coordinates":[[[31.2091217,30.0430414],[31.2090686,30.0433574],[31.2091223,30.0433714],[31.2090954,30.0435246],[31.2090466,30.0435244],[31.2089989,30.0435385],[31.2089018,30.043529],[31.2088696,30.0435058],[31.2083707,30.0434501],[31.2083868,30.04332],[31.2089077,30.043376],[31.2089238,30.0432645],[31.2088755,30.0432506],[31.2088916,30.0431577],[31.208934,30.0431575],[31.2089447,30.0430321],[31.2091217,30.0430414]]]}},{"type":"Feature","id":"way/200985665","properties":{"type":"way","id":200985665,"tags":{"amenity":"public_building","building":"yes"},"relations":[],"meta":{}},"geometry":{"type":"Polygon","coordinates":[[[31.2082814,30.0434436],[31.2078899,30.043402],[31.2078827,30.0434248],[31.2077114,30.0434062],[31.2077083,30.0433853],[31.207335,30.043344],[31.2073562,30.0432116],[31.2073814,30.0432055],[31.2074101,30.0430072],[31.2075998,30.0430195],[31.207569,30.0432238],[31.2077325,30.0432483],[31.2077403,30.043216],[31.2079201,30.0432318],[31.2079201,30.0432597],[31.2080762,30.0432738],[31.2081132,30.0430879],[31.2082849,30.0431018],[31.2082527,30.0432968],[31.208301,30.0433061],[31.2082814,30.0434436]]]}},{"type":"Feature","id":"way/201188348","properties":{"type":"way","id":201188348,"tags":{"amenity":"public_building","building":"yes"},"relations":[],"meta":{}},"geometry":{"type":"Polygon","coordinates":[[[31.2196072,30.0354471],[31.219673,30.0356406],[31.2194617,30.0356945],[31.2194401,30.0356326],[31.2194615,30.0356264],[31.2194402,30.0355621],[31.2194187,30.0355683],[31.2193967,30.0355014],[31.2196072,30.0354471]]]}},{"type":"Feature","id":"way/211623273","properties":{"type":"way","id":211623273,"tags":{"access":"yes","building":"yes","entrance":"main","name":"Park Entrance","name:en":"Park Entrance"},"relations":[],"meta":{}},"geometry":{"type":"Polygon","coordinates":[[[31.2652003,30.0400507],[31.2651531,30.0399639],[31.2652359,30.0399301],[31.2652832,30.0400169],[31.2652608,30.0400268],[31.2653233,30.0401456],[31.265362,30.0402191],[31.2653849,30.0402097],[31.2654322,30.0402965],[31.2653493,30.0403303],[31.2653021,30.0402435],[31.2653138,30.0402387],[31.2653018,30.0402435],[31.265262,30.0401679],[31.2652003,30.0400507]]]}},{"type":"Feature","id":"way/211631752","properties":{"type":"way","id":211631752,"tags":{"building":"yes","name":"El Masrawiya Tent","name:en":"El Masrawiya Tent"},"relations":[],"meta":{}},"geometry":{"type":"Polygon","coordinates":[[[31.2637949,30.0387762],[31.2637511,30.0388805],[31.2636307,30.0388426],[31.2636745,30.0387383],[31.2637949,30.0387762]]]}},{"type":"Feature","id":"way/211631753","properties":{"type":"way","id":211631753,"tags":{"building":"yes","direction":"0-360","tourism":"viewpoint"},"relations":[],"meta":{}},"geometry":{"type":"Polygon","coordinates":[[[31.2667525,30.0428706],[31.2668209,30.0428781],[31.2668632,30.0429252],[31.2668546,30.0429845],[31.2668001,30.0430211],[31.2667317,30.0430136],[31.2666894,30.0429665],[31.266698,30.0429072],[31.2667525,30.0428706]]]}},{"type":"Feature","id":"way/211631757","properties":{"type":"way","id":211631757,"tags":{"amenity":"restaurant","building":"yes","name":"البحيرة","name:ar":"البحيرة","name:en":"Lakeside Restaurant"},"relations":[],"meta":{}},"geometry":{"type":"Polygon","coordinates":[[[31.2627594,30.0384415],[31.262895,30.0381366],[31.2632249,30.0382466],[31.2630893,30.0385515],[31.2627594,30.0384415]]]}},{"type":"Feature","id":"way/213181155","properties":{"type":"way","id":213181155,"tags":{"barrier":"entrance","building":"yes"},"relations":[],"meta":{}},"geometry":{"type":"Polygon","coordinates":[[[31.2221194,30.0409801],[31.2220928,30.0409581],[31.2220761,30.0409294],[31.2220722,30.0408889],[31.2220831,30.0408586],[31.2221092,30.0408299],[31.2221336,30.0408161],[31.2221753,30.040807],[31.2222133,30.0408112],[31.2222451,30.0408251],[31.2222675,30.0408441],[31.2222846,30.0408723],[31.2222899,30.0409051],[31.2222785,30.0409438],[31.2222567,30.0409696],[31.2222298,30.0409862],[31.2221922,30.0409958],[31.2221511,30.0409928],[31.2221194,30.0409801]]]}},{"type":"Feature","id":"way/213181158","properties":{"type":"way","id":213181158,"tags":{"building":"yes"},"relations":[],"meta":{}},"geometry":{"type":"Polygon","coordinates":[[[31.2253182,30.0436835],[31.2253356,30.0436736],[31.2253507,30.0436687],[31.2253728,30.0436666],[31.2253964,30.0436704],[31.225418,30.0436804],[31.2254334,30.0436937],[31.2254389,30.0437025],[31.225445,30.0437123],[31.2254493,30.0437406],[31.2254422,30.0437641],[31.2254282,30.0437821],[31.2254086,30.0437953],[31.2253819,30.0438031],[31.2253613,30.0438034],[31.2253437,30.0437998],[31.2253273,30.0438166],[31.225299,30.0438314],[31.2252703,30.0438371],[31.2252327,30.0438331],[31.2252147,30.0438262],[31.2251951,30.0438135],[31.2251768,30.0437925],[31.2251657,30.0437607],[31.2251686,30.0437303],[31.2251767,30.0437127],[31.2251976,30.0436895],[31.2252258,30.0436741],[31.2252578,30.0436678],[31.2252963,30.0436727],[31.2253182,30.0436835]]]}},{"type":"Feature","id":"way/213181160","properties":{"type":"way","id":213181160,"tags":{"building":"yes","name":"Palace of Arts","name:en":"Palace of Arts"},"relations":[],"meta":{}},"geometry":{"type":"Polygon","coordinates":[[[31.2261052,30.0434028],[31.2260169,30.0436431],[31.2257882,30.0437047],[31.225739,30.0437044],[31.2256995,30.0436922],[31.2256705,30.0436738],[31.2256435,30.0436437],[31.2256358,30.0435968],[31.2256126,30.0435968],[31.2256184,30.0434095],[31.2256901,30.043363],[31.2257616,30.0433166],[31.2261052,30.0434028]]]}},{"type":"Feature","id":"way/213181178","properties":{"type":"way","id":213181178,"tags":{"building":"yes","fixme":"I was there and made a photo from the entrance so this building is correct - is the other building to the left and down also the Museum of Modern Art?","name":"متحف الفن الحديث","name:en":"Museum of Egyptian Modern Arts","tourism":"museum"},"relations":[],"meta":{}},"geometry":{"type":"Polygon","coordinates":[[[31.2243975,30.0435143],[31.2247528,30.0435259],[31.2250505,30.0435356],[31.2250368,30.0438509],[31.2243838,30.0438296],[31.2243975,30.0435143]]]}},{"type":"Feature","id":"way/226373690","properties":{"type":"way","id":226373690,"tags":{"addr:city":"cairo","addr:street":"شارع عدلي","building":"yes","building:levels":"3"},"relations":[],"meta":{}},"geometry":{"type":"Polygon","coordinates":[[[31.2425636,30.0515363],[31.2425528,30.0512926],[31.2430893,30.0512786],[31.2431027,30.0515131],[31.2425636,30.0515363]]]}},{"type":"Feature","id":"way/227108550","properties":{"type":"way","id":227108550,"tags":{"amenity":"police","building":"yes","name":"نقطة شرطة الزمالك","name:ar":"نقطة شرطة الزمالك","name:en":"Zamalek Police station","office":"government"},"relations":[],"meta":{}},"geometry":{"type":"Polygon","coordinates":[[[31.2196921,30.0555239],[31.2196149,30.0553712],[31.2198079,30.0554738],[31.2196921,30.0555239]]]}},{"type":"Feature","id":"way/227349386","properties":{"type":"way","id":227349386,"tags":{"addr:housenumber":"10","addr:postcode":"11511","addr:street":"Abd El-Khalik Tharwat","building":"yes","int_name":"Embassy of Switzerland","source":"http://www.eda.admin.ch/eda/en/home/reps/afri/vegy/embkai.html"},"relations":[],"meta":{}},"geometry":{"type":"Polygon","coordinates":[[[31.2397355,30.051461],[31.239643,30.0513438],[31.2398822,30.0512023],[31.2399747,30.0513196],[31.2397355,30.051461]]]}},{"type":"Feature","id":"way/228873217","properties":{"type":"way","id":228873217,"tags":{"building":"apartments"},"relations":[],"meta":{}},"geometry":{"type":"Polygon","coordinates":[[[31.2160845,30.0498566],[31.2161284,30.049651],[31.2163832,30.0496917],[31.2163394,30.0498973],[31.2160845,30.0498566]]]}},{"type":"Feature","id":"way/228873218","properties":{"type":"way","id":228873218,"tags":{"building":"apartments"},"relations":[],"meta":{}},"geometry":{"type":"Polygon","coordinates":[[[31.2159359,30.0504085],[31.215976,30.0502249],[31.2161981,30.0502613],[31.2161581,30.0504448],[31.2159359,30.0504085]]]}},{"type":"Feature","id":"way/228873219","properties":{"type":"way","id":228873219,"tags":{"building":"apartments"},"relations":[],"meta":{}},"geometry":{"type":"Polygon","coordinates":[[[31.2159545,30.0500558],[31.2159157,30.0501566],[31.2156613,30.0501068],[31.2157155,30.0499799],[31.2157808,30.0499386],[31.2159816,30.049962],[31.2159545,30.0500558]]]}},{"type":"Feature","id":"way/228873220","properties":{"type":"way","id":228873220,"tags":{"building":"apartments"},"relations":[],"meta":{}},"geometry":{"type":"Polygon","coordinates":[[[31.2162686,30.0491949],[31.2163245,30.0492079],[31.2163318,30.0491843],[31.2164841,30.0492198],[31.2164302,30.0493933],[31.216222,30.0493449],[31.2162686,30.0491949]]]}},{"type":"Feature","id":"way/228873221","properties":{"type":"way","id":228873221,"tags":{"building":"apartments"},"relations":[],"meta":{}},"geometry":{"type":"Polygon","coordinates":[[[31.2160305,30.050147],[31.2160623,30.0499911],[31.2162249,30.0500132],[31.2162647,30.0500766],[31.2162329,30.0501911],[31.2161994,30.0501883],[31.2161962,30.050209],[31.2160687,30.0501952],[31.2160815,30.0501511],[31.2160305,30.050147]]]}},{"type":"Feature","id":"way/228873776","properties":{"type":"way","id":228873776,"tags":{"building":"apartments"},"relations":[],"meta":{}},"geometry":{"type":"Polygon","coordinates":[[[31.2149697,30.0485556],[31.215007,30.048381],[31.2151839,30.0484092],[31.2151467,30.0485838],[31.2149697,30.0485556]]]}},{"type":"Feature","id":"way/228873777","properties":{"type":"way","id":228873777,"tags":{"building":"apartments"},"relations":[],"meta":{}},"geometry":{"type":"Polygon","coordinates":[[[31.2151747,30.0485974],[31.2151861,30.0485353],[31.2152128,30.0483904],[31.2153741,30.0484126],[31.2154074,30.0484172],[31.2153694,30.0486242],[31.2152069,30.0486018],[31.2151747,30.0485974]]]}},{"type":"Feature","id":"way/238734157","properties":{"type":"way","id":238734157,"tags":{"amenity":"post_office","building":"yes","name":"مكتب بريد مجلس الشعب","name:ar":"مكتب بريد مجلس الشعب","name:en":"Parliament Post Office"},"relations":[],"meta":{}},"geometry":{"type":"Polygon","coordinates":[[[31.2374943,30.0398443],[31.2374488,30.0396841],[31.2378001,30.0396144],[31.2378404,30.0397561],[31.2378269,30.0397839],[31.2374943,30.0398443]]]}},{"type":"Feature","id":"way/252138868","properties":{"type":"way","id":252138868,"tags":{"building":"yes"},"relations":[],"meta":{}},"geometry":{"type":"Polygon","coordinates":[[[31.2327308,30.0507933],[31.2329244,30.0505461],[31.2332346,30.0507282],[31.233041,30.0509753],[31.2327308,30.0507933]]]}},{"type":"Feature","id":"way/253152105","properties":{"type":"way","id":253152105,"tags":{"building":"commercial","name":"AIG"},"relations":[],"meta":{}},"geometry":{"type":"Polygon","coordinates":[[[31.2085726,30.0534365],[31.2086336,30.0534999],[31.2085198,30.0535808],[31.2083653,30.0536653],[31.2083043,30.0536195],[31.208223,30.0535632],[31.2081458,30.053623],[31.2078408,30.053338],[31.2082433,30.053067],[31.2085726,30.0534365]]]}},{"type":"Feature","id":"way/256639645","properties":{"type":"way","id":256639645,"tags":{"addr:housename":"15","addr:street":"شارع كمال الشناوي","building":"apartments","building:levels":"3"},"relations":[],"meta":{}},"geometry":{"type":"Polygon","coordinates":[[[31.2326794,30.0386975],[31.233012,30.0383446],[31.2333338,30.0386812],[31.2332802,30.0387509],[31.2330951,30.0387602],[31.2330737,30.038672],[31.2329717,30.0386789],[31.232953,30.0387555],[31.2327223,30.0387463],[31.2326794,30.0386975]]]}},{"type":"Feature","id":"way/256639646","properties":{"type":"way","id":256639646,"tags":{"building":"yes"},"relations":[],"meta":{}},"geometry":{"type":"Polygon","coordinates":[[[31.2333741,30.0393569],[31.2332346,30.0389158],[31.2333902,30.0388879],[31.2334224,30.0389297],[31.2336128,30.0388995],[31.2336262,30.039336],[31.2333741,30.0393569]]]}},{"type":"Feature","id":"way/256639647","properties":{"type":"way","id":256639647,"tags":{"building":"yes"},"relations":[],"meta":{}},"geometry":{"type":"Polygon","coordinates":[[[31.2330094,30.0391756],[31.2329315,30.038932],[31.2331783,30.0388786],[31.2332507,30.0391178],[31.2330094,30.0391756]]]}},{"type":"Feature","id":"way/256639648","properties":{"type":"way","id":256639648,"tags":{"building":"yes","name:ar":"السفارة البلجيكية"},"relations":[],"meta":{}},"geometry":{"type":"Polygon","coordinates":[[[31.2325345,30.0393267],[31.2324273,30.0389576],[31.2325614,30.0389227],[31.2326016,30.0390853],[31.2326874,30.0391224],[31.2328993,30.0390667],[31.2329342,30.0392037],[31.2325345,30.0393267]]]}},{"type":"Feature","id":"way/256639649","properties":{"type":"way","id":256639649,"tags":{"building":"yes"},"relations":[],"meta":{}},"geometry":{"type":"Polygon","coordinates":[[[31.2336825,30.0393314],[31.2336503,30.0389831],[31.2341251,30.0392106],[31.2336825,30.0393314]]]}},{"type":"Feature","id":"way/256639650","properties":{"type":"way","id":256639650,"tags":{"building":"yes"},"relations":[],"meta":{}},"geometry":{"type":"Polygon","coordinates":[[[31.2329315,30.039949],[31.2328618,30.0397006],[31.2330281,30.0396634],[31.2330924,30.0399165],[31.2329315,30.039949]]]}},{"type":"Feature","id":"way/256639651","properties":{"type":"way","id":256639651,"tags":{"building":"yes"},"relations":[],"meta":{}},"geometry":{"type":"Polygon","coordinates":[[[31.233991,30.0393639],[31.234042,30.0395496],[31.2338757,30.0395938],[31.2338032,30.0394034],[31.233991,30.0393639]]]}},{"type":"Feature","id":"way/256639652","properties":{"type":"way","id":256639652,"tags":{"building":"yes"},"relations":[],"meta":{}},"geometry":{"type":"Polygon","coordinates":[[[31.2343289,30.0392455],[31.2346454,30.0391596],[31.2346803,30.0393105],[31.2347903,30.0393221],[31.2348734,30.0393105],[31.2349673,30.0396379],[31.2346401,30.0396797],[31.2345221,30.0395961],[31.2344014,30.0395055],[31.2343289,30.0392455]]]}},{"type":"Feature","id":"way/271088259","properties":{"type":"way","id":271088259,"tags":{"amenity":"place_of_worship","building":"yes","religion":"muslim"},"relations":[],"meta":{}},"geometry":{"type":"Polygon","coordinates":[[[31.199606,30.059552],[31.1995958,30.0597068],[31.1995267,30.0598405],[31.1994332,30.0599267],[31.1992726,30.0598774],[31.1992767,30.0597297],[31.1993417,30.0595871],[31.1994474,30.0595062],[31.199606,30.059552]]]}},{"type":"Feature","id":"way/283273110","properties":{"type":"way","id":283273110,"tags":{"building":"yes"},"relations":[],"meta":{}},"geometry":{"type":"Polygon","coordinates":[[[31.2272818,30.0485583],[31.2271933,30.0484734],[31.2272901,30.0483979],[31.2272655,30.0483744],[31.2272883,30.0483566],[31.2272768,30.0483455],[31.2273509,30.0482877],[31.2273622,30.0482986],[31.2273821,30.0482831],[31.2274953,30.0483918],[31.2272818,30.0485583]]]}},{"type":"Feature","id":"way/297038967","properties":{"type":"way","id":297038967,"tags":{"building":"apartments"},"relations":[],"meta":{}},"geometry":{"type":"Polygon","coordinates":[[[31.2024069,30.0412624],[31.2024887,30.0412171],[31.2025705,30.0411533],[31.2027476,30.0412914],[31.2026738,30.0413611],[31.2025665,30.0412763],[31.2024458,30.0413437],[31.2024069,30.0412624]]]}},{"type":"Feature","id":"way/297038972","properties":{"type":"way","id":297038972,"tags":{"building":"commercial"},"relations":[],"meta":{}},"geometry":{"type":"Polygon","coordinates":[[[31.2035531,30.0392897],[31.2035895,30.0390912],[31.2037423,30.0391227],[31.2037059,30.0393149],[31.2035531,30.0392897]]]}},{"type":"Feature","id":"way/297038974","properties":{"type":"way","id":297038974,"tags":{"building":"yes","name":"Indonesian Cultural Centre"},"relations":[],"meta":{}},"geometry":{"type":"Polygon","coordinates":[[[31.2033748,30.0392393],[31.2033966,30.0391448],[31.2035021,30.0391668],[31.2034767,30.0392582],[31.2033748,30.0392393]]]}},{"type":"Feature","id":"way/297038976","properties":{"type":"way","id":297038976,"tags":{"addr:housenumber":"17","addr:postcode":"12311","addr:street":"شارع بابل","building":"apartments"},"relations":[],"meta":{}},"geometry":{"type":"Polygon","coordinates":[[[31.2031965,30.0396393],[31.2032329,30.0394787],[31.2034184,30.0395196],[31.2033639,30.0397055],[31.2032256,30.0396771],[31.2031965,30.0396393]]]}},{"type":"Feature","id":"way/297040371","properties":{"type":"way","id":297040371,"tags":{"building":"office"},"relations":[],"meta":{}},"geometry":{"type":"Polygon","coordinates":[[[31.2091622,30.0410565],[31.2092212,30.0408568],[31.2092963,30.0408568],[31.2096319,30.0409241],[31.2095568,30.0411493],[31.2092453,30.0410913],[31.2091622,30.0410565]]]}},{"type":"Feature","id":"way/297040372","properties":{"type":"way","id":297040372,"tags":{"building":"apartments"},"relations":[],"meta":{}},"geometry":{"type":"Polygon","coordinates":[[[31.2093577,30.0405272],[31.2095055,30.0405689],[31.2094836,30.040613],[31.2095296,30.0406223],[31.2095319,30.0405758],[31.209717,30.0405898],[31.2097093,30.0407128],[31.2095886,30.0407105],[31.2095775,30.0407337],[31.2097009,30.0407616],[31.209666,30.0408684],[31.2094706,30.040815],[31.2094836,30.0407825],[31.2094491,30.0407755],[31.209438,30.0408103],[31.2092547,30.0407785],[31.209278,30.0406761],[31.2094112,30.0406919],[31.209425,30.040671],[31.2093011,30.040627],[31.2093577,30.0405272]]]}},{"type":"Feature","id":"way/297040373","properties":{"type":"way","id":297040373,"tags":{"building":"apartments"},"relations":[],"meta":{}},"geometry":{"type":"Polygon","coordinates":[[[31.2091473,30.0412267],[31.2091993,30.0411273],[31.2093472,30.0411772],[31.209328,30.041219],[31.209374,30.0412306],[31.2093844,30.0411888],[31.2095507,30.041212],[31.2095457,30.0413374],[31.20943,30.0413258],[31.2094196,30.0413467],[31.2095265,30.0413839],[31.209476,30.0414814],[31.209315,30.041421],[31.2093254,30.0413839],[31.2092985,30.0413769],[31.2092909,30.0414164],[31.2091242,30.0413885],[31.2091376,30.0412817],[31.2092503,30.041291],[31.2092556,30.0412724],[31.2091473,30.0412267]]]}},{"type":"Feature","id":"way/314801089","properties":{"type":"way","id":314801089,"tags":{"addr:housenumber":"34","addr:street":"شارع محمد خلف","building":"apartments"},"relations":[],"meta":{}},"geometry":{"type":"Polygon","coordinates":[[[31.2139089,30.0423461],[31.2139124,30.0422175],[31.2140756,30.0422194],[31.2140773,30.0423465],[31.2139089,30.0423461]]]}},{"type":"Feature","id":"way/314801090","properties":{"type":"way","id":314801090,"tags":{"addr:city":"Giza","addr:housenumber":"32","addr:street":"شارع محمد خلف","building":"apartments"},"relations":[],"meta":{}},"geometry":{"type":"Polygon","coordinates":[[[31.2139124,30.0422175],[31.2139195,30.0420759],[31.214073,30.0420743],[31.2140756,30.0422194],[31.2139124,30.0422175]]]}},{"type":"Feature","id":"way/314801091","properties":{"type":"way","id":314801091,"tags":{"addr:city":"Giza","addr:housenumber":"30","addr:street":"شارع محمد خلف","building":"apartments"},"relations":[],"meta":{}},"geometry":{"type":"Polygon","coordinates":[[[31.2139195,30.0420759],[31.2139124,30.0419484],[31.2140717,30.0419488],[31.214073,30.0420743],[31.2139195,30.0420759]]]}},{"type":"Feature","id":"way/314801092","properties":{"type":"way","id":314801092,"tags":{"addr:city":"Giza","addr:housenumber":"28","addr:street":"شارع محمد خلف","building":"apartments"},"relations":[],"meta":{}},"geometry":{"type":"Polygon","coordinates":[[[31.2139124,30.0419484],[31.213906,30.0418476],[31.2140703,30.0418417],[31.2140717,30.0419488],[31.2139124,30.0419484]]]}},{"type":"Feature","id":"way/314801093","properties":{"type":"way","id":314801093,"tags":{"addr:city":"Giza","addr:housenumber":"26","addr:street":"شارع محمد خلف","building":"apartments"},"relations":[],"meta":{}},"geometry":{"type":"Polygon","coordinates":[[[31.213906,30.0418476],[31.2138906,30.041711],[31.2140677,30.041707],[31.2140703,30.0418417],[31.213906,30.0418476]]]}},{"type":"Feature","id":"way/314801094","properties":{"type":"way","id":314801094,"tags":{"addr:city":"Giza","addr:housenumber":"24","addr:street":"شارع محمد خلف","building":"apartments"},"relations":[],"meta":{}},"geometry":{"type":"Polygon","coordinates":[[[31.2138906,30.041711],[31.2138633,30.0415672],[31.214046,30.0415555],[31.2140677,30.041707],[31.2138906,30.041711]]]}},{"type":"Feature","id":"way/315870557","properties":{"type":"way","id":315870557,"tags":{"amenity":"theatre","building":"yes","name":"Rawabet Townhouse Theater"},"relations":[],"meta":{}},"geometry":{"type":"Polygon","coordinates":[[[31.2381954,30.0494793],[31.2379406,30.0496442],[31.2377528,30.0494654],[31.2380639,30.0492936],[31.2381954,30.0494793]]]}},{"type":"Feature","id":"way/315909001","properties":{"type":"way","id":315909001,"tags":{"building":"yes"},"relations":[],"meta":{}},"geometry":{"type":"Polygon","coordinates":[[[31.2203415,30.0584352],[31.2202863,30.0583285],[31.2202643,30.058337],[31.2202386,30.0582873],[31.2202563,30.0582804],[31.2202443,30.058257],[31.2203012,30.058235],[31.2203049,30.0582421],[31.2204196,30.0581976],[31.2205145,30.0583809],[31.2204733,30.0583968],[31.2204679,30.0583862],[31.2203415,30.0584352]]]}},{"type":"Feature","id":"way/315909003","properties":{"type":"way","id":315909003,"tags":{"building":"yes"},"relations":[],"meta":{}},"geometry":{"type":"Polygon","coordinates":[[[31.220109,30.0581972],[31.2204289,30.0580732],[31.2204547,30.058123],[31.2201348,30.058247],[31.220109,30.0581972]]]}},{"type":"Feature","id":"way/315909005","properties":{"type":"way","id":315909005,"tags":{"building":"yes"},"relations":[],"meta":{}},"geometry":{"type":"Polygon","coordinates":[[[31.2238824,30.0603604],[31.2236256,30.0604503],[31.2235797,30.0603521],[31.2238364,30.0602621],[31.2238824,30.0603604]]]}},{"type":"Feature","id":"way/315909007","properties":{"type":"way","id":315909007,"tags":{"building":"yes"},"relations":[],"meta":{}},"geometry":{"type":"Polygon","coordinates":[[[31.2215544,30.0583403],[31.2214504,30.0581344],[31.2216083,30.0580747],[31.2217123,30.0582807],[31.2215544,30.0583403]]]}},{"type":"Feature","id":"way/315909009","properties":{"type":"way","id":315909009,"tags":{"building":"yes"},"relations":[],"meta":{}},"geometry":{"type":"Polygon","coordinates":[[[31.2210157,30.0584482],[31.2210526,30.0585144],[31.220784,30.0586266],[31.2207471,30.0585604],[31.2210157,30.0584482]]]}},{"type":"Feature","id":"way/315909011","properties":{"type":"way","id":315909011,"tags":{"building":"yes"},"relations":[],"meta":{}},"geometry":{"type":"Polygon","coordinates":[[[31.221061,30.0587281],[31.2209649,30.0587655],[31.2209166,30.0586729],[31.2210127,30.0586354],[31.221061,30.0587281]]]}},{"type":"Feature","id":"way/315909013","properties":{"type":"way","id":315909013,"tags":{"building":"yes"},"relations":[],"meta":{}},"geometry":{"type":"Polygon","coordinates":[[[31.2212,30.0587882],[31.2212352,30.0588544],[31.2209822,30.0589552],[31.220947,30.0588891],[31.2212,30.0587882]]]}},{"type":"Feature","id":"way/315909014","properties":{"type":"way","id":315909014,"tags":{"building":"yes"},"relations":[],"meta":{}},"geometry":{"type":"Polygon","coordinates":[[[31.2205829,30.0590296],[31.2204836,30.0588373],[31.2207917,30.0587181],[31.220891,30.0589104],[31.2205829,30.0590296]]]}},{"type":"Feature","id":"way/316678485","properties":{"type":"way","id":316678485,"tags":{"building":"yes","building:levels":"18","name":"سنمة تحرير","name:en":"Cinema Tahrir Building"},"relations":[],"meta":{}},"geometry":{"type":"Polygon","coordinates":[[[31.2143722,30.0394098],[31.2143534,30.0391172],[31.2146834,30.0391567],[31.21469,30.0394546],[31.2143722,30.0394098]]]}},{"type":"Feature","id":"way/321354706","properties":{"type":"way","id":321354706,"tags":{"building":"yes","community":"OP","community:fr":"Dominicains","community:gender":"male","denomination":"catholic","religion":"christian"},"relations":[],"meta":{}},"geometry":{"type":"Polygon","coordinates":[[[31.2715275,30.0569321],[31.2716294,30.0566809],[31.2716938,30.0566859],[31.2716902,30.0567053],[31.2717038,30.056706],[31.271703,30.0567386],[31.2717231,30.0567393],[31.2717263,30.0567643],[31.2719978,30.0567185],[31.2720433,30.0570032],[31.2718474,30.0570308],[31.2718209,30.0568899],[31.2715275,30.0569321]]]}},{"type":"Feature","id":"way/321354707","properties":{"type":"way","id":321354707,"tags":{"building":"yes"},"relations":[],"meta":{}},"geometry":{"type":"Polygon","coordinates":[[[31.2720155,30.0570795],[31.2720489,30.0572752],[31.2715197,30.0573429],[31.2714863,30.0571472],[31.2720155,30.0570795]]]}},{"type":"Feature","id":"way/321357158","properties":{"type":"way","id":321357158,"tags":{"building":"yes"},"relations":[],"meta":{}},"geometry":{"type":"Polygon","coordinates":[[[31.271139,30.0566461],[31.2713817,30.0567299],[31.2712306,30.0570577],[31.2712026,30.057048],[31.2711671,30.057125],[31.2711989,30.0571359],[31.2710624,30.0574322],[31.2708194,30.0573483],[31.2709524,30.0570597],[31.2710075,30.0570787],[31.2710434,30.0570008],[31.2709849,30.0569806],[31.271139,30.0566461]]]}},{"type":"Feature","id":"way/321357159","properties":{"type":"way","id":321357159,"tags":{"building":"yes"},"relations":[],"meta":{}},"geometry":{"type":"Polygon","coordinates":[[[31.2717458,30.0582786],[31.2723057,30.058467],[31.2723824,30.0588818],[31.2722021,30.0592913],[31.271413,30.0590381],[31.2717458,30.0582786]]]}},{"type":"Feature","id":"way/322007129","properties":{"type":"way","id":322007129,"tags":{"building":"commercial"},"relations":[],"meta":{}},"geometry":{"type":"Polygon","coordinates":[[[31.2458913,30.0594706],[31.2458148,30.059093],[31.2462502,30.0590269],[31.2463267,30.0594045],[31.2458913,30.0594706]]]}},{"type":"Feature","id":"way/322007130","properties":{"type":"way","id":322007130,"tags":{"building":"yes"},"relations":[],"meta":{}},"geometry":{"type":"Polygon","coordinates":[[[31.2458155,30.0590098],[31.2457599,30.05864],[31.2461681,30.058594],[31.2462237,30.0589639],[31.2458155,30.0590098]]]}},{"type":"Feature","id":"way/322007131","properties":{"type":"way","id":322007131,"tags":{"building":"yes"},"relations":[],"meta":{}},"geometry":{"type":"Polygon","coordinates":[[[31.245774,30.0585847],[31.2457358,30.0581531],[31.2461459,30.0581259],[31.2461842,30.0585575],[31.245774,30.0585847]]]}},{"type":"Feature","id":"way/334214427","properties":{"type":"way","id":334214427,"tags":{"amenity":"restaurant","building":"yes","name":"Sea Gull"},"relations":[],"meta":{}},"geometry":{"type":"Polygon","coordinates":[[[31.2193279,30.0442655],[31.219462,30.0442934],[31.2192957,30.0449295],[31.2191455,30.044897],[31.2192477,30.0445433],[31.2193279,30.0442655]]]}},{"type":"Feature","id":"way/350890363","properties":{"type":"way","id":350890363,"tags":{"amenity":"parking","building":"roof","parking":"carports"},"relations":[],"meta":{}},"geometry":{"type":"Polygon","coordinates":[[[31.2241656,30.0525578],[31.2251257,30.0523569],[31.2251481,30.0524373],[31.2241881,30.0526381],[31.2241656,30.0525578]]]}},{"type":"Feature","id":"way/372369454","properties":{"type":"way","id":372369454,"tags":{"building":"yes"},"relations":[],"meta":{}},"geometry":{"type":"Polygon","coordinates":[[[31.2455551,30.0633949],[31.2471781,30.0641233],[31.2470735,30.0642979],[31.2465641,30.0640693],[31.2465123,30.0641557],[31.2464629,30.0641336],[31.2464852,30.0640963],[31.2461681,30.063954],[31.2462001,30.0639007],[31.245453,30.0635654],[31.2455551,30.0633949]]]}},{"type":"Feature","id":"way/376242531","properties":{"type":"way","id":376242531,"tags":{"building":"commercial","name":"اليمامة سنتر","name:en":"Yamama Center","shop":"mall"},"relations":[],"meta":{}},"geometry":{"type":"Polygon","coordinates":[[[31.2206467,30.0638568],[31.2207201,30.0635485],[31.2210729,30.0636114],[31.2209995,30.0639197],[31.2206467,30.0638568]]]}},{"type":"Feature","id":"way/377856786","properties":{"type":"way","id":377856786,"tags":{"building":"yes"},"relations":[],"meta":{}},"geometry":{"type":"Polygon","coordinates":[[[31.2011658,30.0540024],[31.2012904,30.0538313],[31.2015087,30.0539504],[31.201384,30.0541215],[31.2011658,30.0540024]]]}},{"type":"Feature","id":"way/377856787","properties":{"type":"way","id":377856787,"tags":{"building":"yes"},"relations":[],"meta":{}},"geometry":{"type":"Polygon","coordinates":[[[31.2009107,30.0538368],[31.2011489,30.0536831],[31.2012573,30.0538089],[31.2010191,30.0539626],[31.2009107,30.0538368]]]}},{"type":"Feature","id":"way/378432203","properties":{"type":"way","id":378432203,"tags":{"building":"apartments"},"relations":[],"meta":{}},"geometry":{"type":"Polygon","coordinates":[[[31.2115268,30.0620855],[31.2118394,30.0621449],[31.2117699,30.0624187],[31.2114574,30.0623593],[31.2115268,30.0620855]]]}},{"type":"Feature","id":"way/378432204","properties":{"type":"way","id":378432204,"tags":{"building":"apartments"},"relations":[],"meta":{}},"geometry":{"type":"Polygon","coordinates":[[[31.208937,30.0616213],[31.2092768,30.0616458],[31.2092414,30.0619031],[31.2089547,30.0618878],[31.208937,30.0616213]]]}},{"type":"Feature","id":"way/379866045","properties":{"type":"way","id":379866045,"tags":{"amenity":"place_of_worship","building":"yes","denomination":"sunni","historic":"heritage","name":"Madrasa of Sultan al-Zahir Baybars","religion":"muslim"},"relations":[],"meta":{}},"geometry":{"type":"Polygon","coordinates":[[[31.2611614,30.0493091],[31.2612858,30.0492481],[31.2612959,30.0493254],[31.2611829,30.049372],[31.2611694,30.0493418],[31.2611614,30.0493091]]]}},{"type":"Feature","id":"way/379866352","properties":{"type":"way","id":379866352,"tags":{"amenity":"place_of_worship","building":"yes","historic":"heritage","name":"The Complex of Sultan Qalawun","religion":"muslim"},"relations":[],"meta":{}},"geometry":{"type":"Polygon","coordinates":[[[31.2610444,30.0496538],[31.2604711,30.0498527],[31.2603674,30.0498425],[31.2603165,30.0497566],[31.2602092,30.0497593],[31.2601322,30.0497753],[31.2601045,30.0497113],[31.260163,30.0496953],[31.2601322,30.0495593],[31.2603602,30.0494926],[31.2603571,30.0494313],[31.2604773,30.0494073],[31.2604372,30.0493193],[31.2605111,30.049306],[31.2604865,30.0492366],[31.2610164,30.0490819],[31.2611085,30.0492475],[31.2610536,30.0492872],[31.26107,30.0493398],[31.2610505,30.0494018],[31.2611766,30.0496745],[31.2610844,30.0497231],[31.2610444,30.0496538]]]}},{"type":"Feature","id":"way/379866524","properties":{"type":"way","id":379866524,"tags":{"amenity":"place_of_worship","building":"yes","historic":"heritage","name":"The Complex of Sultan al-Nasir Muhammad ibn Qalawun","religion":"muslim"},"relations":[],"meta":{}},"geometry":{"type":"Polygon","coordinates":[[[31.2610472,30.0496612],[31.2611671,30.0498407],[31.2611732,30.0498706],[31.261157,30.0499251],[31.2605167,30.0500659],[31.2604455,30.0499163],[31.2610472,30.0496612]]]}},{"type":"Feature","id":"way/379866559","properties":{"type":"way","id":379866559,"tags":{"amenity":"place_of_worship","building":"yes","historic":"heritage","name":"The Complex of Sultan Barquq","religion":"muslim"},"relations":[],"meta":{}},"geometry":{"type":"Polygon","coordinates":[[[31.2605884,30.0500582],[31.261157,30.0499251],[31.2611732,30.0498706],[31.2612246,30.0499772],[31.2612053,30.0499878],[31.2613608,30.0502728],[31.2611738,30.0503494],[31.2611352,30.050301],[31.2610722,30.0503203],[31.2610376,30.0502895],[31.2608191,30.0503775],[31.2605884,30.0500582]]]}},{"type":"Feature","id":"way/379868124","properties":{"type":"way","id":379868124,"tags":{"building":"yes","building:levels":"2","historic":"heritage","name":"Sabil and Kuttab Khusraw Pasha"},"relations":[],"meta":{}},"geometry":{"type":"Polygon","coordinates":[[[31.2611227,30.0490827],[31.2612284,30.0490511],[31.2612487,30.0491214],[31.2611593,30.0491531],[31.2611227,30.0490827]]]}},{"type":"Feature","id":"way/379936036","properties":{"type":"way","id":379936036,"tags":{"building":"yes","historic":"heritage","name":"The Complex of al-Salih Nejm al-Din Ayyub"},"relations":[],"meta":{}},"geometry":{"type":"Polygon","coordinates":[[[31.2612858,30.0492481],[31.2612203,30.0491197],[31.261265,30.0490792],[31.2609637,30.0483208],[31.261097,30.0482811],[31.2611491,30.0484123],[31.2610895,30.048457],[31.2617183,30.0490827],[31.2612858,30.0492481]]]}},{"type":"Feature","id":"way/387216676","properties":{"type":"way","id":387216676,"tags":{"amenity":"place_of_worship","building":"yes","denomination":"sunni","name":"مسجد الإمام محمود خطاب السبكي بالجلاء","name:ar":"معهد الجلاء لإعداد الدعاة والدراسات الإسلامية الحرة","religion":"muslim"},"relations":[],"meta":{}},"geometry":{"type":"Polygon","coordinates":[[[31.2433099,30.0588907],[31.2431221,30.0587099],[31.243318,30.0585574],[31.2435058,30.0587382],[31.2433099,30.0588907]]]}},{"type":"Feature","id":"way/387216677","properties":{"type":"way","id":387216677,"tags":{"amenity":"bank","building":"yes","name":"البنك الأهلي المصري (فرع التوفيقية)","name:ar":"البنك الأهلي المصري","name:en":"Al Ahly Bank"},"relations":[],"meta":{}},"geometry":{"type":"Polygon","coordinates":[[[31.2422767,30.0574634],[31.241988,30.0572033],[31.2422292,30.0569945],[31.242514,30.0572649],[31.2422767,30.0574634]]]}},{"type":"Feature","id":"way/391351384","properties":{"type":"way","id":391351384,"tags":{"building":"hotel","name":"فندق بيراميزا Pyramisa Hotel","name:ar":"فندق بيراميزا","name:en":"Pyramisa Hotel"},"relations":[],"meta":{}},"geometry":{"type":"Polygon","coordinates":[[[31.2176495,30.0373082],[31.2179876,30.0372165],[31.2181139,30.0375653],[31.2180178,30.0375914],[31.2179476,30.0373974],[31.2178089,30.0374351],[31.2178789,30.0376285],[31.2177756,30.0376565],[31.2176495,30.0373082]]]}},{"type":"Feature","id":"way/413980067","properties":{"type":"way","id":413980067,"tags":{"building":"apartments","ele":"10"},"relations":[],"meta":{}},"geometry":{"type":"Polygon","coordinates":[[[31.2129028,30.0601654],[31.2127648,30.0599969],[31.2131205,30.0597611],[31.2132603,30.0599326],[31.2129028,30.0601654]]]}},{"type":"Feature","id":"way/413980068","properties":{"type":"way","id":413980068,"tags":{"building":"apartments","ele":"10"},"relations":[],"meta":{}},"geometry":{"type":"Polygon","coordinates":[[[31.2133647,30.0597534],[31.2134231,30.0595635],[31.2138779,30.0596539],[31.2138142,30.059856],[31.2133647,30.0597534]]]}},{"type":"Feature","id":"way/413980069","properties":{"type":"way","id":413980069,"tags":{"building":"apartments","ele":"10"},"relations":[],"meta":{}},"geometry":{"type":"Polygon","coordinates":[[[31.2126055,30.0605881],[31.2123666,30.0605575],[31.2124533,30.0601608],[31.2127064,30.060193],[31.2126055,30.0605881]]]}},{"type":"Feature","id":"way/413980070","properties":{"type":"way","id":413980070,"tags":{"building":"apartments","ele":"10"},"relations":[],"meta":{}},"geometry":{"type":"Polygon","coordinates":[[[31.2131948,30.0604625],[31.213439,30.0603125],[31.2134036,30.0602343],[31.2135399,30.0601731],[31.2137257,30.0604442],[31.2135912,30.0605284],[31.2135416,30.0604656],[31.2133045,30.0606111],[31.2133434,30.0606831],[31.2132054,30.0607413],[31.2130232,30.0604947],[31.213147,30.0604059],[31.2131948,30.0604625]]]}},{"type":"Feature","id":"way/413980071","properties":{"type":"way","id":413980071,"tags":{"building":"apartments","ele":"10"},"relations":[],"meta":{}},"geometry":{"type":"Polygon","coordinates":[[[31.2131661,30.0614152],[31.2132292,30.0611606],[31.2131661,30.0611404],[31.2132058,30.0610252],[31.2135281,30.0610919],[31.213493,30.0612151],[31.2134253,30.0612071],[31.2133506,30.0614698],[31.2134417,30.061488],[31.2133973,30.0616072],[31.2130751,30.0615385],[31.2131031,30.0614172],[31.2131661,30.0614152]]]}},{"type":"Feature","id":"way/413980072","properties":{"type":"way","id":413980072,"tags":{"building":"apartments","ele":"10"},"relations":[],"meta":{}},"geometry":{"type":"Polygon","coordinates":[[[31.2127832,30.0613485],[31.2128673,30.0613647],[31.2128322,30.0614859],[31.21251,30.0614233],[31.2125357,30.0613122],[31.2126104,30.0613182],[31.2126711,30.0610535],[31.2125987,30.0610312],[31.2126314,30.060914],[31.212977,30.0609868],[31.2129326,30.0611],[31.2128556,30.0610939],[31.2127832,30.0613485]]]}},{"type":"Feature","id":"way/413980073","properties":{"type":"way","id":413980073,"tags":{"amenity":"place_of_worship","building":"yes"},"relations":[],"meta":{}},"geometry":{"type":"Polygon","coordinates":[[[31.2120818,30.0609727],[31.2121516,30.0610353],[31.2122455,30.0609541],[31.2123796,30.0610748],[31.212283,30.0611398],[31.2123796,30.0612257],[31.2122642,30.0613116],[31.2122106,30.0612652],[31.2121623,30.0613093],[31.2121221,30.0612628],[31.2120631,30.0612977],[31.2119903,30.0612205],[31.2120309,30.061177],[31.2119746,30.0611398],[31.2120228,30.0611073],[31.2119611,30.0610609],[31.2120818,30.0609727]]]}},{"type":"Feature","id":"way/413980074","properties":{"type":"way","id":413980074,"tags":{"building":"apartments","ele":"10"},"relations":[],"meta":{}},"geometry":{"type":"Polygon","coordinates":[[[31.2119799,30.0604759],[31.211701,30.0604248],[31.2118297,30.059935],[31.2121006,30.0599884],[31.2119799,30.0604759]]]}},{"type":"Feature","id":"way/413980075","properties":{"type":"way","id":413980075,"tags":{"building":"apartments","ele":"10"},"relations":[],"meta":{}},"geometry":{"type":"Polygon","coordinates":[[[31.2139889,30.05935],[31.2137368,30.0593198],[31.2138494,30.0588671],[31.214115,30.0589228],[31.2139889,30.05935]]]}},{"type":"Feature","id":"way/413992265","properties":{"type":"way","id":413992265,"tags":{"building":"apartments","ele":"10"},"relations":[],"meta":{}},"geometry":{"type":"Polygon","coordinates":[[[31.2114198,30.0609918],[31.2114542,30.060794],[31.2116606,30.0608132],[31.2116484,30.060899],[31.2115614,30.0608868],[31.2115493,30.0609446],[31.2116343,30.0609568],[31.2116282,30.0610216],[31.2114198,30.0609918]]]}},{"type":"Feature","id":"way/413993830","properties":{"type":"way","id":413993830,"tags":{"building":"apartments"},"relations":[],"meta":{}},"geometry":{"type":"Polygon","coordinates":[[[31.211133,30.0601273],[31.2109992,30.0599871],[31.211177,30.0598407],[31.2113408,30.0599978],[31.211133,30.0601273]]]}},{"type":"Feature","id":"way/414000559","properties":{"type":"way","id":414000559,"tags":{"amenity":"place_of_worship","building":"yes","religion":"muslim"},"relations":[],"meta":{}},"geometry":{"type":"Polygon","coordinates":[[[31.2101503,30.054852],[31.2098373,30.0545635],[31.2103129,30.054275],[31.2106097,30.0545917],[31.2101503,30.054852]]]}},{"type":"Feature","id":"way/414001473","properties":{"type":"way","id":414001473,"tags":{"amenity":"hospital","building":"yes"},"relations":[],"meta":{}},"geometry":{"type":"Polygon","coordinates":[[[31.2156338,30.0533108],[31.2154237,30.0532542],[31.2154751,30.0530925],[31.215391,30.0530844],[31.2154517,30.0529187],[31.2155218,30.0529429],[31.2155591,30.0527651],[31.2161896,30.0528823],[31.2160541,30.0534118],[31.2157319,30.0533472],[31.2156823,30.053526],[31.2156338,30.0533108]]]}},{"type":"Feature","id":"way/422434859","properties":{"type":"way","id":422434859,"tags":{"building":"church"},"relations":[],"meta":{}},"geometry":{"type":"Polygon","coordinates":[[[31.2202164,30.0623983],[31.220193,30.0624095],[31.220072,30.0622202],[31.2202008,30.0621585],[31.2203221,30.0623482],[31.2202928,30.0623623],[31.2203062,30.0623832],[31.2202301,30.0624197],[31.2202164,30.0623983]]]}},{"type":"Feature","id":"node/316982451","properties":{"type":"node","id":316982451,"tags":{"building":"entrance"},"relations":[],"meta":{}},"geometry":{"type":"Point","coordinates":[31.2489642,30.0502181]}},{"type":"Feature","id":"node/573794448","properties":{"type":"node","id":573794448,"tags":{"amenity":"place_of_worship","religion":"muslim"},"relations":[],"meta":{}},"geometry":{"type":"Point","coordinates":[31.2119903,30.0612205]}},{"type":"Feature","id":"node/2247052533","properties":{"type":"node","id":2247052533,"tags":{"entrance":"main"},"relations":[],"meta":{}},"geometry":{"type":"Point","coordinates":[31.2609896,30.0458365]}},{"type":"Feature","id":"node/3232995855","properties":{"type":"node","id":3232995855,"tags":{"entrance":"main"},"relations":[],"meta":{}},"geometry":{"type":"Point","coordinates":[31.238296,30.0579541]}}]}